,Unnamed: 0,name,latitude,longitude,address,state,loopcheck
0,0,Chick-fil-A,39.0344196,-94.580956,"['5100 Cherry St', 'Ste 216', 'Student Union', 'Kansas City, MO 64110']",MO,['Kansas City MO']
1,1,Go-Chicken-Go,39.0341524962828,-94.57304492757021,"['5101 Troost Ave', 'Kansas City, MO 64110']",MO,['Kansas City MO']
2,2,Raising Cane's Chicken Fingers,39.053247999999996,-94.593906,"['4040 Mill St', 'Kansas City, MO 64111']",MO,['Kansas City MO']
3,3,Unforked,39.082904099059796,-94.5825436150735,"['2450 Grand Blvd', 'Kansas City, MO 64108']",MO,['Kansas City MO']
4,4,Harold's Drive-In,39.10516,-94.56526,"['1337 Admiral Blvd', 'Kansas City, MO 64106']",MO,['Kansas City MO']
5,5,Tasty's,38.953788059918104,-94.5073928565736,"['9425 Blue Ridge Blvd', 'Kansas City, MO 64138']",MO,['Kansas City MO']
6,6,Chick-fil-A,38.97337,-94.6077795,"['8551 State Line Rd', 'Kansas City, MO 64114']",MO,['Kansas City MO']
7,7,Steak'M Take'M,38.9878799,-94.57602,"['7702 Troost Ave', 'Kansas City, MO 64131']",MO,['Kansas City MO']
8,8,Town Topic,39.0884847090352,-94.58882271898159,"['2021 Broadway St', 'Kansas City, MO 64108']",MO,['Kansas City MO']
9,9,In A Tub,39.1669883728027,-94.5772018432617,"['4000 N Oak Trafficway', 'Kansas City, MO 64116']",MO,['Kansas City MO']
10,10,Culver's,38.983651,-94.60780422090151,"['7953 State Line Rd', 'Kansas City, MO 64114']",MO,['Kansas City MO']
11,11,Chick-fil-A,39.0188854,-94.66712259999998,"['6039 Metcalf Ave', 'Mission Crossing Center', 'Mission Crossing Center', 'Mission, KS 66202']",KS,['Kansas City MO']
12,12,Maui Express,38.9730539727701,-94.6879997849465,"['8750 Santa Fe Dr', 'Overland Park, KS 66212']",KS,['Kansas City MO']
13,13,Pancho's Mexican Food,39.06242,-94.58617,"['3540 Main St', 'Kansas City, MO 64111']",MO,['Kansas City MO']
14,14,Winstead's Steakburger,39.041778564453104,-94.5855484008789,"['101 Emanuel Cleaver Ii Blvd', 'Kansas City, MO 64112']",MO,['Kansas City MO']
15,15,Five Guys Burgers and Fries,39.0560290412108,-94.6119690790044,"['3930 Rainbow Blvd', 'Kansas City, KS 66103']",KS,['Kansas City MO']
16,16,Chipotle Mexican Grill,39.097373,-94.58247800000001,"['1370 Walnut St', 'Kansas City, MO 64106']",MO,['Kansas City MO']
17,17,LC's Hamburgers,39.234207,-94.657218,"['7612 NW Prairie View Rd', 'Kansas City, MO 64151']",MO,['Kansas City MO']
18,18,Chick-fil-A,39.2461924,-94.6539813,"['6501 NW Barry Rd', 'Kansas City, MO 64154']",MO,['Kansas City MO']
19,19,Longboards wraps & bowls,39.20802,-94.57574,"['6269 N Oak Trfy', 'Kansas City, MO 64118']",MO,['Kansas City MO']
20,20,China Feast,39.09835,-94.54485,"['3119 E 12th St', 'Kansas City, MO 64127']",MO,['Kansas City MO']
21,21,Go-Chicken-Go,39.1052093505859,-94.6264801025391,"['59 N 7th St', 'Kansas City, KS 66101']",KS,['Kansas City MO']
22,22,Burger King,39.097561,-94.58243399999999,"['1350 Walnut St', 'Kansas City, MO 64106']",MO,['Kansas City MO']
23,23,Paul's Drive In,38.93408,-94.5086,"['10424 Blue Ridge Blvd', 'Kansas City, MO 64134']",MO,['Kansas City MO']
24,24,Texas Toms,39.1674535502257,-94.5201783254743,"['5018 NE Parvin Rd', 'Kansas City, MO 64117']",MO,['Kansas City MO']
25,25,Raising Cane's Chicken Fingers,39.257203000000004,-94.649011,"['8771 N Ambassador Dr', 'Kansas City, MO 64154']",MO,['Kansas City MO']
26,26,Jimmy John's,39.085188200000005,-94.58092959999999,"['2345 Grand Blvd', 'Ste 103', 'Kansas City, MO 64108']",MO,['Kansas City MO']
27,27,TikiTaco,39.0574236,-94.60560759999998,"['1710 W 39th St', 'Kansas City, MO 64111']",MO,['Kansas City MO']
28,28,Strip's Chicken,38.883925,-94.7999843,"['1110 E Santa Fe', 'Olathe, KS 66061']",KS,['Kansas City MO']
29,29,HiBoy Drive-In,39.06081726121771,-94.47208690995191,"['3424 S Blue Ridge Cut Off', 'Independence, MO 64055']",MO,['Kansas City MO']
30,30,Culver's,39.020168304443395,-94.6672134399414,"['6005 Metcalf Ave', 'Mission, KS 66202']",KS,['Kansas City MO']
31,31,Wings N Things Express,39.021553039550795,-94.5744857788086,"['5800 Troost', 'Kansas City, MO 64110']",MO,['Kansas City MO']
32,32,Freddy's Frozen Custard & Steakburgers,39.1863237537239,-94.5768168568611,"['5150 N Oak Trfw', 'Kansas City, MO 64118']",MO,['Kansas City MO']
33,33,Culver's,39.2103351,-94.6498445,"['5901 NW 64th St', 'Kansas City, MO 64151']",MO,['Kansas City MO']
34,34,Wendy's,39.070275,-94.585725,"['3118 Main St.', 'Kansas City, MO 64111']",MO,['Kansas City MO']
35,35,Twisted Fresh,39.209328,-94.6516452,"['6131 NW 63rd Ter', 'Kansas City, MO 64151']",MO,['Kansas City MO']
36,36,Texas Tom's,39.0687963366508,-94.5763843506575,"['709 E Linwood Blvd', 'Kansas City, MO 64109']",MO,['Kansas City MO']
37,37,Paul's Drive In,39.08443,-94.63558990000001,"['1008 Osage Ave', 'Kansas City, KS 66105']",KS,['Kansas City MO']
38,38,Freddy's Frozen Custard & Steakburgers,38.986371000000005,-94.463607,"['10019 E 350th Hwy', 'Raytown, MO 64138']",MO,['Kansas City MO']
39,39,Grandstand Burgers,39.039567299999995,-94.6862519,"['4942 Merriam Dr', 'Shawnee, KS 66203']",KS,['Kansas City MO']
40,40,Chick-fil-A,39.1289811,-94.8279301,"['10770 Parallel Pkwy', 'Kansas City, KS 66109']",KS,['Kansas City MO']
41,41,Jack in the Box,39.0983864,-94.6488269,"['211 S 18th St', 'Kansas City, KS 66102']",KS,['Kansas City MO']
42,42,Lion's Choice,38.883390000000006,-94.75038,"['14189 W 135th St', 'Olathe, KS 66062']",KS,['Kansas City MO']
43,43,Mugs Up Drive In,39.079189899999996,-94.40659000000001,"['700 E 23rd St S', 'Independence, MO 64055']",MO,['Kansas City MO']
44,44,Homer's Drive Inn,39.3057814011382,-94.91050247976,"['1320 S 4th St', 'Leavenworth, KS 66048']",KS,['Kansas City MO']
45,45,Popeyes Louisiana Kitchen,39.069561748112996,-94.55331,"['3102 Prospect Ave', 'Kansas City, MO 64128']",MO,['Kansas City MO']
46,46,Longboards,39.022227659088,-94.6478187355125,"['5415 Johnson Dr', 'Mission, KS 66205']",KS,['Kansas City MO']
47,47,Max's Burgers and Gyros,38.97761,-94.59593000000001,"['8240 Wornall Rd', 'Kansas City, MO 64114']",MO,['Kansas City MO']
48,48,Humdinger Drive In,39.1026924,-94.5521475,"['2504 E 9th St', 'Kansas City, MO 64124']",MO,['Kansas City MO']
49,49,Pepperjax Grill,39.046691032623,-94.4456273310532,"['4179 Sterling Ave', 'Kansas City, MO 64133']",MO,['Kansas City MO']
50,50,Chipotle Mexican Grill,39.0570503632255,-94.60563780526371,"['1713 W 39th St', 'Kansas City, MO 64111']",MO,['Kansas City MO']
51,51,Wendy's,39.0994755,-94.60380733,"['1601 W. 12Th Street', 'Kansas City, MO 64101']",MO,['Kansas City MO']
52,52,Five Guys,39.257728,-94.65218399999999,"['8952 NW Skyview Ave', 'Kansas City, MO 64154']",MO,['Kansas City MO']
53,53,Popeyes Louisiana Kitchen,39.02189,-94.66532,"['6821 Johnson Dr', 'Mission, KS 66202']",KS,['Kansas City MO']
54,54,In-A-Tub,39.243038,-94.65929399999999,"['8174 NW Prairie View Rd', 'Kansas City, MO 64151']",MO,['Kansas City MO']
55,55,Fritzs Railroad Restaurant,39.0829963684082,-94.5829391479492,"['2450 Grand Blvd', 'Ste 135', 'Kansas City, MO 64108']",MO,['Kansas City MO']
56,56,Wrap It Up Tex Mex Grill,39.103881,-94.584478,"['104 W 9th St', 'Ste 102', 'Kansas City, MO 64105']",MO,['Kansas City MO']
57,57,Taco Bell,39.0681220586768,-94.58349503163771,"['123 E Linwood', 'Kansas City, MO 64111']",MO,['Kansas City MO']
58,58,Taco Bell,39.055440000000004,-94.61199,"['3948 Rainbow Blvd', 'Kansas City, KS 66103']",KS,['Kansas City MO']
59,59,Potbelly Sandwich Shop,39.041590666484296,-94.591435,"['4725 Broadway', 'Kansas City, MO 64112']",MO,['Kansas City MO']
60,60,Raising Cane's Chicken Fingers,39.01529,-94.71034,"['10704 Shawnee Mission Pkwy', 'Shawnee, KS 66203']",KS,['Kansas City MO']
61,61,Church's Chicken,39.0693,-94.57859,"['3145 Gillham Plz', 'Kansas City, MO 64109']",MO,['Kansas City MO']
62,62,Wendy's,39.144293,-94.56571,"['1208 Armour Rd.', 'N.Kansas City, MO 64116']",MO,['Kansas City MO']
63,63,Freddy's Frozen Custard & Steakburgers,39.2423316985492,-94.6568640579862,"['8071 NW Roanridge Rd', 'Kansas City, MO 64151']",MO,['Kansas City MO']
64,64,Panda Express,33.6430988,-97.1550359,"['1800 I-35', 'Gainesville, TX 76240']",TX,['Kansas City MO']
65,65,Up Dog,39.092577399999996,-94.41708299999999,"['114 N Liberty St', 'Independence, MO 64050']",MO,['Kansas City MO']
66,66,Firehouse Subs,39.188866,-94.54645500000001,"['2698 NE Vivion Rd', 'Kansas City, MO 64119']",MO,['Kansas City MO']
67,67,Zaxby's Chicken Fingers & Buffalo Wings,39.2669585,-94.4483798,"['10430 NE Cookingham Dr', 'Kansas City, MO 64157']",MO,['Kansas City MO']
68,68,Giovanni's Italian Deli and Pasta,39.204763,-94.548988,"['6100 NE Antioch Rd', 'Kansas City, MO 64119']",MO,['Kansas City MO']
69,69,Taco Via,38.9572217497722,-94.68858896064378,"['8896 W 95th St', 'Overland Park, KS 66212']",KS,['Kansas City MO']
70,70,Papu's Café,38.99277877807621,-94.5968246459961,"['604 W 75th St', 'Kansas City, MO 64114']",MO,['Kansas City MO']
71,71,Burrito Bros,39.108962713859,-94.58287015327299,"['407 Main St', 'Kansas City, MO 64105']",MO,['Kansas City MO']
72,72,The Brick,39.092327000000004,-94.57976500000001,"['1727 McGee St', 'Kansas City, MO 64108']",MO,['Kansas City MO']
73,73,Freddy's Frozen Custard & Steakburgers,39.245309899999995,-94.45867559999999,"['9800 NE Barry Rd', 'Kansas City, MO 64157']",MO,['Kansas City MO']
74,74,Rise Southern Biscuits Righteous Chicken,39.002831,-94.63171700000001,"['6947 Tomahawk Rd', 'Prairie Village, KS 66208']",KS,['Kansas City MO']
75,75,Back Yard Burgers,39.0787506103516,-94.38870239257808,"['15908 E 23rd St S', 'Independence, MO 64055']",MO,['Kansas City MO']
76,76,Chick-fil-A,38.884544700000006,-94.6731579,"['7500 W 135th St', 'Overland Park, KS 66223']",KS,['Kansas City MO']
77,77,Kitty's Cafe,39.070879999999995,-94.57478,"['810 E 31st St', 'Kansas City, MO 64109']",MO,['Kansas City MO']
78,78,Zaxby's Chicken Fingers & Buffalo Wings,39.128939033243796,-94.83151707798241,"['2035 N 109th St', 'Kansas City, KS 66109']",KS,['Kansas City MO']
79,79,Popeyes Louisiana Kitchen,38.9439696,-94.607385,"['10125 State Line Rd', 'Kansas City, MO 64114']",MO,['Kansas City MO']
80,80,Panda Express,39.1844711303711,-94.5760498046875,"['4901 N Oak Trafficway Lot 4', 'Kansas City, MO 64118']",MO,['Kansas City MO']
81,81,McDonald's,39.24551820000001,-94.65972420000001,"['6830 NW 83rd Ter', 'Kansas City, MO 64152']",MO,['Kansas City MO']
82,82,Champion Burritos To Go,39.1837229170388,-94.66882232576609,"['7416 NW River Park Dr', 'Parkville, MO 64152']",MO,['Kansas City MO']
83,83,MOD Pizza,39.190437100000004,-94.5485434,"['5315 N Antioch Rd', 'Kansas City, MO 64119']",MO,['Kansas City MO']
84,84,Jalepeno Tacos kc,39.242142521887295,-94.66014810251629,"['8140 NW Prairie View Rd', 'Kansas City, MO 64151']",MO,['Kansas City MO']
85,85,Wings Cafe,39.1971120788071,-94.58746215092621,"['516 NW Englewood Rd', 'Kansas City, MO 64118']",MO,['Kansas City MO']
86,86,Panda Express,38.9847816416248,-94.60844074292221,"['7920 Stateline Rd', 'Prairie Village, KS 66208']",KS,['Kansas City MO']
87,87,Big Burger,39.188423156738295,-94.5249786376953,"['4700 NE Vivion Rd', 'Kansas City, MO 64119']",MO,['Kansas City MO']
88,88,The Snack Shack On Santa Fe,38.983109999999996,-94.67233,"['8039 Santa Fe Dr', 'Overland Park, KS 66204']",KS,['Kansas City MO']
89,89,Steak ’n Shake,39.18285,-94.58166999999999,"['4929 N Old Pike Rd', 'Gladstone, MO 64118']",MO,['Kansas City MO']
90,90,Pita Pit,39.05660904508821,-94.61208129206551,"['3918 Rainbow Blvd', 'Kansas City, KS 66103']",KS,['Kansas City MO']
91,91,Jersey Mike's Subs,38.931218,-94.40109,"['940 NW Blue Pkwy', ""101 Lee'S Summit"", ""Lee'S Summit, MO 64086""]",MO,['Kansas City MO']
92,92,Wendy's,39.01180983,-94.57394683,"['1204 Meyer Blvd', 'Kansas City, MO 64131']",MO,['Kansas City MO']
93,93,Popeyes Louisiana Kitchen,39.012333,-94.575353,"['6330 Troost Ave', 'Kansas City, MO 64131']",MO,['Kansas City MO']
94,94,Popeyes Louisiana Kitchen,39.2449475366057,-94.66068609325409,"['6901 NW 83rd Ter', 'Kansas City, MO 64152']",MO,['Kansas City MO']
95,95,Chipotle Mexican Grill,39.038905033428,-94.58687934147851,"['4851 Main St', 'Kansas City, MO 64112']",MO,['Kansas City MO']
96,96,Smashburger,38.9124854880111,-94.6604800877237,"['6551 W 119th St', 'Overland Park, KS 66209']",KS,['Kansas City MO']
97,97,Planet Sub,39.1004559608511,-94.5829472739402,"['1111 Main St', 'Ste 175', 'Kansas City, MO 64105']",MO,['Kansas City MO']
98,98,Hayes Hamburger & Chili,39.18588,-94.5499,"['2502 NE Vivion Rd', 'Kansas City, MO 64118']",MO,['Kansas City MO']
99,99,Panda Express,39.246418073365,-94.6482504980781,"['5905 NW Barry Rd', 'Kansas City, MO 64154']",MO,['Kansas City MO']
100,100,Fuzzy's Taco Shop,38.956313,-94.689205,"['8909 West 95th St', 'Overland Park, KS 66212']",KS,['Kansas City MO']
101,101,Wendy's,38.9841621795499,-94.6078610301265,"['7933 State Line Road', 'Kansas City, MO 64114']",MO,['Kansas City MO']
102,102,Never on Sunday,38.9476198,-94.58256300000001,"['9932 Holmes Rd', 'Kansas City, MO 64131']",MO,['Kansas City MO']
103,103,Chipotle Mexican Grill,39.023358878021796,-94.6648838134593,"['6864 Johnson Dr', 'Mission, KS 66202']",KS,['Kansas City MO']
104,104,Wendy's,39.169511,-94.49538100000001,"['4201 North Corrington Avenue', 'Kansas City, MO 64117']",MO,['Kansas City MO']
105,105,Steak ’n Shake,39.2455,-94.46218,"['9500 NE Barry Rd', 'Kansas City, MO 64157']",MO,['Kansas City MO']
106,106,Popeyes Louisiana Kitchen,39.20371,-94.549153,"['6060 NE Antioch Rd', 'Gladstone, MO 64119']",MO,['Kansas City MO']
107,107,Fuzzy's Taco Shop,38.943195757697,-94.5961015533475,"['10157 Wornall Rd', 'Kansas City, MO 64114']",MO,['Kansas City MO']
108,108,Steak ’n Shake,39.0153308815405,-94.6729009636556,"['7510 W 63rd St', 'Overland Park, KS 66202']",KS,['Kansas City MO']
109,109,Jimmy John's,39.102790999999996,-94.5880175,"['923 Broadway Blvd', 'Kansas City, MO 64105']",MO,['Kansas City MO']
110,110,Chipotle Mexican Grill,39.2095572435045,-94.6458191750835,"['6314 N Chatham Ave', 'Kansas City, MO 64151']",MO,['Kansas City MO']
111,111,Captain D's,39.2191900015557,-94.57653254270559,"['6860 N Oak St', 'Kansas City, MO 64118']",MO,['Kansas City MO']
112,112,Mr. Gyros Greek Food & Pastry,38.9788,-94.66813990000001,"['8234 Metcalf Ave', 'Overland Park, KS 66204']",KS,['Kansas City MO']
113,113,Burger King,39.251820186053706,-94.65281791985029,"['8581 N Boardwalk Ave', 'Kansas City, MO 64154']",MO,['Kansas City MO']
114,114,El Camino Real,39.114758,-94.626681,"['903 N 7th St', 'Kansas City, KS 66101']",KS,['Kansas City MO']
115,115,Costa Vida,38.8395600216273,-94.6848491756714,"['8093 W 159th', 'Overland Park, KS 66223']",KS,['Kansas City MO']
116,116,Firehouse Subs,39.046765,-94.44600733,"['4167 Sterling Ave', 'Kansas City, MO 64133']",MO,['Kansas City MO']
117,117,Taco Bell,39.143662,-94.56888000000001,"['1040 Armour Rd', 'North Kansas City, MO 64116']",MO,['Kansas City MO']
118,118,Boulevard Burgers,38.9247032261434,-94.73038602699671,"['12345 College Blvd', 'Overland Park, KS 66210']",KS,['Kansas City MO']
119,119,Jack in the Box,39.0218343647412,-94.6907522678376,"['9101 Johnson Dr', 'Merriam, KS 66202']",KS,['Kansas City MO']
120,120,Chick-fil-A,39.047616399999995,-94.3578382,"['18785 E 39th St S', 'Independence, MO 64057']",MO,['Kansas City MO']
121,121,Burger King,39.145007,-94.557856,"['1911 Armour Rd', 'N Kansas City, MO 64116']",MO,['Kansas City MO']
122,122,Twisted Fresh,38.926577823480294,-94.7218725681305,"['11737 College Blvd', 'Overland Park, KS 66210']",KS,['Kansas City MO']
123,123,Hardee's,39.1046604,-94.5079806,"['6323 Independence Ave', 'Kansas City, MO 64125']",MO,['Kansas City MO']
124,124,McDonald's,38.985994,-94.60769499999999,"['7887 State Line Rd', 'Kansas City, MO 64114']",MO,['Kansas City MO']
125,125,Wendy's,39.05175,-94.61231,"['4140 Rainbow Blvd.', 'Kansas City, KS 66103']",KS,['Kansas City MO']
126,126,Wendy's,39.209163000000004,-94.645785,"['6300 N. Chatham Ave', 'Kansas City, MO 64151']",MO,['Kansas City MO']
127,127,Town-Topic Hamburgers,39.0907047830256,-94.58494692990021,"['1900 Baltimore Ave', 'Kansas City, MO 64108']",MO,['Kansas City MO']
128,128,Chipotle Mexican Grill,39.173567600000005,-94.5355574,"['4323 N Chouteau Trfy', 'A-1', 'Kansas City, MO 64117']",MO,['Kansas City MO']
129,129,Chipotle Mexican Grill,38.992329999999995,-94.59544,"['501 W 75th St', 'Kansas City, MO 64114']",MO,['Kansas City MO']
130,130,Jimmy John's,39.100753499999996,-94.58045859999999,"['1103 Grand Blvd', 'Kansas City, MO 64106']",MO,['Kansas City MO']
131,131,Fritz's Railroad Restaurant,39.014649242162704,-94.74562503397459,"['13803 W 63rd St', 'Shawnee, KS 66216']",KS,['Kansas City MO']
132,132,Raising Cane's Chicken Fingers,38.8831563616333,-94.6729163380064,"['7501 W 135th St', 'Overland Park, KS 66223']",KS,['Kansas City MO']
133,133,Sonic Drive-In,39.0660347,-94.6150767,"['535 Southwest Blvd', 'Kansas City, KS 66103']",KS,['Kansas City MO']
134,134,Arby's,39.022529999999996,-94.66328,"['6780 Johnson Dr', 'Mission, KS 66202']",KS,['Kansas City MO']
135,135,Wendy's,39.185930268874,-94.576186875945,"['4931 North Oak Trafficway', 'Kansas City, MO 64118']",MO,['Kansas City MO']
136,136,El Fogon - Overland Park,38.9388656,-94.6694544,"['10450 Metcalf Ave', 'Overland Park, KS 66212']",KS,['Kansas City MO']
137,137,Chipotle Mexican Grill,39.2531169,-94.65397359999999,"['8600 N Boardwalk Ave', 'Kansas City, MO 64154']",MO,['Kansas City MO']
138,138,Tortilleria El Paisa,38.9674584737752,-94.5134010538459,"['6406 E 87th St', 'Kansas City, MO 64138']",MO,['Kansas City MO']
139,139,Wendy's,39.27424,-94.67222,"['9800 Northwest Prarie View Road', 'Kansas City, MO 64153']",MO,['Kansas City MO']
140,140,California Taco Shop,39.029296,-94.351141,"['19520 E US Hwy 40', 'Independence, MO 64055']",MO,['Kansas City MO']
141,141,Wendy's,39.022779323712705,-94.64328050178301,"['5900 Roeland Drive', 'Mission, KS 66205']",KS,['Kansas City MO']
142,142,Freddy's Frozen Custard & Steakburgers,38.9352036,-94.6402873,"['10690 Roe Ave', 'Overland Park, KS 66207']",KS,['Kansas City MO']
143,143,Helen's JAD,39.146038,-94.55725014209749,"['2002 Armour Rd', 'North Kansas City, MO 64116']",MO,['Kansas City MO']
144,144,Mr. Gyros Greek Food & Pastry,38.916192412741296,-94.6389783918858,"['11707 Roe Ave', 'Leawood, KS 66211']",KS,['Kansas City MO']
145,145,Long John Silver's,39.015316999999996,-94.70153640000001,"['9900 W 63rd St', 'Merriam, KS 66203']",KS,['Kansas City MO']
146,146,Charlie D's Seafood & Chicken,38.94887,-94.583209,"['600 E 99th St', 'Kansas City, MO 64131']",MO,['Kansas City MO']
147,147,Jimmy John's,39.056489899999995,-94.59118000000001,"['3900 Broadway Blvd', 'Kansas City, MO 64111']",MO,['Kansas City MO']
148,148,Hardee's,39.2426109313965,-94.6592864990234,"['8170 NW Prairie View Rd', 'Kansas City, MO 64151']",MO,['Kansas City MO']
149,149,Arbys,39.03867,-94.41530999999999,"['4515 S Noland Rd', 'Independence, MO 64055']",MO,['Kansas City MO']
150,150,Lion's Choice,38.6249673735695,-90.3355285122427,"['1605 S Hanley Rd', 'Brentwood, MO 63144']",MO,['St Louis MO']
151,151,O! Wing Plus,38.6906491,-90.3819558,"['10094 Page Ave', 'Saint Louis, MO 63132']",MO,['St Louis MO']
152,152,Chick-fil-A,38.628766399999996,-90.340562,"['8590 Eager Rd', 'Brentwood, MO 63144']",MO,['St Louis MO']
153,153,Culver's,38.567377,-90.395152,"['10200 Big Bend Rd', 'Saint Louis, MO 63122']",MO,['St Louis MO']
154,154,Busloop Burgers,38.729760799999994,-90.38513590000001,"['10462 St Charles Rock Rd', 'Saint Louis, MO 63074']",MO,['St Louis MO']
155,155,Big Jay's Fish Chicken & Shrimp,38.721059999999994,-90.36814,"['9701 St Charles Rock Rd', 'Saint Louis, MO 63114']",MO,['St Louis MO']
156,156,Wendy's,38.616796394715706,-90.2867531239086,"['2130 Hampton Avenue', 'St.Louis, MO 63139']",MO,['St Louis MO']
157,157,Raising Cane's Chicken Fingers,38.6122531545475,-90.32341679974189,"['2707 S Big Bend Blvd', 'Maplewood, MO 63143']",MO,['St Louis MO']
158,158,Yummi Tummi,38.609538,-90.32403000000001,"['3001 S Big Bend Blvd', 'Saint Louis, MO 63143']",MO,['St Louis MO']
159,159,Chuck A Burger,38.713297999999995,-90.354098,"['9025 St Charles Rock Rd', 'Saint Louis, MO 63114']",MO,['St Louis MO']
160,160,T-N-T Wieners,38.65603,-90.30275999999999,"['6301 Delmar Blvd', 'University City, MO 63130']",MO,['St Louis MO']
161,161,Chick-fil-A,38.55225170000001,-90.40769300000001,"['10706 Sunset Hills Plz', 'Saint Louis, MO 63127']",MO,['St Louis MO']
162,162,Freddy's Frozen Custard & Steakburgers,38.67387,-90.41074,"['10457 Olive Blvd', 'Creve Coeur, MO 63141']",MO,['St Louis MO']
163,163,Fort Taco,38.611480712890604,-90.33753204345699,"['8106 Manchester Rd', 'Saint Louis, MO 63144']",MO,['St Louis MO']
164,164,Carl's Drive In,38.612737,-90.354311,"['9033 Manchester Rd', 'Brentwood, MO 63144']",MO,['St Louis MO']
165,165,Lion's Choice,38.59044,-90.30538,"['6630 Chippewa St', 'St. Louis, MO 63109']",MO,['St Louis MO']
166,166,Steve's Hot Dogs & Burgers,38.606154,-90.23899499999999,"['3457 Magnolia Ave', 'Saint Louis, MO 63118']",MO,['St Louis MO']
167,167,Raising Cane's,38.59093,-90.294105,"['4320 Hampton Ave', 'St Louis, MO 63109']",MO,['St Louis MO']
168,168,Five Guys,38.640378000000005,-90.2478554,"['4183 Lindell Blvd', 'Saint Louis, MO 63108']",MO,['St Louis MO']
169,169,Lee's Famous Recipe,38.6043499,-90.22353000000001,"['2629 S Jefferson Ave', 'Saint Louis, MO 63118']",MO,['St Louis MO']
170,170,Kimcheese,38.68037,-90.49821,"['13435 Olive Blvd', 'Chesterfield, MO 63017']",MO,['St Louis MO']
171,171,Fozzie's Sandwich Emporium,38.631246000000004,-90.318997,"['1170 S Big Bend Blvd', 'Richmond Heights, MO 63117']",MO,['St Louis MO']
172,172,Blues City Deli,38.605057,-90.2184098,"['2438 McNair Ave', 'Saint Louis, MO 63104']",MO,['St Louis MO']
173,173,F&B's Eatery,38.59891,-90.29278000000001,"['3453 Hampton Ave', 'Saint Louis, MO 63139']",MO,['St Louis MO']
174,174,Popeyes Louisiana Kitchen,38.61122,-90.3367,"['8100 Manchester Rd', 'Brentwood, MO 63144']",MO,['St Louis MO']
175,175,Snarf's Sandwiches - MX,38.630131832110294,-90.19012797222031,"['614 Washington Ave', 'Saint Louis, MO 63101']",MO,['St Louis MO']
176,176,Chick-fil-A,38.5944461,-90.2943092,"['3801 Hampton Ave', 'Saint Louis, MO 63109']",MO,['St Louis MO']
177,177,Long John Silver's,38.6027,-90.29231999999999,"['3267 Hampton Ave', 'Saint Louis, MO 63139']",MO,['St Louis MO']
178,178,Burger King,38.60308,-90.29223,"['3259 Hampton Ave', 'Saint Louis, MO 63139']",MO,['St Louis MO']
179,179,Crazy Bowls & Wraps,38.60892,-90.36782,"['9635 Manchester Rd', 'Saint Louis, MO 63119']",MO,['St Louis MO']
180,180,Wendy's,38.60852,-90.36666,"['9604 Manchester Road', 'Rock Hill, MO 63119']",MO,['St Louis MO']
181,181,Popeyes Louisiana Kitchen,38.5533278475786,-90.321995,"['9501 Gravois Rd', 'St Louis, MO 63123']",MO,['St Louis MO']
182,182,Vitale's Deli,38.5897201403306,-90.3866659104824,"['425 N Sappington Rd', 'Saint Louis, MO 63122']",MO,['St Louis MO']
183,183,Panda Express,38.6268179,-90.33478509999999,"['1494 S Hanley', 'Richmond Heights, MO 63117']",MO,['St Louis MO']
184,184,White Castle,38.612566092272296,-90.3228010343535,"['7485 Manchester Rd', 'Maplewood, MO 63143']",MO,['St Louis MO']
185,185,Potbelly Sandwich Shop,38.649686134822396,-90.3366247055225,"['12 S Bemiston Ave', 'Clayton, MO 63105']",MO,['St Louis MO']
186,186,Lee's Famous Recipe Chicken,38.596267,-90.271339,"['3449 S Kingshighway Blvd', 'Saint Louis, MO 63139']",MO,['St Louis MO']
187,187,White Castle,38.62788,-90.24762,"['1002 S Vandeventer', 'Saint Louis, MO 63110']",MO,['St Louis MO']
188,188,White Castle,38.61828,-90.19252,"['806 S Broadway St', 'Saint Louis, MO 63102']",MO,['St Louis MO']
189,189,Chipotle Mexican Grill,38.632619904860896,-90.2338558190317,"['212 S Grand Blvd', 'Saint Louis, MO 63103']",MO,['St Louis MO']
190,190,Raising Cane's Chicken Fingers,38.6031609419681,-90.4389799101354,"['12215 Manchester Rd', 'Des Peres, MO 63131']",MO,['St Louis MO']
191,191,Chick-fil-A,38.6024927,-90.4354988,"['11997 Manchester Rd', 'Des Peres, MO 63131']",MO,['St Louis MO']
192,192,McDonald's,38.6267,-90.335488,"['1595 S Hanley', 'Brentwood, MO 63144']",MO,['St Louis MO']
193,193,Taco Bell,38.658781,-90.298734,"['851 N Skinker Blvd', 'Saint Louis, MO 63130']",MO,['St Louis MO']
194,194,Pretzel Boys,38.6003,-90.42985,"['11750 Manchester Rd', 'Saint Louis, MO 63131']",MO,['St Louis MO']
195,195,Dollar Express Chinese restaurant,38.69106,-90.38301,"['10041 Page Ave', 'St Louis, MO 63132']",MO,['St Louis MO']
196,196,Tasty Burgers,38.61468,-90.12508000000001,"['2700 State St', 'East Saint Louis, IL 62205']",IL,['St Louis MO']
197,197,Raising Cane's Chicken Fingers,38.634405,-90.346039,"['1155 Saint Louis Galleria', 'Saint Louis, MO 63117']",MO,['St Louis MO']
198,198,Five Guys,38.6345037077841,-90.34793383068849,"['1417 St Louis Galleria St', 'Saint Louis, MO 63117']",MO,['St Louis MO']
199,199,Chipotle Mexican Grill,38.6263769388415,-90.33459454694159,"['1500 S Hanley Rd', 'Saint Louis, MO 63144']",MO,['St Louis MO']
200,200,Firehouse Subs,38.592024,-90.292335,"['38 Hampton Village Plz', 'Saint Louis, MO 63109']",MO,['St Louis MO']
201,201,White Castle,38.5870651367384,-90.2759885012551,"['4525 S Kingshighway Blvd', 'Saint Louis, MO 63109']",MO,['St Louis MO']
202,202,Burger King,38.631856,-90.345721,"['1200 South Brentwood Blvd', 'Richmond Hts, MO 63117']",MO,['St Louis MO']
203,203,Raising Cane's Chicken Fingers,38.734956,-90.395207,"['11080 Saint Charles Rock Rd', 'St Ann, MO 63074']",MO,['St Louis MO']
204,204,Hardees Restaurants,38.61725,-90.28674000000001,"['2110 Hampton Ave', 'Saint Louis, MO 63139']",MO,['St Louis MO']
205,205,Steak ’n Shake,38.627226707343794,-90.2878138,"['1253 Hampton Ave', 'St. Louis, MO 63139']",MO,['St Louis MO']
206,206,Lion's Choice,38.671211,-90.447792,"['12010 Olive Blvd', 'Creve Coeur, MO 63141']",MO,['St Louis MO']
207,207,Fuzzy's Taco Shop,38.567962,-90.343242,"['8073 Watson Rd', 'St. Louis, MO 63119']",MO,['St Louis MO']
208,208,Woofies,38.6886,-90.36251,"['1919 Woodson Rd', 'Overland, MO 63114']",MO,['St Louis MO']
209,209,Penn Station East Coast Subs,38.59448,-90.29349,"['3824 Hampton Ave', 'Saint Louis, MO 63109']",MO,['St Louis MO']
210,210,Taco Bell,38.596478000000005,-90.270728,"['3440 So Kings Highway', 'Saint Louis, MO 63139']",MO,['St Louis MO']
211,211,Snarf's Sandwiches - Saint Louis,38.631838,-90.233418,"['374 S Grand Blvd', 'Saint Louis, MO 63103']",MO,['St Louis MO']
212,212,Panda Express,38.552634999999995,-90.407616,"['10722 Sunset Hills Plz', 'Saint Louis, MO 63127']",MO,['St Louis MO']
213,213,"Pieology Pizzeria, South County",38.503532376127204,-90.3296306710815,"['122 S County Center Way', 'Saint Louis, MO 63129']",MO,['St Louis MO']
214,214,Raising Cane's Chicken Fingers,38.5651741027832,-90.40615844726558,"['1034 S Kirkwood Rd', 'Kirkwood, MO 63122']",MO,['St Louis MO']
215,215,Taco Bell,38.61146438028471,-90.322731770575,"['2750 S. Big Bend Blvd.', 'Maplewood, MO 63143']",MO,['St Louis MO']
216,216,Angelo's Chicago Taste,38.7655205,-90.36904609999999,"['5908 N Lindbergh Blvd', 'Hazelwood, MO 63042']",MO,['St Louis MO']
217,217,Taco Bell,38.602799,-90.386769,"['10035 Manchester Road', 'Saint Louis, MO 63122']",MO,['St Louis MO']
218,218,Lion's Choice,38.7394804,-90.4019099,"['11265 St Charles Rock Rd', 'Bridgeton, MO 63044']",MO,['St Louis MO']
219,219,Steak ’n Shake,38.565159,-90.3596795350313,"['8609 Watson Rd', 'St. Louis, MO 63119']",MO,['St Louis MO']
220,220,Chaparritos,38.5937907,-90.2305856,"['2812 Cherokee St', 'Saint Louis, MO 63118']",MO,['St Louis MO']
221,221,Jack in the Box,38.6083708148045,-90.21342059999999,"['1807 Gravois Ave', 'Saint Louis, MO 63104']",MO,['St Louis MO']
222,222,KFC,38.6003471698941,-90.3265,"['7500 Big Bend Blvd', 'Saint Louis, MO 63119']",MO,['St Louis MO']
223,223,The Gyro Company,38.56503,-90.29238000000001,"['7240 Gravois Ave', 'Saint Louis, MO 63109']",MO,['St Louis MO']
224,224,Lee's Famous Recipe Chicken,38.658821105956996,-90.2993927001953,"['6221 Vernon Ave', 'Saint Louis, MO 63130']",MO,['St Louis MO']
225,225,Jimmy John's,38.554083,-90.319692,"['9347 Gravois Rd', 'St. Louis, MO 63123']",MO,['St Louis MO']
226,226,Park Chop Suey,38.619557,-90.20397700000001,"['1321 Chouteau Ave', 'Saint Louis, MO 63103']",MO,['St Louis MO']
227,227,Crazy Bowls & Wraps,38.638414000000004,-90.240563,"['3852 Lindell Blvd', 'Saint Louis, MO 63108']",MO,['St Louis MO']
228,228,QDOBA Mexican Eats,38.621034395329794,-90.333593711257,"['2001 Maplewood Commons Dr', 'Ste 5', 'Maplewood, MO 63143']",MO,['St Louis MO']
229,229,Tasty Treats,38.6389728,-90.2233099,"['3114 Delmar Blvd', 'Saint Louis, MO 63106']",MO,['St Louis MO']
230,230,White Castle,38.596218109130895,-90.4743881225586,"['13600 Manchester Rd', 'Saint Louis, MO 63131']",MO,['St Louis MO']
231,231,MOD Pizza,38.6534749,-90.35131109999999,"['8855K Ladue Rd', 'Ladue, MO 63124']",MO,['St Louis MO']
232,232,Jersey Mike's Subs,38.603356,-90.4378,"['12113 Manchester Rd', 'Des Peres, MO 63131']",MO,['St Louis MO']
233,233,Wendy's,38.691917,-90.39753499999999,"['10710 Page Ave', 'St.Louis, MO 63132']",MO,['St Louis MO']
234,234,Sonic Drive-In,38.602559899999996,-90.26911,"['3156 S Kingshighway Blvd', 'Saint Louis, MO 63139']",MO,['St Louis MO']
235,235,Culver's,38.510472,-90.3395984730163,"['4140 Rusty Rd', 'St. Louis, MO 63128']",MO,['St Louis MO']
236,236,Jack in the Box,38.5420891369454,-90.46386122703551,"['986 S Highway Dr', 'Fenton, MO 63026']",MO,['St Louis MO']
237,237,Arby's,38.6124714463949,-90.34677743911742,"['8720 Manchester Rd', 'Brentwood, MO 63144']",MO,['St Louis MO']
238,238,Rally's,38.6393,-90.24099,"['305 N. Vandeventer', 'St. Louis, MO 63108']",MO,['St Louis MO']
239,239,Gus's World Famous Fried Chicken,38.6121287058181,-90.3211099461381,"['7434 Manchester Rd', 'Maplewood, MO 63143']",MO,['St Louis MO']
240,240,Wendy's,38.6869743344461,-90.35637812608,"['8905 Page Ave', 'St.Louis, MO 63114']",MO,['St Louis MO']
241,241,Dairy Queen Grill & Chill,38.597058000000004,-90.332234,"['7809 Big Bend Blvd', 'Webster Groves, MO 63119']",MO,['St Louis MO']
242,242,Smashburger,38.64521523754,-90.566148322971,"['1671 Clarkson Rd', 'Chesterfield, MO 63017']",MO,['St Louis MO']
243,243,KFC,38.6923345855419,-90.39442946950571,"['10557 Page', 'Saint Louis, MO 63132']",MO,['St Louis MO']
244,244,Lion's Choice,38.519564,-90.3433444,"['6030 S Lindbergh Blvd', 'St. Louis, MO 63123']",MO,['St Louis MO']
245,245,Lion's Choice,38.55493,-90.40873,"['10765 Sunset Hills Plaza', 'Sunset Hills, MO 63127']",MO,['St Louis MO']
246,246,Jersey Mike's Subs,38.565618,-90.357714,"['8567 Watson Rd', 'Ste B', 'Webster Groves, MO 63119']",MO,['St Louis MO']
247,247,Breakfast and Burgers,38.5505971571994,-90.3343393653631,"['10024 Gravois Rd', 'Saint Louis, MO 63123']",MO,['St Louis MO']
248,248,Pickles Deli,38.64079,-90.2616,"['22 N Euclid Ave', 'Saint Louis, MO 63108']",MO,['St Louis MO']
249,249,Steak ’n Shake,38.591051,-90.27154300000001,"['4640 Chippewa', 'St. Louis, MO 63116']",MO,['St Louis MO']
250,250,Blaze Pizza,38.6277029486152,-90.3332843612686,"['8039 Dale Ave', 'Richmond, MO 63117']",MO,['St Louis MO']
251,251,Chick-fil-A,38.755936616891105,-90.43200981481479,"['12450 Saint Charles Rock Rd', 'Bridgeton, MO 63044']",MO,['St Louis MO']
252,252,Chipotle Mexican Grill,38.650436,-90.338313,"['1 N Central Ave', 'Clayton, MO 63105']",MO,['St Louis MO']
253,253,King Edwards Fried Chicken,38.5641956013518,-90.3605604190195,"['8654 Watson Rd', 'Crestwood, MO 63119']",MO,['St Louis MO']
254,254,White Castle,38.592620849609396,-90.2442474365234,"['3601 Gravois Ave', 'Saint Louis, MO 63116']",MO,['St Louis MO']
255,255,Classic Red Hots,38.6799298,-90.5005872,"['41 Forum Shopping Ctr', 'Chesterfield, MO 63017']",MO,['St Louis MO']
256,256,Jimmy John's,38.61262967,-90.31942117,"['7374 Manchester Rd', 'Maplewood, MO 63143']",MO,['St Louis MO']
257,257,Lee's Famous Recipe Chicken,38.596090999999994,-90.271232,"['3449 S Kings Hwy', 'Saint Louis, MO 63139']",MO,['St Louis MO']
258,258,Panda Express,38.673759000000004,-90.409881,"['10445 Olive Blvd', 'Creve Coeur, MO 63141']",MO,['St Louis MO']
259,259,Amighetti's,38.60901,-90.36742,"['9631 Manchester Rd', 'Saint Louis, MO 63119']",MO,['St Louis MO']
260,260,Chick-fil-A,38.4445110973437,-90.3730346,"['1 Arnold Mall', 'Arnold, MO 63010']",MO,['St Louis MO']
261,261,Porter's Fried Chicken,38.6015412,-90.32577950000001,"['3628 S Big Bend Blvd', 'Saint Louis, MO 63143']",MO,['St Louis MO']
262,262,Jack in the Box,38.5912521,-90.27386292815208,"['4201 S Kingshighway Blvd', 'Saint Louis, MO 63109']",MO,['St Louis MO']
263,263,Jimmy John's,38.6094429,-90.199629,"['1631 S Broadway', 'St. Louis, MO 63104']",MO,['St Louis MO']
264,264,Lion's Choice,38.6017,-90.43306700000001,"['11913 Manchester Rd', 'St. Louis, MO 63131']",MO,['St Louis MO']
265,265,St Louis Taco and Pita Grill,38.592940067806204,-90.56762046548451,"['15493 Manchester Rd', 'Ballwin, MO 63011']",MO,['St Louis MO']
266,266,Hardee's,38.486175,-90.358354,"['4321 Butler Hill Rd', 'Saint Louis, MO 63128']",MO,['St Louis MO']
267,267,Popeyes Louisiana Kitchen,38.485374,-90.351796,"['4103 First Missouri Credit Union Dr', 'St. Louis, MO 63129']",MO,['St Louis MO']
268,268,Taco Bell,38.617239,-90.193209,"['501 Chouteau', 'Saint Louis, MO 63102']",MO,['St Louis MO']
269,269,Burger King,38.687129999999996,-90.35954699999999,"['9203 Page Ave', 'Overland, MO 63114']",MO,['St Louis MO']
270,270,Popeyes Louisiana Kitchen,38.677040999999996,-90.31395490000001,"['7115 Page Ave', 'Saint Louis, MO 63133']",MO,['St Louis MO']
271,271,P'sghetti's Pasta & Sandwiches,38.5240222,-90.3552115,"['5540 S Lindbergh Blvd', 'Saint Louis, MO 63123']",MO,['St Louis MO']
272,272,Culver's,38.7996978759766,-90.32849884033199,"['975 N Hwy 67', 'Florissant, MO 63031']",MO,['St Louis MO']
273,273,Lion's Choice,38.505309999999994,-90.66555,"['1737 W Fifth St', 'Eureka, MO 63025']",MO,['St Louis MO']
274,274,Rally's,38.6259945,-90.2359922,"['3553 Chouteau', 'St. Louis, MO 63103']",MO,['St Louis MO']
275,275,Long John Silver's,38.439009999999996,-90.37367990000001,"['1275 Jeffco Blvd', 'Water Tower Place', 'Arnold, MO 63010']",MO,['St Louis MO']
276,276,White Castle,38.6709594726562,-90.3291168212891,"['7380 Olive Blvd', 'University City, MO 63130']",MO,['St Louis MO']
277,277,Penn Station East Coast Subs,38.549059,-90.404623,"['3828 S Lindbergh Blvd', 'Saint Louis, MO 63127']",MO,['St Louis MO']
278,278,Jack in the Box,38.61238,-90.32396999999999,"['7520 Manchester Rd', 'Maplewood, MO 63143']",MO,['St Louis MO']
279,279,Classic K Hamburgers,38.554396000000004,-90.166035,"['1613 Camp Jackson Rd', 'Cahokia, IL 62206']",IL,['St Louis MO']
280,280,QDOBA Mexican Eats,38.5939397496346,-90.2990555763245,"['6417 Chippewa St', 'St. Louis, MO 63109']",MO,['St Louis MO']
281,281,Mini Corral Hamburgers,38.900361,-90.14844000000001,"['1500 Main St', 'Alton, IL 62002']",IL,['St Louis MO']
282,282,Taco Bell,38.5836,-90.318306,"['7237 Watson Road', 'Saint Louis, MO 63119']",MO,['St Louis MO']
283,283,Rally's,38.602959999999996,-90.22385,"['2807 South Jefferson', 'St. Louis, MO 63118']",MO,['St Louis MO']
284,284,Hardee's,38.5136604309082,-90.4391021728516,"['545 Main St', 'Fenton, MO 63026']",MO,['St Louis MO']
285,285,Raising Cane's Chicken Fingers,38.80689279999999,-90.3029192,"['2800 North Highway 67', 'Florissant, MO 63033']",MO,['St Louis MO']
286,286,Taco Bell,38.747097,-90.279601,"['9951 W Florissant Ave', 'Saint Louis, MO 63136']",MO,['St Louis MO']
287,287,White Castle,38.56154,-90.4067551,"['1224 Kirkwood Rd', 'Kirkwood, MO 63122']",MO,['St Louis MO']
288,288,Wendy's,38.5919304,-90.24973299999999,"['3801 Gravois Ave', 'Saint Louis, MO 63116']",MO,['St Louis MO']
289,289,Jack in the Box,38.6115922280204,-90.2408085,"['2163 S Grand Ave', 'Saint Louis, MO 63104']",MO,['St Louis MO']
290,290,Taco Bell,38.674135,-90.371809,"['9339 Olive Blvd', 'Olivette, MO 63132']",MO,['St Louis MO']
291,291,Burger King,38.556979,-90.261185,"['932 Loughborough Ave', 'Saint Louis, MO 63111']",MO,['St Louis MO']
292,292,Crazy Bowls & Wraps,38.504463195800795,-90.37966918945308,"['12604 Lamplighter Square', 'Saint Louis, MO 63128']",MO,['St Louis MO']
293,293,Wendy's,38.51047,-90.33362,"['6925 S. Lindbergh Blvd.', 'St.Louis, MO 63125']",MO,['St Louis MO']
294,294,Burger King,38.5246,-90.47266,"['1036 Bowles Ave', 'Fenton, MO 63026']",MO,['St Louis MO']
295,295,Chick-fil-A,38.504784,-90.328266,"['4125 Lemay Ferry Rd', 'St. Louis, MO 63129']",MO,['St Louis MO']
296,296,Waffle House,38.4982696357956,-90.2996584025598,"['3154 Telegraph Rd', 'Saint Louis, MO 63125']",MO,['St Louis MO']
297,297,Steak ’n Shake,38.727447999999995,-90.342635,"['9550 Natural Brg', 'St. Louis, MO 63134']",MO,['St Louis MO']
298,298,Sonic Drive-In,38.56626,-90.40642,"['1002 S Kirkwood Rd', 'Kirkwood, MO 63122']",MO,['St Louis MO']
299,299,Lily's Mexican Restaurant,38.58682879999999,-90.27648020000001,"['4601 S Kingshighway Blvd', 'Saint Louis, MO 63109']",MO,['St Louis MO']
300,300,Chick-fil-A,37.182666600000005,-93.2957373,"['425 W Sunshine St', 'Springfield, MO 65807']",MO,['Springfield MO']
301,301,Red's Giant Hamburg,37.1832909960645,-93.32432448863979,"['2301 W Sunshine St', 'Springfield, MO 65807']",MO,['Springfield MO']
302,302,Black Sheep Burgers,37.1807788904985,-93.24868677922821,"['2420 E Sunshine St', 'Springfield, MO 65804']",MO,['Springfield MO']
303,303,Pancho's Mexican Food,37.1766403020563,-93.2949110493064,"['2110 S Campbell Ave', 'Springfield, MO 65807']",MO,['Springfield MO']
304,304,Chick-fil-A,37.14647,-93.255875,"['3700 S Glenstone Ave', 'Springfield, MO 65804']",MO,['Springfield MO']
305,305,Tinga Tacos,37.208164661504895,-93.2936102945616,"['308 W McDaniel St', 'Springfield, MO 65806']",MO,['Springfield MO']
306,306,Zaxby's Chicken Fingers & Buffalo Wings,37.1801154475338,-93.2300331071019,"['3220 E Sunshine St', 'Springfield, MO 65804']",MO,['Springfield MO']
307,307,Chick-fil-A,37.16264879999999,-93.2682817,"['2825 S Glenstone Ave', 'Ste Vc-11', 'Springfield, MO 65804']",MO,['Springfield MO']
308,308,The Grotto,37.1605621538484,-93.29325171921721,"['301 E Battlefield Rd', 'Springfield, MO 65807']",MO,['Springfield MO']
309,309,Pita Pit,37.1586821844269,-93.27381834590629,"['1318 E Battlefield', 'Springfield, MO 65804']",MO,['Springfield MO']
310,310,Popeyes Louisiana Kitchen,37.183935,-93.26198199999999,"['1710 S Glenstone Ave', 'Springfield, MO 65804']",MO,['Springfield MO']
311,311,Culver's,37.24216,-93.26037,"['2520 N Glenstone Ave', 'Springfield, MO 65803']",MO,['Springfield MO']
312,312,Braum's,37.182044819057005,-93.30990635463141,"['1401 W Sunshine St', 'Springfield, MO 65807']",MO,['Springfield MO']
313,313,Chipotle Mexican Grill,37.209739299999995,-93.27558197133621,"['1211 E Saint Louis St', 'Springfield, MO 65802']",MO,['Springfield MO']
314,314,Wendy's,37.1800563843279,-93.2272632664899,"['3334 E. Sunshine', 'Springfield, MO 65804']",MO,['Springfield MO']
315,315,Chipotle Mexican Grill,37.153023844471704,-93.29515943005951,"['3356 S Campbell Ave', 'Springfield, MO 65807']",MO,['Springfield MO']
316,316,Five Guys,37.163298,-93.264381,"['101 Battlefield Mall', 'Springfield, MO 65804']",MO,['Springfield MO']
317,317,Wendy's,37.242,-93.34435,"['3339 W.Kearney', 'Springfield, MO 65803']",MO,['Springfield MO']
318,318,Culver's,37.1499331436579,-93.2631750108656,"['1815 E Primrose St', 'Springfield, MO 65804']",MO,['Springfield MO']
319,319,Sliders Hamburgers,37.208099,-93.292762,"['208 W McDaniel St', 'Springfield, MO 65806']",MO,['Springfield MO']
320,320,Mexican Villa,37.164032,-93.29645500000001,"['2755 S Campbell Ave', 'Springfield, MO 65807']",MO,['Springfield MO']
321,321,Tacos el Gordo,37.117,-93.29579,"['5360 S Campbell Ave', 'Springfield, MO 65810']",MO,['Springfield MO']
322,322,Pita Pit,37.1809457913729,-93.2300930081926,"['3233 E Sunshine', 'Ste 112', 'Springfield, MO 65804']",MO,['Springfield MO']
323,323,Purple Burrito,37.184568,-93.294288,"['1700 S Campbell Ave', 'Ste A', 'Springfield, MO 65807']",MO,['Springfield MO']
324,324,The Wheelhouse,37.18206,-93.260681,"['1845 E Sunshine St', 'Springfield, MO 65804']",MO,['Springfield MO']
325,325,Hardee's,37.209175109863295,-93.2278213500977,"['3312 E Chestnut Expy', 'Springfield, MO 65802']",MO,['Springfield MO']
326,326,Long John Silver's,37.237190000000005,-93.26069,"['2236 N Glenstone Ave', 'Springfield, MO 65803']",MO,['Springfield MO']
327,327,Freddy's Frozen Custard and Steakburgers,37.144709999999996,-93.25636,"['3757 S Glenstone Ave', 'Springfield, MO 65804']",MO,['Springfield MO']
328,328,Popeyes Louisiana Kitchen,37.1565138,-93.29613499999999,"['3195 S Campbell Ave', 'Springfield, MO 65807']",MO,['Springfield MO']
329,329,Wendy's,37.18255,-93.29354000000001,"['225 W Sunshine', 'Springfield, MO 65807']",MO,['Springfield MO']
330,330,Panda Express,37.1422580638676,-93.2607096121204,"['1905 E Independence', 'Springfield, MO 65804']",MO,['Springfield MO']
331,331,Firehouse Subs,37.20641,-93.28697,"['401 S Kimbrough Ave', 'Springfield, MO 65806']",MO,['Springfield MO']
332,332,Steak ’n Shake,37.1585374317598,-93.22952516757601,"['3247 E Battlefield', 'Springfield, MO 65804']",MO,['Springfield MO']
333,333,Wendy's,37.14848374180529,-93.29528921562469,"['3558 S. Campbell', 'Springfield, MO 65807']",MO,['Springfield MO']
334,334,Culver's,37.18143,-93.27104,"['1400 E Sunshine St', 'Springfield, MO 65804']",MO,['Springfield MO']
335,335,Schlotzsky's,37.22249,-93.26089,"['1316 North Glenstone', 'Springfield, MO 65802']",MO,['Springfield MO']
336,336,Jersey Mike's Subs,37.159319,-93.2818235,"['1008 East Battlefield Rd', 'Springfield, MO 65807']",MO,['Springfield MO']
337,337,Hong Kong Inn,37.227939899999996,-93.26201999999999,"['1645 N Glenstone Ave', 'Springfield, MO 65803']",MO,['Springfield MO']
338,338,Great American Taco Company,37.159002,-93.23820400000001,"['2915 E Battlefield Rd', 'Springfield, MO 65804']",MO,['Springfield MO']
339,339,Freddy's Frozen Custard & Steakburgers,37.132711,-93.29952800000001,"['615 W El Camino Alto Dr', 'Springfield, MO 65810']",MO,['Springfield MO']
340,340,Steak ’n Shake,37.209295700000006,-93.27644072009659,"['1158 St Louis St', 'Springfield, MO 65806']",MO,['Springfield MO']
341,341,QDOBA Mexican Eats,37.206635225987206,-93.2869524657747,"['401 S Kimbrough Ave', 'Ste 100', 'Springfield, MO 65806']",MO,['Springfield MO']
342,342,Jersey Mike's Subs,37.180147999999996,-93.262852,"['1903 S Glenstone Ave', 'Springfield, MO 65804']",MO,['Springfield MO']
343,343,Jimmy John's,37.20678,-93.29039,"['322 E Walnut St', 'Springfield, MO 65806']",MO,['Springfield MO']
344,344,Taco Bell,37.203676,-93.276168,"['601 South National Avenue', 'Springfield, MO 65804']",MO,['Springfield MO']
345,345,Braum's,37.213451385498,-93.26097869873051,"['604 N Glenstone Ave', 'Springfield, MO 65802']",MO,['Springfield MO']
346,346,Popeyes Louisiana Kitchen,37.241153000000004,-93.306201,"['1231 West Kearney Street', 'Springfield, MO 65803']",MO,['Springfield MO']
347,347,Steak ’n Shake,37.2472552546915,-93.25996140000001,"['2760 N Glenstone', 'Springfield, MO 65803']",MO,['Springfield MO']
348,348,Wendy's,37.24047,-93.30704,"['1312 W. Kearney', 'Springfield, MO 65803']",MO,['Springfield MO']
349,349,Firehouse Subs,37.1389296825934,-93.27876180410391,"['4135 South National Ave', 'Springfield, MO 65807']",MO,['Springfield MO']
350,350,Wendy's,37.15902,-93.27521,"['1272 E. Battlefield', 'Springfield, MO 65804']",MO,['Springfield MO']
351,351,Wendy's,37.1430576597476,-93.2558186512196,"['2125 E Independence', 'Springfield, MO 65804']",MO,['Springfield MO']
352,352,Yanni's Greek Gyros,37.158916999999995,-93.276662,"['3014 S National Ave', 'Springfield, MO 65804']",MO,['Springfield MO']
353,353,Arby's,37.200958251953104,-93.2625274658203,"['735 S Glenstone Ave', 'Springfield, MO 65802']",MO,['Springfield MO']
354,354,Wendy's,37.1388,-93.31721,"['1723 W. Republic Road', 'Springfield, MO 65807']",MO,['Springfield MO']
355,355,Steak ’n Shake,37.1854749095626,-93.2619671523571,"['1550 S Glenstone', 'Springfield, MO 65804']",MO,['Springfield MO']
356,356,Dairy Queen Grill & Chill,37.1389656,-93.29555109143259,"['4150 S Campbell St', 'Springfield, MO 65807']",MO,['Springfield MO']
357,357,Firehouse Subs,37.18118,-93.22698000000001,"['3309 E. Sunshine St.', 'Ste B', 'Springfield, MO 65804']",MO,['Springfield MO']
358,358,Arby's,37.1742,-93.29568990000001,"['2225 S Campbell Ave', 'Springfield, MO 65807']",MO,['Springfield MO']
359,359,Tropical Smoothie Cafe,37.181131293871104,-93.2197682093264,"['3645 E Sunshine St', 'Springfield, MO 65809']",MO,['Springfield MO']
360,360,Panda Express,37.215015,-93.261161,"['720 N Glenstone Ave', 'Springfield, MO 65803']",MO,['Springfield MO']
361,361,Tortilleria Perches,37.183504,-93.314808,"['1601 W Sunshine St', 'Springfield, MO 65807']",MO,['Springfield MO']
362,362,QDOBA Mexican Eats,37.1812788373257,-93.24311323463921,"['2631 E Sunshine St', 'Springfield, MO 65804']",MO,['Springfield MO']
363,363,Taco Bell,37.240829999999995,-93.307,"['1335 W Kearney St', 'Springfield, MO 65803']",MO,['Springfield MO']
364,364,Taco Bell,37.154627000000005,-93.295624,"['3340 South Campbell', 'Springfield, MO 65807']",MO,['Springfield MO']
365,365,KFC,37.1597072514289,-93.3168832130405,"['1808 W Battlefield St', 'Springfield, MO 65807']",MO,['Springfield MO']
366,366,Chick-fil-A,37.199674,-93.2786165,"['901 S National', 'Plaster Student Union', 'Plaster Student Union', 'Springfield, MO 65897']",MO,['Springfield MO']
367,367,Jimmy John's,37.195915,-93.261423,"['1002 S Glenstone', 'Ste 100', 'Springfield, MO 65804']",MO,['Springfield MO']
368,368,Arbys,37.208797,-93.348123,"['230 S West Byp', 'Springfield, MO 65802']",MO,['Springfield MO']
369,369,Burger King,37.159526,-93.296125,"['3009 South Campbell Ave', 'Springfield, MO 65807']",MO,['Springfield MO']
370,370,Panera Bread,37.204951,-93.275777,"['500 S National Ave', 'Springfield, MO 65802']",MO,['Springfield MO']
371,371,Arby's,37.138889312744105,-93.3188858032227,"['1833 W Republic Rd', 'Springfield, MO 65807']",MO,['Springfield MO']
372,372,Hardee's,37.160571999999995,-93.31287900000001,"['1515 W Battlefield', 'Springfield, MO 65807']",MO,['Springfield MO']
373,373,Burger King,37.20427,-93.27653000000001,"['525 South National', 'Springfield, MO 65802']",MO,['Springfield MO']
374,374,QDOBA Mexican Eats,37.1588481,-93.28276650000001,"['900 E Battlefield Rd', 'Ste 164', 'Springfield, MO 65807']",MO,['Springfield MO']
375,375,McDonald's,37.2083797580283,-93.2755565643311,"['234 S National Ave', 'Springfield, MO 65802']",MO,['Springfield MO']
376,376,Jimmy John's,37.180937799999995,-93.23013305664058,"['3233 E Sunshine St', 'Ste. 108', 'Springfield, MO 65804']",MO,['Springfield MO']
377,377,Hardee's,37.159118,-93.270425,"['1444 E Battlefield', 'Springfield, MO 65804']",MO,['Springfield MO']
378,378,McDonald's,37.182748,-93.296772,"['501 W Sunshine', 'Springfield, MO 65807']",MO,['Springfield MO']
379,379,Jimmy John's,37.154157,-93.296235,"['3305 S Campbell Ave', 'Ste. E', 'Springfield, MO 65807']",MO,['Springfield MO']
380,380,Village Inn,37.137679999999996,-93.29545999999999,"['4222 S Campbell Ave', 'Springfield, MO 97477']",MO,['Springfield MO']
381,381,KFC,37.181585377273,-93.2521614472361,"['2237 E Sunshine St', 'Springfield, MO 65804']",MO,['Springfield MO']
382,382,Hardee's,37.21285,-93.34798,"['3465 W Chestnut Expwy', 'Springfield, MO 65802']",MO,['Springfield MO']
383,383,KFC,37.2405105183259,-93.2983823681364,"['726 W Kearney St', 'Springfield, MO 65803']",MO,['Springfield MO']
384,384,Dairy Queen Grill & Chill,37.20838,-93.3232705790477,"['2300 W College St', 'Springfield, MO 65806']",MO,['Springfield MO']
385,385,Burger King,37.236376,-93.260561,"['2138 North Glenstone Ave', 'Springfield, MO 65803']",MO,['Springfield MO']
386,386,McDonald's,37.2366484339654,-93.2605646,"['2220 N Glenstone Rd', 'Springfield, MO 65803']",MO,['Springfield MO']
387,387,Jimmy John's,37.149846999999994,-93.27716579999999,"['3536 S National Ave', 'Springfield, MO 65804']",MO,['Springfield MO']
388,388,Steak ’n Shake,37.1456701647201,-93.2966439134907,"['3755 S Campbell St', 'Springfield, MO 65807']",MO,['Springfield MO']
389,389,KFC,37.20994783273979,-93.3478239650297,"['240 W Bypass N', 'Springfield, MO 65802']",MO,['Springfield MO']
390,390,Taco Bell,37.181234,-93.252347,"['2249 East Sunshine', 'Springfield, MO 65804']",MO,['Springfield MO']
391,391,George's Family Restaurant,37.20697020000001,-93.262291,"['339 S Glenstone Ave', 'Springfield, MO 65802']",MO,['Springfield MO']
392,392,Taco Bell,37.182683924389295,-93.2992044781186,"['629 West Sunshine Street', 'Springfield, MO 65807']",MO,['Springfield MO']
393,393,Burger King,37.138732,-93.320255,"['1929 West Republic Rd', 'Springfield, MO 65807']",MO,['Springfield MO']
394,394,Amigos Mexican Restaurant,37.176059,-93.294876,"['2118 S Campbell Ave', 'Springfield, MO 65807']",MO,['Springfield MO']
395,395,Hardee's,37.23766,-93.26061,"['2260 N Glenstone', 'Springfield, MO 65803']",MO,['Springfield MO']
396,396,Subway,37.1795098,-93.27730527727459,"['1923 S National Ave', 'Springfield, MO 65804']",MO,['Springfield MO']
397,397,McDonald's,37.21162247415079,-93.3495479822159,"['3510 W Chestnut Expy', 'Springfield, MO 65802']",MO,['Springfield MO']
398,398,Captain D's,37.15996129999999,-93.276635,"['2964 S National Rd', 'Springfield, MO 65804']",MO,['Springfield MO']
399,399,Dairy Queen Grill & Chill,37.2412025266948,-93.3083676043088,"['1411 W Kearney St', 'Springfield, MO 65803']",MO,['Springfield MO']
400,400,Dairy Queen Grill & Chill,37.1804899226886,-93.21909151509321,"['3665 E Sunshine St', 'Springfield, MO 65809']",MO,['Springfield MO']
401,401,KFC,37.0251213049816,-93.224658781699,"['1693 W Jackson', 'Ozark, MO 65721']",MO,['Springfield MO']
402,402,Sonic Drive-In,37.227607389449204,-93.26091640000001,"['1630 N Glenstone', 'Springfield, MO 65803']",MO,['Springfield MO']
403,403,Pasta Express Catering,37.1568145751953,-93.2303085327148,"['3250 E Battlefield St', 'Ste H', 'Springfield, MO 65804']",MO,['Springfield MO']
404,404,Wendy's,37.2125420728252,-93.3788833022118,"['4939 West Chestnut Expressway', 'Springfield, MO 65802']",MO,['Springfield MO']
405,405,Wendy's,37.131405,-93.459144,"['1329 Us 60 East', 'Republic, MO 65738']",MO,['Springfield MO']
406,406,Braum's Ice Cream & Dairy Stores,37.072152942692,-93.2268378284486,"['1880 James River Rd', 'Ozark, MO 65721']",MO,['Springfield MO']
407,407,Jimmy John's,37.245940000000004,-93.31142,"['2645 N Kansas Expy', 'Springfield, MO 65803']",MO,['Springfield MO']
408,408,Sonic Drive-In,37.229599900000004,-93.2976276,"['635 W Commercial', 'Springfield, MO 65803']",MO,['Springfield MO']
409,409,QDOBA Mexican Eats,37.1395912,-93.3204385,"['4127 S Kansas Expy', 'Ste 104', 'Springfield, MO 65807']",MO,['Springfield MO']
410,410,Sonic Drive-In,37.159447,-93.292909,"['210 West Battelfield', 'Springfield, MO 65807']",MO,['Springfield MO']
411,411,Captain D's,37.1805887965117,-93.24402987957,"['2604 E Sunshine St', 'Springfield, MO 65804']",MO,['Springfield MO']
412,412,Sonic Drive-In,37.1827064,-93.30682940000001,"['1107 West Sunshine', 'Springfield, MO 65807']",MO,['Springfield MO']
413,413,McDonald's,37.2404899602873,-93.3039920032024,"['1114 W Kearney', 'Springfield, MO 65803']",MO,['Springfield MO']
414,414,McDonald's,37.157609,-93.227565,"['3320 E Battlefield Rd', 'Springfield, MO 65804']",MO,['Springfield MO']
415,415,Sonic Drive-In,37.1370053,-93.26578663,"['1642 East Republic Rd', 'Springfield, MO 65804']",MO,['Springfield MO']
416,416,Taco Bell,37.1624383814,-93.26807395459998,"['2825 S Glenstone Ave', 'Ste VC5', 'Springfield, MO 65804']",MO,['Springfield MO']
417,417,Country Girls Espresso,37.181236,-93.242198,"['2671 E Sunshine St', 'Springfield, MO 65804']",MO,['Springfield MO']
418,418,McDonald's,37.1382255,-93.3624973,"['4022 A West Republic Rd', 'Springfield, MO 65619']",MO,['Springfield MO']
419,419,Sonic Drive-In,37.2126396,-93.3504384,"['3525 Chestnut Expy', 'Springfield, MO 65802']",MO,['Springfield MO']
420,420,Taco Bell,37.139235418653996,-93.3273109720273,"['4140 S Lipscomb Ave', 'Springfield, MO 65807']",MO,['Springfield MO']
421,421,Subway,37.203049031407,-93.2865603,"['605 E Harrison', 'Springfield, MO 65806']",MO,['Springfield MO']
422,422,Taco Bell,37.299554712860996,-93.4224501249133,"['405 E. Walnut Lane', 'Willard, MO 65781']",MO,['Springfield MO']
423,423,Subway,37.16044534615239,-93.291551590783,"['321 E Battlefield', 'Ste 104', 'Battlefield Plaza', 'Springfield, MO 65807']",MO,['Springfield MO']
424,424,Taco Bell,37.162943,-93.276883,"['2933 S National Ave.', 'Springfield, MO 65804']",MO,['Springfield MO']
425,425,Subway,37.139078399999995,-93.2777011671595,"['4118 S National Ave', 'Springfield, MO 65807']",MO,['Springfield MO']
426,426,Sonic Drive-In,37.138859000000004,-93.330586,"['2605 West Republic Rd', 'Springfield, MO 65807']",MO,['Springfield MO']
427,427,McDonald's,37.1398668161996,-93.29693200615341,"['4101 S Campbell', 'Springfield, MO 65807']",MO,['Springfield MO']
428,428,Cielito Lindo,37.1496570813479,-93.2953534069673,"['3530 S Campbell Ave', 'Springfield, MO 65810']",MO,['Springfield MO']
429,429,Springfield Family Restaurant,37.17431,-93.29477,"['2222 S Campbell Ave', 'Springfield, MO 65807']",MO,['Springfield MO']
430,430,McDonald's,37.2477293919626,-93.31142373383051,"['2811 N Kansas Expwy', 'Springfield, MO 65803']",MO,['Springfield MO']
431,431,Sonic Drive-In,37.0249774,-93.214646,"['1108 W Jackson', 'Ozark, MO 65721']",MO,['Springfield MO']
432,432,Mexican Villa Comida,37.205220000000004,-93.2614,"['434 S Glenstone Ave', 'Springfield, MO 65802']",MO,['Springfield MO']
433,433,McDonald's,37.1806207997114,-93.2462952239621,"['2512 E Sunshine', 'Springfield, MO 65804']",MO,['Springfield MO']
434,434,Taco Bell,37.212176,-93.34801999999999,"['3511 W Chestnut Expy.', 'Springfield, MO 65802']",MO,['Springfield MO']
435,435,Taco Bell,37.222862,-93.261577,"['1348 N Glenstone', 'Springfield, MO 65802']",MO,['Springfield MO']
436,436,Arby's,37.05364,-93.30269,"['713 McCroskey St', 'Nixa, MO 65714']",MO,['Springfield MO']
437,437,Wendy's,37.06078283,-93.30182367,"['450 W. Aldersgate', 'Nixa, MO 65714']",MO,['Springfield MO']
438,438,McDonald's,37.209234242202,-93.2287640869617,"['3250 E Chestnut Expy', 'Springfield, MO 65804']",MO,['Springfield MO']
439,439,Taco Bell,37.275574,-93.115729,"['Travel Centers Of America', '225 East Evergreen', 'Strafford, MO 65757']",MO,['Springfield MO']
440,440,Subway,37.1795951071745,-93.2253977257897,"['1830 Ingram Mill Rd', 'Springfield, MO 65804']",MO,['Springfield MO']
441,441,Braum's,37.24434,-93.31158,"['2555 N Kansas Expy', 'Springfield, MO 65803']",MO,['Springfield MO']
442,442,Subway,37.1263862085414,-93.3689529700984,"['4852 S Hwy FF', 'Unit B', 'Battlefield, MO 65619']",MO,['Springfield MO']
443,443,McDonald's,37.142663099643,-93.25612127780909,"['2115 E Independence', 'Springfield, MO 65804']",MO,['Springfield MO']
444,444,Subway,37.139475,-93.3187077,"['4126 S Kansas Expy', 'Ste 100', 'Springfield, MO 65807']",MO,['Springfield MO']
445,445,McDonald's,37.1605515765492,-93.315556,"['1717 W Battlefield', 'Springfield, MO 65807']",MO,['Springfield MO']
447,447,McDonald's,37.1242095060254,-93.46621200442308,"['895 US Hwy 60 E', 'Republic, MO 65738']",MO,['Springfield MO']
448,448,Mexican Villa,37.1820499,-93.30702,"['1100 W Sunshine St', 'Springfield, MO 65807']",MO,['Springfield MO']
449,449,Subway,37.2174390087444,-93.2610967194606,"['914 N Glenstone Ave', 'Springfield, MO 65802']",MO,['Springfield MO']
450,450,Mad Cow,38.911662712486,-92.332072753019,"['503 E Nifong Blvd', 'Ste I', 'Columbia, MO 65201']",MO,['Columbia MO']
451,451,Chick-fil-A,38.9595372,-92.37203659999999,"['305 N Stadium Blvd', 'Columbia, MO 65203']",MO,['Columbia MO']
452,452,Penn Station,38.910475124341296,-92.3374068461014,"['203 E Nifong Blvd', 'Columbia, MO 65203']",MO,['Columbia MO']
453,453,Just Jeff's Street Food,38.96632920645379,-92.34693892300129,"['701 Business Loop 70 W', 'Columbia, MO 65203']",MO,['Columbia MO']
454,454,Chipotle Mexican Grill,38.947979,-92.327413,"['306 S 9th St', 'Columbia, MO 65201']",MO,['Columbia MO']
455,455,Culver's,38.947360992431605,-92.30050659179692,"['2520 Broadway Bluffs Dr', 'Columbia, MO 65201']",MO,['Columbia MO']
456,456,Freddy's Frozen Custard & Steakburgers,38.947829824821795,-92.29547202152658,"['100 Brickton Ave', 'Ste 110', 'Columbia, MO 65201']",MO,['Columbia MO']
457,457,White Castle,38.96439,-92.2868699,"['3401 Clark Ln', 'Columbia, MO 65202']",MO,['Columbia MO']
458,458,The Station House,38.911409,-92.472716,"['8825 Sarr St', ""Katfish Katy's"", 'Columbia, MO 65203']",MO,['Columbia MO']
459,459,Seoul Taco,38.9513890146455,-92.32570211301149,"['1020 E Broadway St', 'Columbia, MO 65201']",MO,['Columbia MO']
460,460,Popeyes Louisiana Kitchen,38.965115999999995,-92.335549,"['111 Business Loop 70 E', 'Columbia, MO 65203']",MO,['Columbia MO']
461,461,Zaxby's Chicken Fingers & Buffalo Wings,38.934067999999996,-92.29236800000001,"['1411 Cinnamon Hill Ln', 'Columbia, MO 65201']",MO,['Columbia MO']
462,462,Firehouse Subs,38.9470173645379,-92.29697418342941,"['2703 East Broadway', 'Ste 125', 'Columbia, MO 65201']",MO,['Columbia MO']
463,463,Wendy's,38.9633,-92.29079399999999,"['3110 Clark Lane', 'Columbia, MO 65202']",MO,['Columbia MO']
464,464,Slim Chickens,38.948085600000006,-92.2978602,"['2461 Trimble Rd', 'Columbia, MO 65201']",MO,['Columbia MO']
465,465,Popeyes Louisiana Kitchen,38.90912,-92.32897,"['3700 Hyde Park Ave', 'Columbia, MO 65201']",MO,['Columbia MO']
466,466,Panda Express,38.949791,-92.2940216,"['91 Conley Rd', 'Columbia, MO 65201']",MO,['Columbia MO']
467,467,Steak ’n Shake,38.9631086624086,-92.29297891259192,"['3004 Clark Ln', 'Columbia, MO 65202']",MO,['Columbia MO']
468,468,Jersey Mike's Subs,38.911046,-92.325458,"['1101 Grindstone Pkwy', 'Ste 105', 'Columbia, MO 65201']",MO,['Columbia MO']
469,469,Carlito's Cabo - North Columbia,38.9648409547811,-92.3376440629363,"['12-A Business Lp 70 E', 'Columbia, MO 65203']",MO,['Columbia MO']
470,470,Jack in the Box,38.9136354,-92.31965079903601,"['1401 Grindstone Pkwy', 'Columbia, MO 65201']",MO,['Columbia MO']
471,471,Dairy Queen,38.9637371723217,-92.32899561524391,"['700 Business Lp E', 'Columbia, MO 65201']",MO,['Columbia MO']
472,472,Wendy's,38.964912414550795,-92.3717575073242,"['2116 Bernadette Dr', 'Columbia, MO 65203']",MO,['Columbia MO']
473,473,Steak ’n Shake,38.960650870947596,-92.3684307,"['1912 W Worley St', 'Columbia, MO 65203']",MO,['Columbia MO']
474,474,Wendy's,38.910579999999996,-92.333812,"['403 East Nifong Boulevard', 'Columbia, MO 65203']",MO,['Columbia MO']
475,475,G & D Pizzaria,38.9551,-92.37334,"['2101 W Broadway', 'Columbia, MO 65203']",MO,['Columbia MO']
476,476,Jimmy John's,38.988537,-92.325335,"['912-A Rainforest Pkwy', 'Columbia, MO 65202']",MO,['Columbia MO']
477,477,Chipotle Mexican Grill,38.947429989485705,-92.3000481165676,"['2540 Broadway Bluffs Dr', 'Ste 101', 'Columbia, MO 65201']",MO,['Columbia MO']
478,478,Five Guys,38.9583308,-92.37151440000001,"['233 N Stadium Blvd', 'Columbia, MO 65203']",MO,['Columbia MO']
479,479,McDonald's,38.909566999999996,-92.3327051,"['500 Nifong Blvd E', 'Columbia, MO 65201']",MO,['Columbia MO']
480,480,Falafel Cafe,38.963809999999995,-92.37556,"['2300 Bernadette Dr', 'Columbia, MO 65203']",MO,['Columbia MO']
481,481,Crushed Red,38.94758,-92.29984,"['2540 Broadway Bluffs Dr', 'Ste 109', 'Columbia, MO 65201']",MO,['Columbia MO']
482,482,El Rancho,38.9513378,-92.3258541,"['1014 E Broadway', 'Columbia, MO 65201']",MO,['Columbia MO']
483,483,McDonald's,38.965266,-92.3349474,"['205 Business Lp', 'Columbia, MO 65201']",MO,['Columbia MO']
484,484,Taco Bell,38.964749,-92.334822,"['220 Business Loop 70 E', 'Columbia, MO 65203']",MO,['Columbia MO']
485,485,Burger King,38.963464,-92.287231,"['3400 Clark Lane', 'Columbia, MO 65202']",MO,['Columbia MO']
486,486,Jimmy John's,38.95183,-92.32593,"['1019 East Broadway', 'Columbia, MO 65201']",MO,['Columbia MO']
487,487,KFC,38.90922052856379,-92.3298299528105,"['3700 Buttonwood Dr', 'Columbia, MO 65201']",MO,['Columbia MO']
488,488,KFC,38.9607915258911,-92.36972408159728,"['2004 W Worley', 'Columbia, MO 65203']",MO,['Columbia MO']
489,489,Broadway Diner,38.95082,-92.33268000000001,"['22 S 4th St', 'Columbia, MO 65201']",MO,['Columbia MO']
490,490,Sonic Drive-In,38.91027329999999,-92.3308604248268,"['701 E Nifong Blvd', 'Columbia, MO 65201']",MO,['Columbia MO']
491,491,Taco Bell,38.909729999999996,-92.33187,"['508 E Nifong Blvd', 'Columbia, MO 65201']",MO,['Columbia MO']
492,492,Jimmy's Family Steak House,38.91683,-92.33564,"['3101 S Providence Rd', 'Columbia, MO 65203']",MO,['Columbia MO']
493,493,McDonald's,38.96089,-92.37207,"['415 N Stadium Blvd', 'Columbia, MO 65203']",MO,['Columbia MO']
494,494,Pickleman's Gourmet Cafe,38.95115,-92.32494,"['1106 E. Broadway', 'Columbia, MO 65201']",MO,['Columbia MO']
495,495,Taco Bell,38.946774,-92.334775,"['411 S Providence Rd', 'Columbia, MO 65203']",MO,['Columbia MO']
496,496,Arby's,38.95382,-92.38531,"['3200 W Broadway Business Park Ct', 'Columbia, MO 65203']",MO,['Columbia MO']
497,497,Taco Bell,38.96567,-92.37031,"['2009 Bernadette Drive', 'Columbia, MO 65203']",MO,['Columbia MO']
498,498,Hardee's,38.967643737793004,-92.30731201171879,"['2016 Paris Rd', 'Columbia, MO 65202']",MO,['Columbia MO']
499,499,KFC,38.9633445647351,-92.28907670548159,"['3212 Clark Ln', 'Columbia, MO 65202']",MO,['Columbia MO']
500,500,Arby's,38.907600402831996,-92.3358993530273,"['3911 S Providence Rd', 'Columbia, MO 65203']",MO,['Columbia MO']
501,501,Andy's Frozen Custard,38.908697,-92.3311086,"['610 Cooper Dr N', 'Columbia, MO 65201']",MO,['Columbia MO']
502,502,Sonic Drive-In,38.947520000000004,-92.29549,"['200 Brickton Rd', 'Columbia, MO 65201']",MO,['Columbia MO']
503,503,Taco Bell,38.96420689461829,-92.28895241964341,"['3301 Clark Lane', 'Columbia, MO 65202']",MO,['Columbia MO']
505,505,Jimmy John's,38.95514,-92.39534,"['4008 W Broadway', 'Columbia, MO 65203']",MO,['Columbia MO']
506,506,McDonald's,38.963254,-92.289923,"['3206 Clark Ln', 'Columbia, MO 65202']",MO,['Columbia MO']
507,507,Sonic Drive-In,38.9627271,-92.250674,"['5700 E Saint Charles Rd', 'Columbia, MO 65202']",MO,['Columbia MO']
508,508,Jimmy John's,38.89528,-92.33602990000001,"['212 Corporate Lake Dr', 'Columbia, MO 65203']",MO,['Columbia MO']
509,509,Burger King,38.96459,-92.33596999999999,"['100 E Bus Loop 70', 'Columbia, MO 65203']",MO,['Columbia MO']
510,510,Subway,38.9506,-92.32732,"['30 S 9 St', 'Columbia, MO 65201']",MO,['Columbia MO']
511,511,Dairy Queen Grill & Chill,38.937632166125,-92.36009985208521,"['1201 Forum Blvd', 'Columbia, MO 65203']",MO,['Columbia MO']
512,512,Panera Bread,38.948156,-92.295286,"['100 Brickton Rd', 'Ste 100', 'Columbia, MO 65201']",MO,['Columbia MO']
513,513,Jimmy John's,38.9569985105757,-92.2525203354563,"['5580 Bull Run Dr', 'Columbia, MO 65202']",MO,['Columbia MO']
514,514,Sonic Drive-In,38.9877713,-92.324377,"['3700 Rangeline St', 'Columbia, MO 65202']",MO,['Columbia MO']
515,515,McDonald's,38.9927318350325,-92.3243300523882,"['1012 Smiley Ln', 'Columbia, MO 65202']",MO,['Columbia MO']
516,516,Subway,38.9787672,-92.2947348784872,"['2716 Paris Rd', 'Suite', 'Columbia, MO 65202']",MO,['Columbia MO']
517,517,Taco Bell,38.992779999999996,-92.32359,"['1100 Smiley Lane', 'Columbia, MO 65202']",MO,['Columbia MO']
518,518,Subway,38.950497041877796,-92.2961418052191,"['27 Conley Rd', 'Ste C', 'Columbia, MO 65201']",MO,['Columbia MO']
519,519,Sonic Drive-In,38.971191,-92.30385129999999,"['2210 Paris Rd', 'Columbia, MO 65202']",MO,['Columbia MO']
520,520,Subway,38.9609838089065,-92.2517930142353,"['5612 St Charles Rd', 'Ste B', 'Columbia, MO 65202']",MO,['Columbia MO']
521,521,Taco Bell,38.9332360083873,-92.292249,"['1421 Cinnamon Hill Lane', 'Columbia, MO 65201']",MO,['Columbia MO']
522,522,Subway,38.956821999999995,-92.38316400000001,"['3001 W Broadway', 'Biscayne Mall', 'Columbia, MO 65201']",MO,['Columbia MO']
523,523,Subway,38.9369850158079,-92.3598085,"['1406 Forum Blvd', 'Ste 100', 'Columbia, MO 65203']",MO,['Columbia MO']
524,524,Big Boy Restaurant,39.04201126098629,-94.43359375,"['12401 E US Hwy 40', 'Independence, MO 64055']",MO,['Independence MO']
526,526,Jack in the Box,39.044682,-94.41520799999999,"['14000 E 42nd St S', 'Independence, MO 64055']",MO,['Independence MO']
528,528,HiBoy Drive In,39.07175,-94.37991,"['16721 E Gudgell Rd', 'Independence, MO 64055']",MO,['Independence MO']
531,531,Slim Chickens,39.035513067611106,-94.3630199414512,"['4641 Cochise Ct', 'Independence, MO 64055']",MO,['Independence MO']
532,532,QDOBA Mexican Eats,39.0331383039835,-94.356321724104,"['18921 E Valley View Pkwy', 'Ste C', 'Independence, MO 64056']",MO,['Independence MO']
533,533,Culver's,39.036102294921896,-94.3435592651367,"['4220 S Little Blue Pkwy', 'Independence, MO 64057']",MO,['Independence MO']
534,534,Chipotle Mexican Grill,39.03368529559,-94.3579252785215,"['18880 E Valley View Pkwy', 'Independence, MO 64055']",MO,['Independence MO']
535,535,Culver's,39.00418,-94.273441,"['1301 SW State Rt 7', 'Blue Springs, MO 64015']",MO,['Independence MO']
537,537,Chick-fil-A,39.02618,-94.2506137,"['951 NE Coronado Dr', 'Blue Springs, MO 64014']",MO,['Independence MO']
539,539,Pancho's,39.0089757380076,-94.2749603837729,"['802 SW US Hwy 40', 'Blue Springs, MO 64015']",MO,['Independence MO']
540,540,Rancheros,39.11981,-94.37505999999999,"['17106 Hwy 24', 'Independence, MO 64056']",MO,['Independence MO']
541,541,Burger King,38.983123779296896,-94.35870361328121,"['850 NE Woods Chapel Rd', 'Lees Summit, MO 64064']",MO,['Independence MO']
542,542,Queen Taco,39.080005958676296,-94.4382499158382,"['11721 E 23rd St', 'Independence, MO 64050']",MO,['Independence MO']
543,543,Unk's Burgers,38.9177667266383,-94.4019877910614,"['240 NW Oldham Pkwy', ""Lee's Summit, MO 64081""]",MO,['Independence MO']
544,544,The Happy Greek,39.078338,-94.402028,"['1003 E 23rd St S', 'Independence, MO 64055']",MO,['Independence MO']
545,545,Dairy Queen Grill & Chill,39.042394065456,-94.3402600793866,"['4045 Little Blue Pkwy', 'Independence, MO 64057']",MO,['Independence MO']
548,548,Lion’s Choice,39.041821,-94.340245,"['4049 Little Blue Pkwy', 'Independence, MO 64057']",MO,['Independence MO']
549,549,Jimmy John's,39.055372999999996,-94.414208,"['3601 S Noland Rd', 'Independence, MO 64055']",MO,['Independence MO']
550,550,Culver's,38.942222595214794,-94.3774795532227,"['1701 NE Douglas St', ""Lee's Summit, MO 64086""]",MO,['Independence MO']
551,551,Raising Cane's Chicken Fingers,39.024569104223,-94.24982309302419,"['1000 NE Coronado Dr', 'Blue Springs, MO 64014']",MO,['Independence MO']
552,552,Arbys,39.02642,-94.2458,"['1225 NE Coronado St', 'Blue Springs, MO 64014']",MO,['Independence MO']
553,553,Chick-fil-A,38.9272762,-94.40124709999999,"['690 NW Blue Pkwy', 'Lees Summit, MO 64086']",MO,['Independence MO']
554,554,Wendy's,39.06125,-94.47286,"['9022 East 40 Highway', 'Independence, MO 64055']",MO,['Independence MO']
555,555,Chick-fil-A,39.2451674,-94.4518228,"['110 N Conistor Ln', 'Liberty, MO 64068']",MO,['Independence MO']
560,560,Taco Bell,39.1028,-94.4497,"['10750 E US Highway 24', 'Sugar Creek, MO 64054']",MO,['Independence MO']
561,561,KFC,39.043636600000006,-94.41569561124491,"['4210 S Noland Rd', 'Independence, MO 64055']",MO,['Independence MO']
563,563,Popeyes Louisiana Kitchen,39.0294929,-94.3517088,"['19510 US Highway 40', 'Independence, MO 64055']",MO,['Independence MO']
565,565,Taco Bell,39.044667804511,-94.3608554536652,"['3927 Bolger Road', 'Independence, MO 64055']",MO,['Independence MO']
567,567,Wendy's,39.101546,-94.42702299999999,"['925 West Hwy 24', 'Independence, MO 64050']",MO,['Independence MO']
570,570,Chipotle Mexican Grill,39.046579,-94.44695229999999,"['4151 Sterling Ave', 'Ste B', 'Kansas City, MO 64133']",MO,['Independence MO']
571,571,Panera Bread,39.0333719761598,-94.35969914498399,"['18800 E US Highway 40', 'Independence, MO 64055']",MO,['Independence MO']
572,572,Jersey Mike's Subs,39.026073,-94.246802,"['1209 NE Coronado Dr', 'Blue Springs, MO 64014']",MO,['Independence MO']
573,573,Burger King,39.08041,-94.440601,"['11500 E 23rd Street', 'Independence, MO 64052']",MO,['Independence MO']
574,574,Arby's,39.3682299,-94.37521,"['520 Shanks Ave', 'Kearney, MO 64060']",MO,['Independence MO']
575,575,McDonald's,39.0321380246622,-94.3565301504145,"['18910 E US Hwy 40', 'Independence, MO 64055']",MO,['Independence MO']
576,576,Taco Bell,38.996567,-94.47715,"['9021 E. Highway 350', 'Raytown, MO 64133']",MO,['Independence MO']
577,577,Five Guys,39.245858,-94.45166800000001,"['118 N Conistor', 'Liberty, MO 64068']",MO,['Independence MO']
579,579,Hardee's,39.120779999999996,-94.36888990000001,"['17701 E US Hwy 24', 'Independence, MO 64056']",MO,['Independence MO']
580,580,Noodles & Company,39.0458151160401,-94.3576991558075,"['2140 Independence Center Dr', 'Independence, MO 64057']",MO,['Independence MO']
581,581,Burger King,39.150926,-94.485674,"['Ameristar Casino', 'Kansas City, MO 64161']",MO,['Independence MO']
582,582,Chipotle Mexican Grill,38.9943983313783,-94.4745497916927,"['9205 E State Rte 350', 'Raytown, MO 64133']",MO,['Independence MO']
583,583,Burger King,39.044457,-94.414829,"['14001 East 42nd Street', 'Independence, MO 64055']",MO,['Independence MO']
584,584,Jack in the Box,39.0273833715972,-94.2712783813477,"['808 N 7 Hwy', 'Blue Springs, MO 64014']",MO,['Independence MO']
588,588,McDonald's,39.031371386118295,-94.50359791517259,"['6996 Eastwood Trfy', 'Kansas City, MO 64129']",MO,['Independence MO']
590,590,Popeyes Louisiana Kitchen,39.0174940747327,-94.1302111607132,"['100 N Broadway', 'Oak Grove, MO 64075']",MO,['Independence MO']
593,593,Wendy's,39.008882,-94.466656,"['9708 E 63Rd St.', 'Raytown, MO 64133']",MO,['Independence MO']
594,594,Wendy's,39.021084,-94.271738,"['310 Nw State Route 7', 'Blue Springs, MO 64014']",MO,['Independence MO']
595,595,Taco John's,39.0036673331727,-93.953724950552,"['309 N 2nd St', 'Odessa, MO 64076']",MO,['Independence MO']
596,596,Church's Chicken,39.0429229736328,-94.4349594116211,"['12003 E US Hwy 40', 'Independence, MO 64055']",MO,['Independence MO']
597,597,Taco Bell,39.118618,-94.37939300000001,"['16903 East 24 Hwy', 'Independence, MO 64056']",MO,['Independence MO']
598,598,Panda Express,39.244369571514504,-94.46653096553801,"['9241 NE Hwy 152', 'Kansas City, MO 64158']",MO,['Independence MO']
601,601,El Pico Mexican Restaurant,39.093059999999994,-94.41604,"['106 W Maple Ave', 'Independence, MO 64050']",MO,['Independence MO']
602,602,Longboards Wraps & Bowls,38.909421,-94.36337859999999,"['506M SE 291st Hwy', ""Lee's Summit, MO 64063""]",MO,['Independence MO']
603,603,Chick-fil-A,38.9516524,-94.72303213,"['9707 Quivira Rd', 'Overland Park, KS 66215']",KS,['Independence MO']
604,604,Taco John's,39.027058319744,-94.3048971891403,"['811 NW Woods Chapel Rd', 'Blue Springs, MO 64015']",MO,['Independence MO']
605,605,Johnny Ray's Drive In,38.909279999999995,-94.38956999999999,"['800 SW Blue Pkwy', 'Lees Summit, MO 64063']",MO,['Independence MO']
606,606,Taco Bell,39.080395,-94.449043,"['11020 E 23rd St S', 'Independence, MO 64052']",MO,['Independence MO']
607,607,Wendy's,39.042623,-94.414924,"['4301 S. Noland Rd.', 'Independence, MO 64055']",MO,['Independence MO']
608,608,Burger King,39.0474940887865,-94.3505537509918,"['19501 E 39th St S', 'Independence, MO 64057']",MO,['Independence MO']
610,610,Taco Bell,39.187677,-94.54608499999999,"['2825 NE Vivion Road', 'Kansas City, MO 64119']",MO,['Independence MO']
615,615,Pie Five Pizza,39.033190000000005,-94.35648,"['18921 E Valley View Pkwy', 'Independence, MO 64055']",MO,['Independence MO']
616,616,Captain D's,39.0767280615011,-94.413448870182,"['1321 S Noland Rd', 'Independence, MO 64055']",MO,['Independence MO']
617,617,Taco Bell,39.050693,-94.47538,"['4017 Blue Ridge Cut-Off', 'Kansas City, MO 64133']",MO,['Independence MO']
619,619,McDonald's,39.10247929999999,-94.43649599999999,"['11700 E Hwy 24', 'Independence, MO 64054']",MO,['Independence MO']
620,620,MOD Pizza,39.0253917,-94.24823459999999,"['1112 NE Coronado Dr', 'Blue Springs, MO 64014']",MO,['Independence MO']
621,621,Culver's,39.243949890136705,-94.4502182006836,"['1905 W Kansas St', 'Liberty, MO 64068']",MO,['Independence MO']
622,622,Taco Bell,39.242142,-94.440606,"['315 S 291 Hwy', 'Liberty, MO 64068']",MO,['Independence MO']
623,623,Dairy Queen Orange Julius,39.0358675296868,-94.4106272,"['14420 E Hwy 40', 'Kansas City, MO 64136']",MO,['Independence MO']
625,625,Long John Silver's,39.048671,-94.44688599999999,"['11211 E 40th Hwy', 'Independence, MO 64055']",MO,['Independence MO']
626,626,Taco Bell,39.33718,-94.25159000000001,"['1744 West Jesse James Road', 'Excelsior Springs, MO 64024']",MO,['Independence MO']
627,627,Sandy's Restaurant,39.008927,-94.281626,"['1428 SW US Hwy 40', 'Blue Springs, MO 64014']",MO,['Independence MO']
628,628,Church's Chicken,38.955232656856,-94.5061369791679,"['9325 Blue Ridge Blvd', 'Kansas City, MO 64138']",MO,['Independence MO']
629,629,Wendy's,39.014962,-94.13131899999999,"['301 S.W. First Street', 'Oak Grove, MO 64075']",MO,['Independence MO']
630,630,Popeyes Louisiana Kitchen,38.98519,-94.46406,"['7601 Raytown Rd', 'Raytown, MO 64138']",MO,['Independence MO']
632,632,Burger King,38.936479999999996,-94.37783,"['1399 NE Douglas Street', ""Lee'S Summit, MO 64086""]",MO,['Independence MO']
633,633,Sonic Drive-In,39.0522215302829,-94.451798,"['10802 Hwy 40 E', 'Independence, MO 64055']",MO,['Independence MO']
634,634,Arby's,38.99638,-94.47555,"['9066 E State Rte 350', 'Raytown, MO 64133']",MO,['Independence MO']
635,635,Burger King,39.02582,-94.24924,"['1001 NE Coronado Dr', 'Blue Springs, MO 64014']",MO,['Independence MO']
637,637,Jimmy John's,38.980631200000005,-94.36169170000001,"['3680 NE Akin Dr', 'Ste 142', ""Lee's Summit, MO 64064""]",MO,['Independence MO']
638,638,Popeyes Louisiana Kitchen,39.024745,-94.27241,"['727 NW 7 Hwy', 'Blue Springs, MO 64014']",MO,['Independence MO']
639,639,Jack in the Box,38.929418954608394,-94.36087489128109,"['951 NE Sam Walton Ln', 'Lees Summit, MO 64086']",MO,['Independence MO']
640,640,Wendy's,39.244052,-94.446837,"['3 Victory Drive', 'Liberty, MO 64068']",MO,['Independence MO']
641,641,Arby's,38.9311999,-94.3589,"['1027 NE Rice Rd', 'Lees Summit, MO 64086']",MO,['Independence MO']
643,643,Panda Express,39.02734,-94.25534,"['535 NE Coronado Dr', 'Blue Springs, MO 64014']",MO,['Independence MO']
647,647,Taco Bell,39.104853000000006,-94.51302700000001,"['5925 Independence Ave', 'Kansas City, MO 64125']",MO,['Independence MO']
648,648,The Garage Burgers & Bar,39.3384838147181,-94.25236713141199,"['1800-1886 Kearney Rd', 'Excelsior Springs, MO 64024']",MO,['Independence MO']
649,649,Wendy's,39.093607,-94.53734200000001,"['3803 East Truman Road', 'Kansas City, MO 64127']",MO,['Independence MO']
650,650,Arbys,39.07371139526371,-94.3782272338867,"['2531 S State Route 291', 'Independence, MO 64057']",MO,['Independence MO']
655,655,Subway,39.1384582313401,-94.1984561047454,"['2 E Monroe St', 'Buckner, MO 64016']",MO,['Independence MO']
656,656,Wendy's,38.952626412064205,-94.52771551779101,"['5363 E. Bannister Road', 'Kansas City, MO 64137']",MO,['Independence MO']
657,657,Wendy's,38.92539,-94.40007,"['903 W. Chipman Rd.', 'Lees Summit, MO 64063']",MO,['Independence MO']
659,659,McDonald's,39.072478525872704,-94.38005890000001,"['16802 E Gudgell Rd', 'Independence, MO 64055']",MO,['Independence MO']
660,660,Lights Snack Shack,38.821075,-94.53472099999999,"['422 N Scott Ave', 'Belton, MO 64012']",MO,['Independence MO']
661,661,Firehouse Subs,39.2466568926191,-94.44613158670799,"['228 N 291st Hwy', 'Liberty, MO 64068']",MO,['Independence MO']
662,662,Freddy's Frozen Custard & Steakburgers,38.8135153,-94.506446,"['1822 E North Ave', 'Belton, MO 64012']",MO,['Independence MO']
663,663,Schlotzsky's,38.93098,-94.37765999999999,"['190 NE Tudor Rd', ""Lee's Summit, MO 64086""]",MO,['Independence MO']
664,664,McDonald's,38.997197261318604,-94.4789064171846,"['8909 E 350th Hwy', 'Raytown, MO 64133']",MO,['Independence MO']
665,665,Slim Chickens,39.2438644540356,-94.45382114499809,"['126 S Steward Rd', 'Liberty, MO 64068']",MO,['Independence MO']
666,666,Burger King,38.98823,-94.46522,"['9945 East 350 Hwy', 'Raytown, MO 64133']",MO,['Independence MO']
667,667,McDonald's,39.0140885732006,-94.128195270896,"['201 S Broadway', 'Oak Grove, MO 64075']",MO,['Independence MO']
669,669,Subway,39.0330411353739,-94.3564716727758,"['18921 E Valley Pkwy', 'Lot 4A, Ste A', 'Independence, MO 64055']",MO,['Independence MO']
678,678,Frankie Farelanes,38.91284,-94.37612,"['100 SE 3rd St', ""Lee's Summit, MO 64063""]",MO,"[""Lee's Summit MO""]"
680,680,Panda Express,38.92662,-94.40635,"['1684 NW Chipman Rd', 'Lees Summit, MO 64081']",MO,"[""Lee's Summit MO""]"
681,681,Freddy's Frozen Custard & Steakburgers,38.916995899999996,-94.400853,"['194 NW Oldham Pkwy', ""Lee's Summit, MO 64081""]",MO,"[""Lee's Summit MO""]"
683,683,Pinsa Pizzeria & Kitchen,38.9264852107128,-94.407912120223,"['1694 NW Chipman Rd', 'Lees Summit, MO 64081']",MO,"[""Lee's Summit MO""]"
686,686,Chipotle Mexican Grill,38.921310999999996,-94.35974360491079,"['900 NE Columbus St', 'Unit A', 'Lees Summit, MO 64086']",MO,"[""Lee's Summit MO""]"
688,688,Costa Vida,38.9157843477873,-94.3607356736107,"['115 SE Rte 291', ""Lee's Summit, MO 64063""]",MO,"[""Lee's Summit MO""]"
689,689,Noodles & Company,38.9263726095481,-94.4003341520488,"['659 NW Blue Pkwy', ""Lee's Summit, MO 64086""]",MO,"[""Lee's Summit MO""]"
691,691,Taco Via,38.934259999999995,-94.35865,"['1221 NE Rice Rd', 'Lees Summit, MO 64086']",MO,"[""Lee's Summit MO""]"
692,692,Jimmy John's,38.91102,-94.36323,"['426 SE SR-291', ""Lee's Summit, MO 64063""]",MO,"[""Lee's Summit MO""]"
695,695,McDonald's,38.9179872068803,-94.360888,"['900 NE Langsford Rd', ""Lee's Summit, MO 64086""]",MO,"[""Lee's Summit MO""]"
696,696,Sonic Drive-In,38.914066999999996,-94.373017,"['300 SE Third', 'Lees Summit, MO 64063']",MO,"[""Lee's Summit MO""]"
697,697,Hardee's Restaurant,38.91171,-94.39650999999999,"['1100 SW 3rd St', 'Lees Summit, MO 64081']",MO,"[""Lee's Summit MO""]"
698,698,Panera Bread,38.9353954042508,-94.3776400387287,"['1305 NE Douglas St', ""Lee's Summit, MO 64086""]",MO,"[""Lee's Summit MO""]"
699,699,Chipotle Mexican Grill,38.9286360190202,-94.4090259684194,"['1716 NW Chipman Rd', 'Lees Summit, MO 64081']",MO,"[""Lee's Summit MO""]"
700,700,PepperJax Grill,38.928720946988896,-94.4090457145821,"['1720 NW Chipman Rd', ""Lee's Summit, MO 64081""]",MO,"[""Lee's Summit MO""]"
701,701,Taco Bell,38.924271000000005,-94.400067,"['615 Libby Lane', 'Lees Summit, MO 64063']",MO,"[""Lee's Summit MO""]"
702,702,Taco Bell,38.92289,-94.35993,"['605 NE Highway 291', 'Lees Summit, MO 64086']",MO,"[""Lee's Summit MO""]"
703,703,McDonald's,38.9252159043481,-94.39909771084791,"['901 Chipman Rd', ""Lee's Summit, MO 64063""]",MO,"[""Lee's Summit MO""]"
704,704,Panera Bread,38.9266360421776,-94.4064381253595,"['1686 NW Chipman Rd', ""Lee's Summit, MO 64081""]",MO,"[""Lee's Summit MO""]"
707,707,Brick's Pub and Grub,38.9126,-94.37684,"['18 SE 3rd St', ""Lee's Summit, MO 64063""]",MO,"[""Lee's Summit MO""]"
709,709,McDonald's,38.9035159206339,-94.338881215117,"['1809 SE Blue Pkwy', ""Lee's Summit, MO 64063""]",MO,"[""Lee's Summit MO""]"
710,710,Waffle House,38.941471899999996,-94.3778936,"['1699 NE Douglas St', ""Lee's Summit, MO 64086""]",MO,"[""Lee's Summit MO""]"
711,711,Taco Bell,38.903377,-94.342563,"['1700 SE Blue Parkway', 'Lees Summit, MO 64063']",MO,"[""Lee's Summit MO""]"
712,712,KFC,38.9184131,-94.360911,"['300 Rice Rd', 'Lees Summit, MO 64086']",MO,"[""Lee's Summit MO""]"
713,713,Sonic Drive-In,38.85285,-94.37085,"['180 SE Mo-150 Hwy', ""Lee's Summit, MO 64082""]",MO,"[""Lee's Summit MO""]"
714,714,Subway,38.92677,-94.411,"['1808 A Nw Chipman Rd', ""Lee's Summit, MO 64063""]",MO,"[""Lee's Summit MO""]"
715,715,Jimmy John's,38.9267639,-94.40064509999999,"['695 NW Blue Pkwy', ""Lee's Summit, MO 64086""]",MO,"[""Lee's Summit MO""]"
716,716,McDonald's,38.912701566319605,-94.4479076471339,"['3275 SW 3rd St', ""Lee's Summit, MO 64081""]",MO,"[""Lee's Summit MO""]"
717,717,Long John Silver's,38.92473,-94.35938,"['707 NE Rice Rd', 'Lees Summit, MO 64086']",MO,"[""Lee's Summit MO""]"
718,718,Sonic Drive-In,38.91618,-94.33778000000001,"['1901 E Langsford Rd', 'Lees Summit, MO 64063']",MO,"[""Lee's Summit MO""]"
719,719,Taco Bell,38.852689,-94.380984,"['3701 SW Hollywood Drive', 'Lees Summit, MO 64082']",MO,"[""Lee's Summit MO""]"
720,720,Sonic Drive-In,38.932916999999996,-94.378012,"['1135 NE Douglas', 'Lees Summit, MO 64086']",MO,"[""Lee's Summit MO""]"
721,721,Sonic Drive-In,38.981449100000006,-94.3610293,"['3740 NE Ralph Powell Rd', ""Lee's Summit, MO 64064""]",MO,"[""Lee's Summit MO""]"
722,722,KFC,38.988849869340704,-94.46485528257558,"['9924 Highway 350 E', 'Raytown, MO 64133']",MO,"[""Lee's Summit MO""]"
724,724,Arby's,38.85314,-94.37988,"['200 SW State Rte 150', 'Lees Summit, MO 64082']",MO,"[""Lee's Summit MO""]"
725,725,Burger King,38.924124,-94.359328,"['637 North Mo Hwy 291', ""Lee'S Summit, MO 64086""]",MO,"[""Lee's Summit MO""]"
726,726,Dairy Queen,38.910796000000005,-94.3753980472684,"['400 SE Douglas St', 'Lees Summit, MO 64063']",MO,"[""Lee's Summit MO""]"
727,727,McDonald's,38.852149693905,-94.37780767679209,"['125 SW M150 Hwy', 'Lees Summit, MO 64082']",MO,"[""Lee's Summit MO""]"
728,728,Subway,38.9837421,-94.4592494,"['10300 E 350 Hwy', 'Wal-Mart', 'Raytown, MO 64138']",MO,"[""Lee's Summit MO""]"
729,729,Subway,38.8543872092102,-94.3798900196434,"['3532 SW Market', 'Lees Summit, MO 64082']",MO,"[""Lee's Summit MO""]"
730,730,Chick-fil-A,39.814274700000006,-94.81442,"['5303 N Belt Hwy', 'Saint Joseph, MO 64506']",MO,['St Joseph MO']
731,731,Wendy's,39.753661,-94.80313100000001,"['1411 S. Belt Highway', 'St.Joseph, MO 64507']",MO,['St Joseph MO']
732,732,Dairy Barn,39.760020000000004,-94.94589,"['103 St Joseph St', 'Wathena, KS 66090']",KS,['St Joseph MO']
733,733,Gyro Paradise,39.778080915314604,-94.8017403976196,"['1209 N Belt Hwy', 'St. Joseph, MO 64506']",MO,['St Joseph MO']
734,734,Chipotle Mexican Grill,39.813654849280795,-94.813866381003,"['5107 N Belt Hwy', 'Ste 101', 'Saint Joseph, MO 64506']",MO,['St Joseph MO']
735,735,Freddy's Frozen Custard & Steakburgers,39.7680052353982,-94.8036585007041,"['228 N Belt Hwy', 'Saint Joseph, MO 64506']",MO,['St Joseph MO']
736,736,Taco John's,39.784973951031205,-94.8029270768166,"['2205 N Belt Hwy', 'St Joseph, MO 64506']",MO,['St Joseph MO']
737,737,Five Guys,39.7762377,-94.8028084,"['3700 Frederick Blvd', 'Ste A', 'St. Joseph, MO 64506']",MO,['St Joseph MO']
738,738,El Taco H,39.7765045166016,-94.8307113647461,"['2420 Frederick Ave', 'St. Joseph, MO 64506']",MO,['St Joseph MO']
739,739,Arby's,39.7817507,-94.803462,"['1604 N Belt Hwy', 'Saint Joseph, MO 64506']",MO,['St Joseph MO']
740,740,KFC,39.759665166982,-94.8030531296439,"['813 S Belt Hwy', 'Saint Joseph, MO 64507']",MO,['St Joseph MO']
741,741,Wendy's,39.7811745,-94.802681,"['1601 N. Belt', 'St.Joseph, MO 64506']",MO,['St Joseph MO']
742,742,KFC,39.815614700000005,-94.8158838190317,"['5332 N Belt Hwy', 'Saint Joseph, MO 64506']",MO,['St Joseph MO']
743,743,Long John Silver's,39.782067700000006,-94.80226400000001,"['1701 N Belt Hwy', 'Saint Joseph, MO 64506']",MO,['St Joseph MO']
744,744,Taco Bell,39.734291999999996,-94.8011,"['3402 S Belt Hwy', 'Saint Joseph, MO 64503']",MO,['St Joseph MO']
745,745,McDonald's,39.771320588286294,-94.8030155897141,"['601 N Belt Hwy', 'St. Joseph, MO 64506']",MO,['St Joseph MO']
746,746,Jimmy John's,39.75731,-94.80408,"['1040 S Belt Hwy', 'St. Joseph, MO 64507']",MO,['St Joseph MO']
747,747,Taco Bandido,39.77832,-94.85427,"['1601 Saint Joseph Ave', 'Saint Joseph, MO 64505']",MO,['St Joseph MO']
748,748,Taco Bell,39.768087,-94.80359,"['320 N. Belt Hwy.', 'Saint Joseph, MO 64506']",MO,['St Joseph MO']
749,749,Kris & Kate's Ice Cream Treats,39.787864694697795,-94.80645389325409,"['2330 N 36th St', 'Saint Joseph, MO 64506']",MO,['St Joseph MO']
750,750,Arby's,39.7223892211914,-94.7858352661133,"['4601 S Leonard Rd', 'Saint Joseph, MO 64507']",MO,['St Joseph MO']
751,751,Burger King,39.752712249755895,-94.8027191162109,"['1517 S Belt Hwy', 'Saint Joseph, MO 64507']",MO,['St Joseph MO']
752,752,Taco Bell,39.799141,-94.814812,"['3301 North Belt Hwy', 'Saint Joseph, MO 64506']",MO,['St Joseph MO']
753,753,Burger King,39.778526306152294,-94.8036956787109,"['1212 N Belt Hwy', 'Saint Joseph, MO 64506']",MO,['St Joseph MO']
754,754,McDonald's,39.713086,-94.872917,"['6018 Lake Ave', 'St. Joseph, MO 64504']",MO,['St Joseph MO']
755,755,Subway,39.798413000000004,-94.8147854,"['3114 N Belt Hwy', 'St Joseph, MO 64506']",MO,['St Joseph MO']
756,756,McDonald's,39.7539795,-94.76893100000001,"['1310 S Riverside Rd', 'Saint Joseph, MO 64507']",MO,['St Joseph MO']
757,757,Sonic Drive-In,39.7238939,-94.7914311,"['4303 Commonwealth Ct', 'Ste 2A', 'Saint Joseph, MO 64503']",MO,['St Joseph MO']
758,758,Burger King,39.784008026123,-94.85098266601558,"['715 E Highland Ave', 'Saint Joseph, MO 64505']",MO,['St Joseph MO']
759,759,McDonald's,39.801917700000004,-94.8160525,"['3504 N Belt Hwy', 'St. Joseph, MO 64506']",MO,['St Joseph MO']
760,760,McDonald's,39.725092,-94.7899,"['4219 S 169th Hwy', 'St. Joseph, MO 64503']",MO,['St Joseph MO']
761,761,McDonald's,39.7341509601669,-94.8005098803333,"['3417 S Belt Hwy', 'St. Joseph, MO 64503']",MO,['St Joseph MO']
762,762,Subway,39.72379,-94.78498,"['4514 Hwy 169 S', 'St Joseph, MO 64507']",MO,['St Joseph MO']
763,763,Subway,39.771549,-94.842526,"['1405 Frederick Ave', 'St Joseph, MO 64501']",MO,['St Joseph MO']
764,764,Subway,39.7370046645697,-94.80422187687029,"['3022 S Belt Hwy', 'St Joseph, MO 64503']",MO,['St Joseph MO']
765,765,Chicken Coop,38.7893028259277,-90.6308441162109,"['449 S Church St', 'Saint Peters, MO 63376']",MO,['St Charles MO']
766,766,Culver's,38.789253,-90.565246,"['2750 Muegge Rd', 'Saint Charles, MO 63303']",MO,['St Charles MO']
767,767,Smashburger,38.782024295278795,-90.5332115010579,"['1981 Zumbehl Rd', 'St Charles, MO 63303']",MO,['St Charles MO']
768,768,Lion's Choice,38.81927,-90.51257,"['3140 Elm Point Industrial Dr', 'St. Charles, MO 63301']",MO,['St Charles MO']
769,769,Raising Cane's Chicken Fingers,38.7839479,-90.50259859999998,"['1840 First Capitol Dr', 'St. Charles, MO 63301']",MO,['St Charles MO']
771,771,Wendy's,38.78972,-90.565196,"['2760 Muegge Road', 'St.Charles, MO 63303']",MO,['St Charles MO']
772,772,Popeyes Louisiana Kitchen,38.745444,-90.59185699999999,"['1640 Jungermann Rd', 'Saint Peters, MO 63304']",MO,['St Charles MO']
773,773,Potbelly Sandwich Shop,38.783558,-90.50244599999999,"['1950 1st Capitol Dr', 'St. Charles, MO 63301']",MO,['St Charles MO']
774,774,QDOBA Mexican Eats,38.77189,-90.49488000000001,"['1315 Bass Pro Dr', 'St. Charles, MO 63301']",MO,['St Charles MO']
775,775,Pretzel Stop,38.74488,-90.59222,"['1650 Jungermann Rd', 'Saint Peters, MO 63304']",MO,['St Charles MO']
776,776,Lion's Choice,38.791387,-90.56114699999999,"['3807 Veterans Memorial Pkwy', 'St. Peters, MO 63376']",MO,['St Charles MO']
777,777,Jack in the Box,38.781742,-90.53186,"['1992 Zumbehl Rd', 'Saint Charles, MO 63303']",MO,['St Charles MO']
778,778,Jimmy John's,38.785933776732,-90.4951753,"['100 N Kingshighway St', 'St. Charles, MO 63301']",MO,['St Charles MO']
779,779,Chick-fil-A,38.741652,-90.6336115,"['6180 Mid Rivers Mall Dr', 'Saint Peters, MO 63304']",MO,['St Charles MO']
780,780,Sonic Drive-In,38.762285999999996,-90.5317189,"['2001 Old Hwy 94 S', 'Saint Charles, MO 63303']",MO,['St Charles MO']
782,782,Taco Bell,38.780285,-90.531745,"['2003 Zumbehl Rd', 'Saint Charles, MO 63303']",MO,['St Charles MO']
783,783,Arby's,38.7839195921217,-90.5009257024951,"['1830 1st Capitol Dr', 'Saint Charles, MO 63301']",MO,['St Charles MO']
784,784,Chipotle Mexican Grill,38.7506973700152,-90.4278738,"['3533 Mckelvey Rd', 'Bridgeton, MO 63044']",MO,['St Charles MO']
785,785,Steak ’n Shake,38.7802315,-90.5087652,"['2221 First Capitol Dr', 'St. Charles, MO 63301']",MO,['St Charles MO']
786,786,Freddy's Frozen Custard and Steakburgers,38.79217,-90.564,"['3889 Veterans Memorial Pkwy', 'St. Peters, MO 63376']",MO,['St Charles MO']
787,787,Taco Bell,38.778439,-90.488099,"['620 S. Fifth Street', 'Saint Charles, MO 63301']",MO,['St Charles MO']
790,790,Raising Cane's Chicken Fingers,38.795575,-90.616226,"['1600 Mid Rivers Mall Dr', 'Saint Peters, MO 63376']",MO,['St Charles MO']
792,792,White Castle,38.761509999999994,-90.53111,"['2000 S Old Hwy 94', 'St. Charles, MO 63303']",MO,['St Charles MO']
793,793,Wendy's,38.744411107687505,-90.59250814947211,"['1676 Jungermann Rd', 'St.Peters, MO 63304']",MO,['St Charles MO']
794,794,Fuzzy's Taco Shop,38.78419,-90.510593,"['2412 West Clay St', 'St. Charles, MO 63301']",MO,['St Charles MO']
795,795,MOD Pizza,38.783636404712404,-90.50254529196421,"['1988 1st Capitol Dr', 'Saint Charles, MO 63301']",MO,['St Charles MO']
797,797,Hardee's / Red Burrito,38.807922,-90.47529,"['2701 Mo-94 N', 'Saint Charles, MO 63301']",MO,['St Charles MO']
798,798,Freddy's Frozen Custard & Steakburgers,38.754897,-90.586656,"['1365 Jungermann Rd', 'St. Peters, MO 63376']",MO,['St Charles MO']
800,800,White Castle,38.795821999999994,-90.576751,"[""4201 Veteran's Memorial Pkwy"", 'St. Peters, MO 63376']",MO,['St Charles MO']
802,802,Taco Bell,38.790997999999995,-90.572634,"['4120 Mexico Road', 'Saint Peters, MO 63376']",MO,['St Charles MO']
803,803,Burger King,38.777344,-90.509525,"['2320 1st Capitol Dr', 'St. Charles, MO 63301']",MO,['St Charles MO']
804,804,Jimmy John's,38.821400700000005,-90.51402420000001,"['3754 Elm St', 'St. Charles, MO 63303']",MO,['St Charles MO']
805,805,Firehouse Subs Mark Twain Village,38.77202,-90.49614,"['1365 Bass Pro Dr', 'Saint Charles, MO 63301']",MO,['St Charles MO']
806,806,Long John Silver's,38.797059000000004,-90.580691,"['4401 Veterans Memorial Hwy', 'Saint Peters, MO 63376']",MO,['St Charles MO']
807,807,McDonald's,38.7725830301339,-90.49142184284621,"['1160 S 5th St', 'St. Charles, MO 63301']",MO,['St Charles MO']
808,808,McDonald's,38.8193603316198,-90.5139702558517,"['3701 Elm St', 'St. Charles, MO 63301']",MO,['St Charles MO']
809,809,Casa Mia Mexican Kitchen,38.789877000000004,-90.57584200000001,"['235 Jungermann Rd', 'Ste 201', 'St Peters, MO 63376']",MO,['St Charles MO']
810,810,Wendy's,38.74702070000001,-90.4220886,"['11961 Paul Mayer', 'Bridgeton, MO 63044']",MO,['St Charles MO']
812,812,Wendy's,38.7938959186632,-90.4486356675625,"['13945 Missouri Bottom Road', 'Bridgeton, MO 63044']",MO,['St Charles MO']
813,813,Jimmy John's,38.7678032,-90.5221641,"['1696 Country Club Plaza Dr', 'St. Charles, MO 63303']",MO,['St Charles MO']
814,814,Sonic Drive-In,38.8221407,-90.5176233,"['3851 Elm St', 'St. Charles, MO 63301']",MO,['St Charles MO']
815,815,Rosy's Cakes & Paco's Tacos,38.789770000000004,-90.6083699,"['6240 Mexico Rd', 'Saint Peters, MO 63376']",MO,['St Charles MO']
817,817,Firehouse Subs,38.7639423817789,-90.63375027188249,"['4508 Mid Rivers Mall Dr', 'Cottleville, MO 63376']",MO,['St Charles MO']
818,818,Chick-fil-A,38.7790717,-90.69927679999999,"['2106 Highway K', 'O Fallon, MO 63368']",MO,['St Charles MO']
819,819,Arby's,38.8211326599121,-90.51502227783199,"['3786 Elm St', 'Saint Charles, MO 63301']",MO,['St Charles MO']
820,820,Taco Bell,38.788421,-90.512585,"['2203 Droste Rd.', 'Saint Charles, MO 63301']",MO,['St Charles MO']
822,822,Jack in the Box,38.7746719824854,-90.48983976244931,"['1016 S 5th St', 'Saint Charles, MO 63301']",MO,['St Charles MO']
823,823,Wendy's,38.79509,-90.62269,"['275 Mid Rivers Mall Dr', 'St.Peters, MO 63376']",MO,['St Charles MO']
825,825,Raising Cane's Chicken Fingers,38.744603000000005,-90.635172,"['6095 Mid Rivers Mall Dr', 'Saint Peters, MO 63304']",MO,['St Charles MO']
826,826,McDonald's,38.7618241810991,-90.45485486160031,"['3296 Rider Trl S', 'Earth City, MO 63045']",MO,['St Charles MO']
827,827,Jack in the Box,38.8204166262762,-90.5137811601163,"['3710 Elm St', 'Saint Charles, MO 63301']",MO,['St Charles MO']
828,828,Lion's Choice,38.7993457,-90.70144959999999,"['8710 Veterans Memorial Pkwy', ""O'Fallon, MO 63366""]",MO,['St Charles MO']
829,829,Pickleman's Gourmet Cafe,38.7831930630346,-90.53499188576141,"['2041 Zumbehl Rd', 'Unit 18', 'St. Charles, MO 63303']",MO,['St Charles MO']
830,830,Freddy's Frozen Custard & Steakburgers,38.747767700000004,-90.6352097,"['6031 Mid Rivers Mall Dr', 'Cottleville, MO 63304']",MO,['St Charles MO']
832,832,Firehouse Subs,38.7143822,-90.44944,"['12316 Dorsett Rd', 'Maryland Heights, MO 63043']",MO,['St Charles MO']
833,833,Chick-fil-A,38.668853999999996,-90.60437519999999,"['17365 Chesterfield Airport Rd', 'Chesterfield, MO 63005']",MO,['St Charles MO']
834,834,Dairy Queen Grill & Chill,38.8066093659013,-90.47539740800859,"['301 Little Hills Industrial Blvd', 'Saint Charles, MO 63301']",MO,['St Charles MO']
836,836,Popeyes Louisiana Kitchen,38.735718,-90.400754,"['953 NW Plaza Dr', 'St. Ann, MO 63074']",MO,['St Charles MO']
837,837,Raising Cane's Chicken Fingers,38.66782,-90.60329,"['17360 Chesterfield Airport Rd', 'Chesterfield, MO 63005']",MO,['St Charles MO']
838,838,McDonald's,38.779078000000005,-90.530077,"['1890 Zumbehl Rd', 'St. Charles, MO 63303']",MO,['St Charles MO']
839,839,Dairy Queen Grill & Chill,38.781157,-90.50771999999999,"['2195 First Capitol Dr', 'Saint Charles, MO 63301']",MO,['St Charles MO']
840,840,Blaze Fast-Fire'd Pizza,38.8004070126366,-90.6173587993667,"['5246 N Service Rd', 'St Peters, MO 63376']",MO,['St Charles MO']
842,842,Potbelly Sandwich Shop,38.6714789636581,-90.43923619995908,"['11615 Olive Blvd', 'Creve Coeur, MO 63141']",MO,['St Charles MO']
843,843,Soulard Gyro,38.794725464665,-90.69829744438091,"['1280 State Hwy K', ""O'Fallon, MO 63366""]",MO,['St Charles MO']
844,844,KFC,38.7915297018832,-90.5738908453627,"['4118 Mexico Rd', 'Saint Peters, MO 63376']",MO,['St Charles MO']
845,845,Jersey Mike's Subs,38.668890999999995,-90.598396,"['17273 Chesterfield Airport Rd', 'Chesterfield, MO 63005']",MO,['St Charles MO']
846,846,Popeyes Louisiana Kitchen,38.797033,-90.65669,"['401 Salt Lick Rd', 'St Peters, MO 63376']",MO,['St Charles MO']
847,847,Lee's Famous Recipe Chicken,38.7890014648438,-90.6281204223633,"['690 Starwood Dr', 'Saint Peters, MO 63376']",MO,['St Charles MO']
848,848,McDonald's,38.746421200336,-90.57849012315269,"['24 Harvester Sq', 'St. Charles, MO 63303']",MO,['St Charles MO']
849,849,Dairy Queen Grill & Chill,38.7505513638735,-90.5622473359108,"['1450 Jungs Station Rd', 'Harvester, MO 63303']",MO,['St Charles MO']
850,850,White Castle,38.777632000000004,-90.699229,"['2212 Hwy K', ""O' Fallon, MO 63366""]",MO,['St Charles MO']
851,851,Wendy's,38.7918921652669,-90.69670218684169,"['1390 Mexico Loop Rd E', 'Ofallon, MO 63366']",MO,['St Charles MO']
852,852,Lees Famous Recipe,38.7750816345215,-90.4896392822266,"['1012 S 5th St', 'Saint Charles, MO 63301']",MO,['St Charles MO']
853,853,Subway,38.8197080302247,-90.51470731025049,"['3735 Elm St', 'St Charles, MO 63301']",MO,['St Charles MO']
854,854,Arby's,38.71416,-90.45819,"['12730 Dorsett Rd', 'Maryland Heights, MO 63043']",MO,['St Charles MO']
855,855,Jersey Mike's Subs,38.77375,-90.698821,"['2508 Hwy K', 'Ofallon, MO 63368']",MO,['St Charles MO']
856,856,McAlister's Deli,38.789069258842204,-90.627241,"['7106 Mexico Rd', 'St. Peters, MO 63376']",MO,['St Charles MO']
857,857,Pop's Kitchen,38.7199501849824,-90.3666801005602,"['9641 St Charles Rock Rd', 'St Louis, MO 63114']",MO,['St Charles MO']
858,858,McDonald's,38.7910213542958,-90.60586591134779,"['199 Spencer Rd', 'Saint Peters, MO 63376']",MO,['St Charles MO']
859,859,White Castle,38.7148857,-90.4385214,"['12025 Dorsett Rd', 'Maryland Heights, MO 63043']",MO,['St Charles MO']
860,860,Jason's Deli,38.668447136879,-90.5972615629435,"['17245 Chesterfield Airport Rd', 'Chesterfield, MO 63005']",MO,['St Charles MO']
861,861,Arby's,38.724047999999996,-90.69918,"['4231 Highway K', 'O Fallon, MO 63368']",MO,['St Charles MO']
862,862,Snarf's Sandwiches - Maryland Heights,38.69963,-90.42112,"['11512 Page Service Dr', 'Maryland Heights, MO 63146']",MO,['St Charles MO']
863,863,Hardee's,38.734939000000004,-90.393499,"['10909 Saint Charles Rock Rd', 'Bridgeton, MO 63074']",MO,['St Charles MO']
864,864,Burger King,38.749984999999995,-90.463545,"['13565 Riverport Dr', 'Maryland Hts, MO 63043']",MO,['St Charles MO']
865,865,Arby's,38.6920345,-90.39316679999999,"['10511 Page Ave', 'Saint Louis, MO 63132']",MO,['St Charles MO']
866,866,St Louis Gyros,38.6755011,-90.46422840000001,"['12528 Olive Blvd', 'Creve Coeur, MO 63141']",MO,['St Charles MO']
867,867,Taco Bell,38.819989,-90.513622,"['3797 Elm Street', 'Saint Charles, MO 63301']",MO,['St Charles MO']
868,868,Potbelly Sandwich Shop,38.781314,-90.700701,"['2025-2027 Hwy K', 'O Fallon, MO 63366']",MO,['St Charles MO']
870,870,Chipotle Mexican Grill,38.6727048258016,-90.43588206158459,"['11485 Olive Blvd', 'Creve Coeur, MO 63141']",MO,['St Charles MO']
871,871,McDonald's,38.7916192991037,-90.5633872747422,"['3883 Veterans Memorial Pkwy', 'St Peters, MO 63376']",MO,['St Charles MO']
872,872,Jimmy John's,38.715317,-90.4533671,"['2016 McKelvey Rd', 'Maryland Heights, MO 63043']",MO,['St Charles MO']
873,873,McDonald's,38.7142152286897,-90.4566896011887,"['12680 Dorsett Rd', 'Maryland Heights, MO 63043']",MO,['St Charles MO']
874,874,Boston Market,38.6341715936318,-90.3161036968231,"['6690 Clayton Rd', 'Richmond Heights, MO 63117']",MO,['St Charles MO']
875,875,McDonald's,38.7573818002836,-90.4300734400749,"['12499 Natural Bridge Rd', 'Bridgeton, MO 63044']",MO,['St Charles MO']
876,876,Moe's Southwest Grill,38.744333399999995,-90.63475490000002,"['6097 Mid Rivers Mall Dr', 'Cottleville, MO 63304']",MO,['St Charles MO']
877,877,Classic Red Hots Catering,38.639922361402604,-90.5139203361359,"['14342 S Outer Forty', 'Chesterfield, MO 63017']",MO,['St Charles MO']
879,879,Jack in the Box,38.8015907307788,-90.3138761222363,"['2095 N US Highway 67', 'Florissant, MO 63033']",MO,['St Charles MO']
880,880,Taco Bell,38.66836,-90.59007,"['17090 Chesterfield Airport Rd.', 'Chesterfield, MO 63005']",MO,['St Charles MO']
881,881,Hardee's,38.7143352988464,-90.43655079892478,"['11938 Dorsett Rd', 'Saint Louis, MO 63043']",MO,['St Charles MO']
882,882,Dairy Queen Grill & Chill,38.7166007506927,-90.45324040000001,"['2060 Mckelvey Rd', 'Maryland Heights, MO 63043']",MO,['St Charles MO']
883,883,El Agave,38.8214031195769,-90.5174013470825,"['3823 Elm St', 'Saint Charles, MO 63301']",MO,['St Charles MO']
884,884,Which Wich,38.6411533,-90.56744499999999,"['1762 Clarkson Rd', 'Chesterfield, MO 63017']",MO,['St Charles MO']
885,885,Firehouse Subs,38.780729110912496,-90.699130249593,"['104 Laura K Dr', ""O'Fallon, MO 63366""]",MO,['St Charles MO']
886,886,Dairy Queen Grill & Chill,38.8067519824514,-90.3608600004463,"['300 Howdershell Rd', 'Florissant, MO 63031']",MO,['St Charles MO']
888,888,Lion's Choice,38.78137,-90.38807,"['5952 Howdershell Rd', 'Hazelwood, MO 63042']",MO,['St Charles MO']
889,889,White Castle,38.799733,-90.333265,"['840 N Hwy 67', 'Florissant, MO 63031']",MO,['St Charles MO']
890,890,Panda Express,38.74607,-90.63542,"['6081 Mid Rivers Mall Dr', 'Cottleville, MO 63304']",MO,['St Charles MO']
892,892,Taco Bell,38.714523,-90.430122,"['11952 Dorsett Rd', 'Maryland Heights, MO 63043']",MO,['St Charles MO']
893,893,Fuzzy's Taco Shop,38.70134,-90.446667,"['302 W Port Plaza Dr', 'Maryland Heights, MO 63146']",MO,['St Charles MO']
894,894,MOD Pizza,38.715745536583206,-90.45432852611641,"['2033 Dorsett Rd', 'Maryland Heights, MO 63043']",MO,['St Charles MO']
895,895,Crazy Bowls & Wraps,38.77963,-90.70057,"['2119 Hwy K', 'O Fallon, MO 63368']",MO,['St Charles MO']
896,896,White Castle,38.7225586920977,-90.33514134585859,"['9301 Natural Bridge Rd', 'Berkeley, MO 63134']",MO,['St Charles MO']
897,897,Lion's Choice,38.6678428649902,-90.5994186401367,"['17294 Chesterfield Airport Rd', 'Chesterfield, MO 63005']",MO,['St Charles MO']
898,898,Wendy's,38.6687453919841,-90.6103527540586,"['17451 Chesterfield Airport Road', 'Chesterfield, MO 63005']",MO,['St Charles MO']
902,902,Jimmy John's,38.7917593,-90.58699159999999,"['4865 Mexico Rd', 'St. Peters, MO 63376']",MO,['St Charles MO']
903,903,McDonald's,38.6736460731861,-90.37645004689692,"['9406 Olive Street Rd', 'Olivette, MO 63132']",MO,['St Charles MO']
904,904,Arby's,38.79549,-90.62254,"['225 Mid Rivers Mall Dr', 'Saint Peters, MO 63376']",MO,['St Charles MO']
905,905,Panda Express,38.7362389,-90.400216,"['963 NW Plaza Dr', 'Saint Ann, MO 63044']",MO,['St Charles MO']
907,907,Rockin' Rooster,38.6773061896371,-90.66128554256191,"['Premium St Louis Outlet', 'Ste 806', 'Chesterfield, MO 63005']",MO,['St Charles MO']
908,908,Chipotle Mexican Grill,38.6432361587335,-90.56492599053792,"['1676 Clarkson Rd', 'Chesterfield, MO 63017']",MO,['St Charles MO']
909,909,Popeyes Louisiana Kitchen,38.799776,-90.329193,"['951 N Hwy 67', 'Florissant, MO 63031']",MO,['St Charles MO']
911,911,Taco Bell,38.754822,-90.43045500000001,"['12420 St Charles Rock Rd', 'Bridgeton, MO 63044']",MO,['St Charles MO']
912,912,McDonald's,38.7003096520475,-90.44381037354471,"['25 Westport Plaza Dr', 'St. Louis, MO 63146']",MO,['St Charles MO']
913,913,Jimmy John's,38.7409725,-90.6347605,"['6295 Mid Rivers Mall Dr', 'St. Peters, MO 63304']",MO,['St Charles MO']
914,914,Wendy's,38.723538216541,-90.697865873434,"['4210 Highway K', 'Ofallon, MO 63368']",MO,['St Charles MO']
929,929,Hardee's,38.787879943847706,-90.6265029907227,"['501 Mid Rivers Mall Dr', 'Saint Peters, MO 63376']",MO,['St Peters MO']
932,932,Jack in the Box,38.791859716907894,-90.5759918,"['4124 Mexico Rd', 'Saint Peters, MO 63376']",MO,['St Peters MO']
935,935,Chipotle Mexican Grill,38.78051255402,-90.6989810544188,"['112 Laura K Dr', 'O Fallon, MO 63366']",MO,['St Peters MO']
945,945,Taco Bell,38.797194715675204,-90.62120110895599,"['159 Mid Rivers Mall Rd', 'Saint Peters, MO 63376']",MO,['St Peters MO']
946,946,Dairy Queen Grill & Chill,38.773453417550996,-90.62465440000001,"['1015 St Peters Howell Rd', 'Saint Peters, MO 63376']",MO,['St Peters MO']
950,950,Penn Station East Coast Subs,38.792617,-90.623224,"['318 Mid Rivers Mall Dr', 'Ste N', 'Saint Peters, MO 63376']",MO,['St Peters MO']
954,954,Taco Bell,38.746434654104206,-90.63440911356831,"['6082 Mid Rivers Mall Dr.', 'Saint Peters, MO 63304']",MO,['St Peters MO']
955,955,Culver's,38.792711,-90.694732,"['8500 Mexico Rd', ""O'Fallon, MO 63366""]",MO,['St Peters MO']
962,962,Burger King,38.801900260360796,-90.62117943602371,"['399 Main St', 'Saint Peters, MO 63376']",MO,['St Peters MO']
965,965,Taco Bell,38.7461,-90.59145,"['1630 Jungermann Rd.', 'Saint Peters, MO 63304']",MO,['St Peters MO']
966,966,McDonald's,38.7943919,-90.6232581241147,"['299 Mid Rivers Mall Dr', 'Saint Peters, MO 63376']",MO,['St Peters MO']
967,967,Arbys,38.7459752704167,-90.63427837736609,"['6086 Mid Rivers Mall Dr', 'Saint Peters, MO 63304']",MO,['St Peters MO']
974,974,Sonic Drive-In,38.789629,-90.66205500000001,"['651 Salt Lick Rd', 'Saint Peters, MO 63376']",MO,['St Peters MO']
975,975,Jack in the Box,38.7984029509828,-90.6558725237846,"['299 Salt Lick Rd', 'Ste 100', 'Saint Peters, MO 63376']",MO,['St Peters MO']
977,977,Burger King,38.748409,-90.590538,"['1575 Jungermann Rd', 'Saint Peters, MO 63376']",MO,['St Peters MO']
981,981,Panda Express,38.6670717471143,-90.5894753708794,"['98 Thf Blvd', 'Chesterfield, MO 63005']",MO,['St Peters MO']
986,986,Culver's,38.6688270568848,-90.6039657592773,"['17349 Chesterfield Airport Rd', 'Chesterfield, MO 63005']",MO,['St Peters MO']
987,987,KFC,38.743509,-90.591789,"['1699 Jungerman Rd', 'Saint Charles, MO 63304']",MO,['St Peters MO']
993,993,Jack in the Box,38.7680648774307,-90.7807695865631,"['459 Hawk Ridge Trail Dr', 'Lake Saint Louis, MO 63367']",MO,['St Peters MO']
995,995,Subway,38.7901510516066,-90.6617046987423,"['631 Salt Lick Rd', 'St Peters, MO 63376']",MO,['St Peters MO']
996,996,Wendy's,38.76748,-90.783672,"['905 Robert Raymond Drive', 'Lake St.Louis, MO 63367']",MO,['St Peters MO']
999,999,Firehouse Subs,38.645559000000006,-90.565453,"['1649 Clarkson Rd', 'Chesterfield, MO 63017']",MO,['St Peters MO']
1000,1000,Taco Bell,38.655865000000006,-90.55462833974421,"['15548 Olive Blvd', 'Chesterfield, MO 63017']",MO,['St Peters MO']
1001,1001,Wendy's,38.800609874913604,-90.7359837415859,"['9701 Veterans Memorial Parkway', 'Ofallon, MO 63366']",MO,['St Peters MO']
1004,1004,Boardwalk East Subs,38.76728,-90.69944,"['2758 Highway K', ""O'Fallon, MO 63368""]",MO,['St Peters MO']
1005,1005,QDOBA Mexican Eats,38.6680325,-90.5861171,"['16890 Chesterfield Airport Rd', 'Ste 104', 'Chesterfield, MO 63005']",MO,['St Peters MO']
1009,1009,Jack in the Box,38.748847999999995,-90.5912323,"['1590 Jungermann Rd', 'Saint Peters, MO 63376']",MO,['St Peters MO']
1010,1010,Arby's,38.747631072998,-90.4243545532227,"['11976 Paul Mayer Ave', 'Bridgeton, MO 63044']",MO,['St Peters MO']
1011,1011,Dairy Queen Grill & Chill,38.800362109697396,-90.7332887454777,"['9695 Veterans Memorial Pkwy', 'O Fallon, MO 63366']",MO,['St Peters MO']
1014,1014,Taco Bell,38.682464,-90.485662,"['13123 Olive Blvd', 'Saint Louis, MO 63141']",MO,['St Peters MO']
1015,1015,Burger King,38.7619524003382,-90.6993962764855,"['2882 Hwy K', 'O Fallon, MO 63368']",MO,['St Peters MO']
1016,1016,Taco Bell,38.766191,-90.781683,"['901 Robert Raymond Dr.', 'Lake Saint Louis, MO 63367']",MO,['St Peters MO']
1018,1018,Hardees,38.697296142578104,-90.4404144287109,"['12004 Lackland Rd', 'Saint Louis, MO 63146']",MO,['St Peters MO']
1020,1020,Subway,38.771618341381,-90.58165598399209,"['947 Jungermann Rd', 'St Peters, MO 63376']",MO,['St Peters MO']
1021,1021,Taco Bell,38.76242,-90.69977,"['102 Fallon Parkway', 'O Fallon, MO 63368']",MO,['St Peters MO']
1022,1022,Arby's,38.76685,-90.78389,"['909 Robert Raymond Dr', 'Lake Saint Louis, MO 63367']",MO,['St Peters MO']
1028,1028,Arby's,38.80142,-90.70087,"['705 Hwy K', ""O'Fallon, MO 63366""]",MO,['St Peters MO']
1031,1031,Taco Bell,38.803912,-90.700079,"['603 S Main St', 'O Fallon, MO 63366']",MO,['St Peters MO']
1034,1034,QDOBA Mexican Eats,38.766487,-90.767013,"['7863 Hwy N', 'Dardenne Prairie, MO 63368']",MO,['St Peters MO']
1035,1035,Burger King,38.7959963,-90.5757796,"['4199 S Service Rd', 'Saint Peters, MO 63376']",MO,['St Peters MO']
1038,1038,Subway,38.760609123415605,-90.7012250667368,"[""119 O'fallon Commons Dr"", ""O'Fallon, MO 63368""]",MO,['St Peters MO']
1041,1041,McDonald's,38.671719,-90.437116,"['11521 Olive Blvd', 'Creve Coeur, MO 63141']",MO,['St Peters MO']
1042,1042,Jack in the Box,38.7529307433466,-90.4289603,"['12298 Saint Charles Rock Rd', 'Bridgeton, MO 63044']",MO,['St Peters MO']
1043,1043,Burger King,38.680009999999996,-90.47129,"['12701 Olive Blvd', 'Creve Coeur, MO 63141']",MO,['St Peters MO']
1045,1045,El Tio Pepe,38.803256,-90.70388,"['315 W Terra Ln', 'O Fallon, MO 63366']",MO,['St Peters MO']
1047,1047,McDonald's,38.6436,-90.56688,"['1701 Clarkson Sq', 'Chesterfield, MO 63017']",MO,['St Peters MO']
1048,1048,McDonald's,38.680101,-90.5010232329369,"['13559 Olive St Rd', 'Chesterfield, MO 63017']",MO,['St Peters MO']
1049,1049,Jimmy John's,38.7465,-90.4187,"['11905 St Charles Rock Rd', 'Bridgeton, MO 63044']",MO,['St Peters MO']
1050,1050,Dave & Tony's,38.678641753206,-90.472947301113,"['12766 Olive Blvd', 'Creve Coeur, MO 63141']",MO,['St Peters MO']
1054,1054,Subway,38.7450287494606,-90.5885655007087,"['1661 Jungerman Rd', 'St Peters, MO 63304']",MO,['St Peters MO']
1055,1055,Pizza Hut,38.7717872654034,-90.58148413896559,"['939 Jungermann Rd', 'Saint Peters, MO 63376']",MO,['St Peters MO']
1056,1056,McDonald's,38.8017393510001,-90.6992176920176,"['101 Mcdonald Ln', ""O'Fallon, MO 63366""]",MO,['St Peters MO']
1057,1057,McDonald's,38.8220039813994,-90.7002637535334,"['1001 N Main St', ""O'Fallon, MO 63366""]",MO,['St Peters MO']
1059,1059,Dairy Queen Grill & Chill,38.718562799999994,-90.669843479991,"['777 Independence Rd', 'Weldon Spring, MO 63304']",MO,['St Peters MO']
1060,1060,Jimmy John's,38.794804,-90.698261,"['1264 Highway K', ""O'Fallon, MO 63366""]",MO,['St Peters MO']
1061,1061,Jack in the Box,38.71330348165421,-90.6785774230957,"['6000 S Highway 94', 'Weldon Spring, MO 63304']",MO,['St Peters MO']
1063,1063,Noodles & Company,38.6411278,-90.567941,"['1784 Clarkson Rd', 'Chesterfield, MO 63017']",MO,['St Peters MO']
1064,1064,Jack in the Box,38.805859999999996,-90.70061,"['415 S Main St', 'O Fallon, MO 63366']",MO,['St Peters MO']
1077,1077,Chipotle Mexican Grill,39.025877,-94.24831717129891,"['1115 NE Coronado Dr', 'Blue Springs, MO 64014']",MO,['Blue Springs MO']
1083,1083,Taco Bell,39.007236,-94.27200385392028,"['934 S 7 Highway', 'Blue Springs, MO 64014']",MO,['Blue Springs MO']
1084,1084,Taco Bell,39.027033,-94.255763,"['525 NE Coronado Drive', 'Blue Springs, MO 64014']",MO,['Blue Springs MO']
1085,1085,Dairy Queen Grill & Chill,38.99835,-94.27249,"['1900 SW State Route 7', 'Blue Springs, MO 64014']",MO,['Blue Springs MO']
1086,1086,McDonald's,39.028040999999995,-94.271192,"['814 N Hwy 7', 'Blue Springs, MO 64014']",MO,['Blue Springs MO']
1087,1087,Jimmy John's,39.025478,-94.27138000000001,"['706 N 7th Hwy', 'Ste F', 'Blue Springs, MO 64014']",MO,['Blue Springs MO']
1090,1090,KFC,39.016826,-94.272756,"['211 Highway 7 S', 'Blue Springs, MO 64014']",MO,['Blue Springs MO']
1094,1094,McDonald's,38.9882371178667,-94.2728827800684,"['3116 S 7th Hwy', 'Blue Springs, MO 64014']",MO,['Blue Springs MO']
1095,1095,Sonic Drive-In,39.0266374,-94.305061,"['801 NW Woods Chapel Rd', 'Blue Springs, MO 64015']",MO,['Blue Springs MO']
1097,1097,Taco Bell,39.031009999999995,-94.30474,"['1236 NW Woods Chapel Road', 'Blue Springs, MO 64015']",MO,['Blue Springs MO']
1098,1098,Subway,39.031785905099,-94.3045520105505,"['1240 NW Woods Chapel Rd', 'Blue Springs, MO 64015']",MO,['Blue Springs MO']
1099,1099,Sonic Drive-In,39.0274607,-94.25620909999999,"['515 NE Coronado Dr', 'Blue Springs, MO 64014']",MO,['Blue Springs MO']
1100,1100,McDonald's,39.03311,-94.30597,"['1515 N Woods Chapel Rd', 'Blue Springs, MO 64015']",MO,['Blue Springs MO']
1105,1105,Subway,39.023438794823704,-94.2714408249485,"['600 N 7 Hwy', 'Blue Springs, MO 64015']",MO,['Blue Springs MO']
1107,1107,KFC,39.0314429189576,-94.3044627404928,"['1236 NW Woods Chapel Rd', 'Blue Springs, MO 64015']",MO,['Blue Springs MO']
1108,1108,McDonald's,39.0087404831523,-94.27662134170531,"['920 W Hwy 40', 'Blue Springs, MO 64015']",MO,['Blue Springs MO']
1109,1109,Subway,39.02410089999999,-94.25505559999999,"['600 NE Coronado Dr', 'Blue Springs, MO 64014']",MO,['Blue Springs MO']
1113,1113,Wendy's,39.0720698040223,-94.34570732275391,"['2528 S 291 Hwy', 'Independence, MO 64057']",MO,['Blue Springs MO']
1117,1117,Subway,38.990398600000006,-94.2728473924777,"['2910 SW 7 Hwy', 'Blue Springs, MO 64014']",MO,['Blue Springs MO']
1118,1118,McDonald's,39.0191649,-94.198661,"['712 N Main St', 'Grain Valley, MO 64029']",MO,['Blue Springs MO']
1119,1119,Sonic Drive-In,39.0183835,-94.19860329999999,"['706 Main', 'Grain Valley, MO 64029']",MO,['Blue Springs MO']
1120,1120,McDonald's,39.0475159609985,-94.36559289693831,"['3921 S Bolger Rd', 'Independence, MO 64055']",MO,['Blue Springs MO']
1122,1122,Chick-fil-A,37.066726,-94.4773239,"['2127 S Range Line Rd', 'Joplin, MO 64804']",MO,['Joplin MO']
1123,1123,Whisler's Drive Up,37.18137,-94.31378000000001,"['300 N Garrison Ave', 'Carthage, MO 64836']",MO,['Joplin MO']
1124,1124,Freddy's Frozen Custard & Steakburgers,37.0562424330085,-94.47889820222309,"['3118 S Range Line Rd', 'Joplin, MO 64804']",MO,['Joplin MO']
1125,1125,Chick-fil-A,37.0901701,-94.47462759999999,"['101 N Range Line Rd', 'Northpark Mall', 'Joplin, MO 64801']",MO,['Joplin MO']
1126,1126,Culver's,37.140714,-94.4740616,"['475 S Madison St', 'Webb City, MO 64870']",MO,['Joplin MO']
1127,1127,Popeyes Louisiana Kitchen,37.066634,-94.47848499999999,"['2130 S Rangeline Rd', 'Joplin, MO 64804']",MO,['Joplin MO']
1128,1128,Firehouse Subs,37.0700277809361,-94.47948763140431,"['1816 S Range Line Rd', 'Joplin, MO 64804']",MO,['Joplin MO']
1129,1129,Chipotle Mexican Grill,37.084879,-94.476708,"['631 S Range Line Rd', 'Ste B', 'Joplin, MO 64801']",MO,['Joplin MO']
1130,1130,Panda Express,37.0730443664551,-94.4771237325335,"['1531 S Rangeline Rd', 'Joplin, MO 64804']",MO,['Joplin MO']
1131,1131,Schlotzsky's,37.055784,-94.515574,"['3120 S Main St', 'Ste 13', 'Joplin, MO 64804']",MO,['Joplin MO']
1132,1132,Fuzzy's Taco Shop,37.0500593326632,-94.47794398378521,"['3607 S Rangeline Rd', 'Joplin, MO 64804']",MO,['Joplin MO']
1133,1133,The Bruncheonette,37.094718933105504,-94.5133438110352,"['424 N Main St', 'Joplin, MO 64801']",MO,['Joplin MO']
1134,1134,Gringos,37.1312370300293,-94.4746780395508,"['1401 S Madison St', 'Webb City, MO 64870']",MO,['Joplin MO']
1135,1135,Hardee's of Joplin No 3,37.07118,-94.51438,"['1810 S Main St', 'Joplin, MO 64804']",MO,['Joplin MO']
1136,1136,Five Guys,37.070809999999994,-94.477408,"['1801 S Range Line Rd', 'Joplin, MO 64801']",MO,['Joplin MO']
1137,1137,Steak ’n Shake,37.0493738486606,-94.4766361,"['3115 Hammons Blvd', 'Joplin, MO 64804']",MO,['Joplin MO']
1138,1138,Arby's,37.0554866833431,-94.4796796515584,"['2408 S Range Line Rd', 'Joplin, MO 64804']",MO,['Joplin MO']
1139,1139,Wendy's,37.004584,-94.552482,"['4500 Highway 43', '4500 Hwy 43', 'Joplin, MO 64804']",MO,['Joplin MO']
1140,1140,Hardee's,37.081483,-94.47788050000001,"['818 Rangeline', 'Joplin, MO 64801']",MO,['Joplin MO']
1141,1141,Taco Bell,37.08491,-94.54426,"['2315 West 7th Street', 'Joplin, MO 64801']",MO,['Joplin MO']
1142,1142,KFC,37.125531,-94.47502800000001,"['1731 S Madison St', 'Webb City, MO 64870']",MO,['Joplin MO']
1143,1143,Taco Bell,37.079609999999995,-94.47721,"['1029 S Range Line Rd', 'Joplin, MO 64801']",MO,['Joplin MO']
1144,1144,Lalo's Taqueria,37.0840301513672,-94.4870071411133,"['2501 E 7th St', 'Joplin, MO 64801']",MO,['Joplin MO']
1145,1145,Jimmy John's,37.086688,-94.476548,"['407 A Rangeline Rd', 'Joplin, MO 64801']",MO,['Joplin MO']
1146,1146,Jimmy John's,37.056278999999996,-94.51513,"['3030 S Main St', 'Ste A', 'Joplin, MO 64804']",MO,['Joplin MO']
1147,1147,Wendy's,37.0840454101562,-94.5307846069336,"['701 S Maiden Ln', 'Joplin, MO 64801']",MO,['Joplin MO']
1148,1148,Wendy's,37.072207,-94.47731,"['1625 S. Range Line Rd.', 'Joplin, MO 64804']",MO,['Joplin MO']
1149,1149,Burger King,37.070143627198796,-94.47720646843841,"['1931 S Rangeline Rd', 'Joplin, MO 64804']",MO,['Joplin MO']
1150,1150,Sonic Drive-In,37.052656,-94.477659,"['3333 South Range Line Rd', 'Joplin, MO 64804']",MO,['Joplin MO']
1151,1151,Habaneros Mexican Grill,37.0835724,-94.48644240000002,"['2526 E 7th St', 'Joplin, MO 64801']",MO,['Joplin MO']
1152,1152,Hardee's,37.084739899999995,-94.53291999999999,"['1641 W 7th St', 'Joplin, MO 64801']",MO,['Joplin MO']
1153,1153,Schlotzsky's,37.085364,-94.476733,"['531 Rangeline Rd', 'Joplin, MO 64801']",MO,['Joplin MO']
1154,1154,Billy Sims BBQ,37.08375930786129,-94.47958374023442,"['2830 E 7th St', 'Joplin, MO 64801']",MO,['Joplin MO']
1155,1155,McAlister's Deli,37.063943,-94.4790965,"['2330 S Range Line', 'Ste H', 'Joplin, MO 64804']",MO,['Joplin MO']
1156,1156,Wendy's,37.13319,-94.47506,"['1229 Madison Avenue', 'Webb City, MO 64870']",MO,['Joplin MO']
1157,1157,Dairy Queen Grill & Chill,37.0551795,-94.4933776,"['E 32nd St & S Connecticut Ave', 'Joplin, MO 64804']",MO,['Joplin MO']
1158,1158,Taco Bell,37.062059999999995,-94.51434,"['2601 Main Street', 'Joplin, MO 64804']",MO,['Joplin MO']
1159,1159,McDonald's,37.051993935243004,-94.47911514902219,"['3330 S Range Line', 'Joplin, MO 64804']",MO,['Joplin MO']
1160,1160,Taco Bell,37.14379,-94.31057,"['2603 Grand Ave', 'Carthage, MO 64836']",MO,['Joplin MO']
1161,1161,Maria's Mexican Grill & Cantina,37.0551643371582,-94.49475860595699,"['1901 E 32nd St', 'Joplin, MO 64804']",MO,['Joplin MO']
1162,1162,Dairy Queen Grill & Chill,37.074689808825,-94.63445954405421,"['500 E 7th St', 'Galena, KS 66739']",KS,['Joplin MO']
1163,1163,Sub Shop Deli,37.14249,-94.46151,"['328 S Hall St', 'Ste 1', 'Webb City, MO 64870']",MO,['Joplin MO']
1164,1164,Arbys Roast Beef,37.127390000000005,-94.47618,"['1704 S Madison St', 'Webb City, MO 64870']",MO,['Joplin MO']
1165,1165,McDonald's,37.0849623367255,-94.5307106478959,"['1531 W 7th', 'Joplin, MO 64801']",MO,['Joplin MO']
1166,1166,Subway,37.0064340301516,-94.5499692223032,"['4549 Highway 43', 'Joplin, MO 64804']",MO,['Joplin MO']
1167,1167,Wendy's,37.147811,-94.309703,"['2342 Grand Avenue', 'Carthage, MO 64836']",MO,['Joplin MO']
1168,1168,Taco Bell,37.006457,-94.551345,"['Petro Travel Store Joplin', '4240 Highway 43', 'Joplin, MO 64804']",MO,['Joplin MO']
1169,1169,Taco Bell,37.12693,-94.47577,"['1708 S Madison St', 'Webb City, MO 64870']",MO,['Joplin MO']
1170,1170,McDonald's,37.055523875271,-94.5334562659264,"['3140 S Mcclelland', 'Joplin, MO 64804']",MO,['Joplin MO']
1171,1171,Subway,37.0549144870529,-94.5362474766889,"['1814 W 32nd St', 'Joplin, MO 64804']",MO,['Joplin MO']
1172,1172,Subway,37.0542777,-94.4796612888706,"['2914 E 32nd St', 'Joplin, MO 64804']",MO,['Joplin MO']
1173,1173,McDonald's,37.005471353628295,-94.5522712916136,"['4436 Hwy 43', 'Joplin, MO 64804']",MO,['Joplin MO']
1174,1174,Arby's,37.17954635620121,-94.3321685791016,"['1501 W Central Ave', 'Carthage, MO 64836']",MO,['Joplin MO']
1175,1175,McDonald's,37.07844,-94.47696894407271,"['1123 Range Line Rd', 'Joplin, MO 64801']",MO,['Joplin MO']
1176,1176,Dairy Queen Orange Julius,37.00702725252079,-94.55209761857991,"['4240 Highway 43', 'Joplin, MO 64804']",MO,['Joplin MO']
1177,1177,Sonic Drive-In,37.0832956,-94.50099885463709,"['1030 E Seventh', 'Joplin, MO 64801']",MO,['Joplin MO']
1178,1178,Subway,37.087194000000004,-94.47764156814492,"['330 S Rangeline Rd', 'Joplin, MO 64801']",MO,['Joplin MO']
1179,1179,Sonic Drive-In,37.0544750024002,-94.5120790600776,"['310 East 32nd St', 'Joplin, MO 64804']",MO,['Joplin MO']
1180,1180,Hardee's,37.0123519738844,-94.5449671483532,"['4013 Hwy 43', 'Joplin, MO 64804']",MO,['Joplin MO']
1181,1181,Mexican Restaurant Mi Torito,37.076726,-94.638914,"['418 S Main St', 'Galena, KS 66739']",KS,['Joplin MO']
1182,1182,Sonic Drive-In,37.083524700000005,-94.5318765,"['720 Maiden Ln', 'Joplin, MO 64804']",MO,['Joplin MO']
1183,1183,Waffle House,37.1336299,-94.47534,"['1208 S Madison St', 'Webb City, MO 64870']",MO,['Joplin MO']
1184,1184,Burger King,37.17897,-94.32356999999999,"['1011 West Central Street', 'Carthage, MO 64836']",MO,['Joplin MO']
1185,1185,McDonald's,37.060163358397205,-94.51420873403549,"['2701 S Main St', 'Joplin, MO 64804']",MO,['Joplin MO']
1186,1186,McDonald's,37.139810075970296,-94.31904718279829,"['2812 Hazel Ave', 'Carthage, MO 64836']",MO,['Joplin MO']
1187,1187,McDonald's,37.14069821689,-94.47569087147708,"['410 S Madison', 'Webb City, MO 64870']",MO,['Joplin MO']
1188,1188,McDonald's,37.17916822905521,-94.3248917162418,"['1111 W Central', 'Carthage, MO 64836']",MO,['Joplin MO']
1189,1189,Hardee's Restaurant,37.145153,-94.310008,"['2516 S Grand', 'Carthage, MO 64836']",MO,['Joplin MO']
1190,1190,Burger King,37.1318778991699,-94.4759292602539,"['1312 S Madison St', 'Webb City, MO 64870']",MO,['Joplin MO']
1191,1191,Subway,37.178533,-94.3242449,"['1032 W Central Ave', 'Carthage, MO 64836']",MO,['Joplin MO']
1192,1192,Sonic Drive-In,37.079139399999995,-94.47718370000001,"['1101 South Rangeline', 'Joplin, MO 64801']",MO,['Joplin MO']
1193,1193,Sonic Drive-In,37.1323308,-94.4758922,"['1310 South Madison', 'Webb City, MO 64870']",MO,['Joplin MO']
1194,1194,Domino's Pizza,37.154517999999996,-94.315539,"['2003 S Garrison Ave', 'Carthage, MO 64836']",MO,['Joplin MO']
1195,1195,Sonic Drive-In,37.143124799999995,-94.50993009999999,"['24949 Demott Dr', 'Webb City, MO 64870']",MO,['Joplin MO']
1196,1196,Sonic Drive-In,37.0754775247633,-94.64398071169849,"['505 West 7th St', 'Galena, KS 66739']",KS,['Joplin MO']
1201,1201,Chipotle Mexican Grill,38.804604058965,-90.30860200000001,"['2391 N Hwy 67', 'Florissant, MO 63033']",MO,['Florissant MO']
1202,1202,Wendy's,38.791090000000004,-90.34456,"['8250 N. Lindbergh', 'Florissant, MO 63031']",MO,['Florissant MO']
1203,1203,QDOBA Mexican Eats,38.8076189,-90.299374088645,"['14039 New Halls Ferry Rd', 'Bldg A', 'Florissant, MO 63033']",MO,['Florissant MO']
1204,1204,Firehouse Subs,38.802894,-90.309488,"['2312 N Hwy 67', 'Florissant, MO 63033']",MO,['Florissant MO']
1205,1205,Panda Express,38.804645,-90.308489,"['2399 N Hwy 67', 'Florissant, MO 63031']",MO,['Florissant MO']
1207,1207,Crazy Bowls & Wraps,38.789390000000004,-90.3463,"['8180 N Lindbergh Blvd', 'Florissant, MO 63031']",MO,['Florissant MO']
1214,1214,Steak ’n Shake,38.80086,-90.31552490000001,"['1955 Hwy 67 N', 'Florissant, MO 63033']",MO,['Florissant MO']
1216,1216,Lee's Famous Recipe,38.807835,-90.30220899999999,"['2825 N US Hwy 67', 'Florissant, MO 63033']",MO,['Florissant MO']
1219,1219,Taco Bell,38.772983,-90.306177,"['1491 Dunn Road', 'Florissant, MO 63033']",MO,['Florissant MO']
1221,1221,Mack's Chicken,38.748836517334,-90.2544937133789,"['2170 Chambers Rd', 'Saint Louis, MO 63136']",MO,['Florissant MO']
1223,1223,Jimmy John's,38.796257000000004,-90.338596,"['370 N Highway 67', 'Florissant, MO 63031']",MO,['Florissant MO']
1224,1224,Arby's,38.77697,-90.33551999999999,"['1275 Graham Rd', 'Florissant, MO 63031']",MO,['Florissant MO']
1225,1225,Wingstop,38.790406,-90.343838,"['8222 N Lindbergh Blvd', 'Florissant, MO 63031']",MO,['Florissant MO']
1227,1227,Burger King,38.793451,-90.343096,"['8411 North Lindbergh', 'Florissant, MO 63031']",MO,['Florissant MO']
1230,1230,Jack in the Box,38.773558468332,-90.30800074338909,"['4595 Washington St', 'Florissant, MO 63033']",MO,['Florissant MO']
1231,1231,Big Boyz Burgers and More,38.748869899999995,-90.33424000000001,"['6130 Madison Ave', 'Berkeley, MO 63134']",MO,['Florissant MO']
1233,1233,Long John Silver's,38.777874,-90.3344,"['1230 Graham Rd', 'Florissant, MO 63031']",MO,['Florissant MO']
1234,1234,Burger King,38.8101,-90.298292,"['3121 N Hwy 67', 'Florissant, MO 63033']",MO,['Florissant MO']
1236,1236,Rally's,38.802122999999995,-90.311234,"['2182 N Highway 67', 'Florissant, MO 63033']",MO,['Florissant MO']
1237,1237,KFC,38.804292403260206,-90.30730608563421,"['2450 N Hwy 67', 'Florissant, MO 63033']",MO,['Florissant MO']
1238,1238,White Castle,38.773994445800795,-90.27008056640621,"['11120 New Halls Ferry', 'Florissant, MO 63033']",MO,['Florissant MO']
1240,1240,Taco Bell,38.7866702896118,-90.351462999401,"['7747 N Lindbergh Blvd.', 'Hazelwood, MO 63042']",MO,['Florissant MO']
1243,1243,Popeyes Louisiana Kitchen,38.773356,-90.26850300000001,"['2877 Target Dr', 'Saint Louis, MO 63136']",MO,['Florissant MO']
1244,1244,Jack in the Box,38.7720915306644,-90.27823761105542,"['11204 W Florissant Ave', 'Florissant, MO 63033']",MO,['Florissant MO']
1245,1245,Popeyes Louisiana Kitchen,38.748162204826606,-90.3080132625656,"['20 Airport Rd', 'Saint Louis, MO 63135']",MO,['Florissant MO']
1251,1251,Breakaway Cafe,38.708758,-90.3177,"['8418 Natural Bridge Rd', 'Saint Louis, MO 63121']",MO,['Florissant MO']
1252,1252,Rally's,38.69108,-90.38853,"['10334 Page Avenue', 'St. Louis, MO 63132']",MO,['Florissant MO']
1255,1255,Jo Jo's Diner,38.7889968,-90.3749717,"['6849 Howdershell Rd', 'Hazelwood, MO 63042']",MO,['Florissant MO']
1257,1257,McDonald's,38.8005507986158,-90.33450230956079,"['15 Florissant Oaks Shopping Ctr', 'Florissant, MO 63031']",MO,['Florissant MO']
1258,1258,Dairy Queen Grill & Chill,38.8056499790194,-90.3047367,"['2678 N Hwy 67', 'Florissant, MO 63033']",MO,['Florissant MO']
1261,1261,Burger King,38.91833,-90.16209,"['1902 Homer Adams Pkwy', 'Alton, IL 62002']",IL,['Florissant MO']
1262,1262,Jack in the Box,38.6644974278465,-90.3148417,"['6950 Olive Blvd', 'University City, MO 63130']",MO,['Florissant MO']
1264,1264,Wendy's,38.7274949927641,-90.27606904506679,"['8009 West Florissant Ave', 'St.Louis, MO 63136']",MO,['Florissant MO']
1272,1272,Subway,38.7939037,-90.3417625,"['8444 N Lindbergh Blvd', 'Florissant, MO 63031']",MO,['Florissant MO']
1274,1274,McDonald's,38.7738449515685,-90.3357924520969,"['8700 Pershall Rd', 'Hazelwood, MO 63042']",MO,['Florissant MO']
1275,1275,Subway,38.804643789105604,-90.305875,"['2544 N Hwy 67', 'Surrey Plaza', 'Florissant, MO 63033']",MO,['Florissant MO']
1276,1276,Church's Chicken,38.794909999999994,-90.28944,"['13101 New Halls Ferry Rd', 'Florissant, MO 63033']",MO,['Florissant MO']
1277,1277,Marley's Bar & Grill,38.73794,-90.30187,"['500 S Florissant Rd', 'Ferguson, MO 63135']",MO,['Florissant MO']
1278,1278,Subway,38.7975919402841,-90.2328465482377,"['6805 Parker Rd', 'Paddock Forest Shopping Ctr', 'Florissant, MO 63033']",MO,['Florissant MO']
1279,1279,Jack in the Box,38.921601,-90.1789005,"['101 Homer M Adams Pkwy', 'Alton, IL 62002']",IL,['Florissant MO']
1280,1280,Rally's,38.72914,-90.34394,"['9651 Natural Bridge Road', 'St. Louis, MO 63134']",MO,['Florissant MO']
1284,1284,Rally's,38.6868,-90.27039,"['3730 Goodfellow', 'St. Louis, MO 63120']",MO,['Florissant MO']
1285,1285,La Tejana Taqueria,38.7227628,-90.4076944,"['3157 N Lindbergh Blvd', 'Bridgeton, MO 63043']",MO,['Florissant MO']
1286,1286,Penn Station,38.729808399999996,-90.3854452,"['10466 St Charles Rock Rd', 'Saint Ann, MO 63074']",MO,['Florissant MO']
1287,1287,Taco Bell,38.781157987560206,-90.38853842765091,"['5950 Howdershell Rd', 'Hazelwood, MO 63042']",MO,['Florissant MO']
1290,1290,Taco Bell,38.795536962961705,-90.23195508867501,"['6934 Parker Rd', 'Florissant, MO 63033']",MO,['Florissant MO']
1292,1292,McDonald's,38.7833590415188,-90.35490905100691,"['7300 N Lindbergh', 'Hazelwood, MO 63042']",MO,['Florissant MO']
1294,1294,Taco Bell,38.804701,-90.306876,"['2525 N Lindbergh Blvd', 'Florissant, MO 63033']",MO,['Florissant MO']
1296,1296,Great Wraps,38.742107906872,-90.3620890197865,"['10701 Lambert International Blvd', 'St. Louis Lambert International Airport', 'St. Louis, MO 63145']",MO,['Florissant MO']
1299,1299,White Castle,38.65525,-90.20214,"['2009 Hebert St', 'Saint Louis, MO 63107']",MO,['Florissant MO']
1300,1300,McDonald's,38.8107873584906,-90.2969466056675,"['3165 N Hwy 67', 'Florissant, MO 63033']",MO,['Florissant MO']
1302,1302,Popeyes Louisiana Kitchen,38.9164571,-90.15226899999999,"['2390 Homer M Adams Pkwy', 'Alton, IL 62002']",IL,['Florissant MO']
1303,1303,Lee's Chicken,38.676982129016,-90.2525484189391,"['5023 Natural Bridge', 'Saint Louis, MO 63115']",MO,['Florissant MO']
1305,1305,Arby's Restaurants,38.6399345397949,-90.2438278198242,"['4021 Lindell Blvd', 'Saint Louis, MO 63108']",MO,['Florissant MO']
1306,1306,Jack in the Box,38.7658982745605,-90.2019622921943,"['10866 Lilac Ave', 'Saint Louis, MO 63137']",MO,['Florissant MO']
1307,1307,Church's Chicken,38.766090000000005,-90.2604099,"['10646 New Halls Ferry', 'Ferguson, MO 63135']",MO,['Florissant MO']
1309,1309,White Castle,38.914678,-90.140185,"['2998 Homer Adams Pkwy', 'Alton, IL 62002']",IL,['Florissant MO']
1311,1311,Jack in the Box,38.90283,-90.1490199,"['1649 Washington Ave', 'Alton, IL 62002']",IL,['Florissant MO']
1314,1314,Moe's Southwest Grill,38.674181,-90.409883,"['10429 Olive Blvd', 'Creve Coeur, MO 63141']",MO,['Florissant MO']
1316,1316,Burger King,38.737471226960295,-90.3549721355591,"['10701 Natural Bridge Rd', 'St Louis, MO 63145']",MO,['Florissant MO']
1317,1317,Arby's,38.7796516418457,-90.38915252685551,"['815 James S McDonnell Blvd', 'Hazelwood, MO 63042']",MO,['Florissant MO']
1318,1318,McDonald's,38.812470000000005,-90.34906,"['1090 Shackleford', 'Florissant, MO 63031']",MO,['Florissant MO']
1320,1320,Church's Chicken,38.796859999999995,-90.33829,"['410 N Lindbergh Blvd', 'Florissant, MO 63031']",MO,['Florissant MO']
1322,1322,Steak ’n Shake,38.92288,-90.179507,"['80 Homer Adams Pkwy', 'Alton, IL 62002']",IL,['Florissant MO']
1323,1323,Which Wich,38.655947999999995,-90.308143,"['6662 Delmar Blvd', 'University City, MO 63130']",MO,['Florissant MO']
1324,1324,Wendy's,38.6785584,-90.2587709,"['3465 Union Blvd', 'St.Louis, MO 63115']",MO,['Florissant MO']
1325,1325,Burger King,38.769529999999996,-90.27965,"['10890 West Florissant', 'St. Louis, MO 63136']",MO,['Florissant MO']
1327,1327,Jack in the Box,38.7869339,-90.23299200000001,"['11830 Lusher Rd', 'Saint Louis, MO 63138']",MO,['Florissant MO']
1328,1328,Firehouse Subs,38.67979824543,-90.50109833478929,"['79 Forum Ctr', 'Chesterfield, MO 63017']",MO,['Florissant MO']
1331,1331,Jack in the Box,38.7297914443835,-90.3448368608952,"['9707 Natural Bridge Rd', 'Berkeley, MO 63134']",MO,['Florissant MO']
1334,1334,Lee's Famous Recipe Chicken,38.7322,-90.38851,"['10645 Saint Charles Rock Rd', 'Saint Ann, MO 63074']",MO,['Florissant MO']
1336,1336,White Castle,38.76705,-90.22036,"['10720 Bellefontaine Rd', 'Bellefontaine Neighbors, MO 63137']",MO,['Florissant MO']
1337,1337,Jack in the Box,38.6403949,-90.2464212477207,"['4111 Lindell Blvd', 'Saint Louis, MO 63108']",MO,['Florissant MO']
1339,1339,White Castle,38.67574341595171,-90.25207936763759,"['3524 N Kingshighway Blvd', 'Saint Louis, MO 63115']",MO,['Florissant MO']
1340,1340,Taco Bell,38.92243,-90.1797,"['70 Homer Adams Pkwy', 'Alton, IL 62002']",IL,['Florissant MO']
1341,1341,Jack in the Box,38.781059899999995,-90.35645,"['322 Taylor Rd', 'Hazelwood, MO 63042']",MO,['Florissant MO']
1342,1342,Burger King,38.729057312011705,-90.3846664428711,"['10458 Saint Charles Rock Rd', 'Saint Ann, MO 63074']",MO,['Florissant MO']
1344,1344,Jack in the Box,38.7355108050477,-90.3959208726883,"['11122 Saint Charles Rock Rd', 'Saint Ann, MO 63074']",MO,['Florissant MO']
1345,1345,Subway,38.673389928627,-90.2026847485939,"['4500 N Broadway', 'Phillips 66 Truck Stop', 'St Louis, MO 63147']",MO,['Florissant MO']
1346,1346,McDonald's,38.7008355402821,-90.1455608010292,"['2045 Madison Ave', 'Granite City, IL 62040']",IL,['Florissant MO']
1355,1355,Popeyes Louisiana Kitchen,38.592919,-90.587241,"['15903 Manchester Rd', 'Ellisville, MO 63011']",MO,['Chesterfield MO']
1361,1361,Chick-fil-A,38.6031757,-90.5861966,"['304 Clarkson Rd', 'Ellisville, MO 63011']",MO,['Chesterfield MO']
1373,1373,Dairy Queen Grill & Chill,38.604479565576796,-90.58325976133351,"['15850 Clayton Rd', 'Ballwin, MO 63011']",MO,['Chesterfield MO']
1374,1374,Culver's,38.592971,-90.5191497802734,"['14444 Manchester Rd', 'Manchester, MO 63011']",MO,['Chesterfield MO']
1375,1375,Wente's O & W Restaurant,38.66887,-90.63494,"['18000 Chesterfield Airport Rd', 'Chesterfield, MO 63005']",MO,['Chesterfield MO']
1377,1377,McDonald's,38.6261663223136,-90.51645054481921,"['101 Lamp And Lantern Vlg', 'Chesterfield, MO 63017']",MO,['Chesterfield MO']
1380,1380,McDonald's,38.6675472353191,-90.6169652,"['110 Long Rd', 'Chesterfield, MO 63005']",MO,['Chesterfield MO']
1381,1381,Wendy's,38.5932579040527,-90.5374374389648,"['14799 Manchester Rd.', 'Ballwin, MO 63011']",MO,['Chesterfield MO']
1383,1383,MOD Pizza,38.6065987497568,-90.5845955014229,"['15809 Fountain Plaza Dr', 'Ellisville, MO 63017']",MO,['Chesterfield MO']
1387,1387,Sonic Drive-In,38.66783,-90.60045,"['17300 Chesterfield Airport Rd', ""Boone's Crossing"", 'Chesterfield, MO 63005']",MO,['Chesterfield MO']
1388,1388,Panda Express,38.5928263,-90.50535129999999,"['101 Highlands Blvd', 'Manchester, MO 63011']",MO,['Chesterfield MO']
1391,1391,Jack in the Box,38.592449209232505,-90.5607157945633,"['15354 Manchester Rd', 'Ellisville, MO 63011']",MO,['Chesterfield MO']
1393,1393,Taco Bell,38.593379999999996,-90.55609,"['15225 Manchester Rd', 'Ballwin, MO 63011']",MO,['Chesterfield MO']
1394,1394,Chipotle Mexican Grill,38.5921892624355,-90.5844007,"['15836 Manchester Rd', 'Ellisville, MO 63011']",MO,['Chesterfield MO']
1397,1397,Lion's Choice,38.5931838,-90.5437121,"['14919 Manchester Rd', 'Ballwin, MO 63011']",MO,['Chesterfield MO']
1398,1398,Penn Station East Coast Subs,38.66702,-90.60898,"['480 Thf Blvd', 'Chesterfield, MO 63005']",MO,['Chesterfield MO']
1401,1401,Taco Bell,38.590018,-90.596002232048,"['16100 Manchester Road', 'Ellisville, MO 63011']",MO,['Chesterfield MO']
1403,1403,Culver's,38.506716,-90.633808,"['400 Meramec Blvd', 'Eureka, MO 63025']",MO,['Chesterfield MO']
1405,1405,Jimmy John's,38.625102000000005,-90.51544399999999,"['14153 Clayton Rd', 'Town and Country, MO 63017']",MO,['Chesterfield MO']
1407,1407,Raising Cane's Chicken Fingers,38.592220000000005,-90.57778990000001,"['15698 Manchester Rd', 'Ellisville, MO 63011']",MO,['Chesterfield MO']
1410,1410,Firehouse Subs,38.5929525,-90.54564029999999,"['14948 Manchester Rd', 'Ballwin, MO 63011']",MO,['Chesterfield MO']
1414,1414,Arby's,38.5935554504395,-90.4963760375977,"['14120 Manchester Rd', 'Ballwin, MO 63011']",MO,['Chesterfield MO']
1415,1415,Crazy Bowls & Wraps,38.64611,-90.565512,"['1627 Clarkson Rd', 'Chesterfield, MO 63017']",MO,['Chesterfield MO']
1417,1417,Chick-N-Elly's,38.50169,-90.6277,"['122A S Central Ave', 'Eureka, MO 63025']",MO,['Chesterfield MO']
1418,1418,6 North Cafe,38.620493722765296,-90.5252278584601,"['14438 Clayton Rd', 'Ballwin, MO 63011']",MO,['Chesterfield MO']
1422,1422,Peppers Deli & Bar-B Q,38.594482421875,-90.5863037109375,"['32 Clarkson Rd', 'Ellisville, MO 63011']",MO,['Chesterfield MO']
1429,1429,Sonic Drive-In,38.5687348,-90.52443709999999,"['601 Big Bend Rd', 'Manchester, MO 63021']",MO,['Chesterfield MO']
1433,1433,White Castle,38.5050048828125,-90.6407928466797,"['78 Hilltop Village Dr', 'Eureka, MO 63025']",MO,['Chesterfield MO']
1434,1434,Jimmy John's,38.592852,-90.588264,"['15961 Manchester Rd', 'Ellisville, MO 63011']",MO,['Chesterfield MO']
1436,1436,Fuzzy's Taco Shop,38.592721999999995,-90.496101,"['1288 Old Orchard Ctr', 'Manchester, MO 63021']",MO,['Chesterfield MO']
1437,1437,Chick-fil-A,38.599651,-90.44690899999999,"['184 W County Ctr', 'Spc N', 'Des Peres, MO 63131']",MO,['Chesterfield MO']
1438,1438,Lion's Choice,38.6080172199107,-90.5853329433425,"['3048 Clarkson Rd', 'Ellisville, MO 63017']",MO,['Chesterfield MO']
1440,1440,Domino's Pizza,38.679556,-90.50653199999999,"['13728 Olive Blvd', 'Chesterfield, MO 63017']",MO,['Chesterfield MO']
1441,1441,Crazy Bowls & Wraps,38.596920000000004,-90.48200600000001,"['13831 Manchester Rd', 'Ballwin, MO 63011']",MO,['Chesterfield MO']
1449,1449,Jimmy John's,38.5057848,-90.6371012,"['14 Hilltop Village Center Dr', 'Eureka, MO 63025']",MO,['Chesterfield MO']
1456,1456,KFC,38.594965,-90.4911047172178,"['101 S Weidman Rd', 'Manchester, MO 63021']",MO,['Chesterfield MO']
1460,1460,Lion's Choice,38.50719,-90.442431,"['698 Gravois Bluffs Dr', 'Fenton, MO 63026']",MO,['Chesterfield MO']
1469,1469,El Toluco Taqueria & Grocery,38.591857,-90.504181,"['14234 Manchester', 'Saint Louis, MO 63011']",MO,['Chesterfield MO']
1470,1470,McDonald's,38.5930455878055,-90.58639518451858,"['15901 Manchester Rd', 'Ellisville, MO 63011']",MO,['Chesterfield MO']
1471,1471,Taco Bell,38.505893,-90.638173,"['83 Hilltop Village Center Dr', 'Eureka, MO 63025']",MO,['Chesterfield MO']
1473,1473,Popeyes Louisiana Kitchen,38.764181,-90.785557,"['6475 Ronald Reagan Dr', 'Lake St Louis, MO 63367']",MO,['Chesterfield MO']
1474,1474,Five Guys,38.6020505181386,-90.44364811030121,"['1052 N Ballas Rd', 'Des Peres, MO 63131']",MO,['Chesterfield MO']
1480,1480,Culver's,38.524503,-90.4718170166016,"['1024 Bowles Ave', 'Fenton, MO 63026']",MO,['Chesterfield MO']
1481,1481,Taco Bell,38.5963,-90.484412,"['13775 Manchester Rd', 'Ballwin, MO 63011']",MO,['Chesterfield MO']
1485,1485,Arby's,38.50664089162971,-90.6345692151749,"['60 Hilltop Village Center Dr', 'Eureka, MO 63025']",MO,['Chesterfield MO']
1489,1489,Jimmy John's,38.6796527,-90.4733315,"['12808 Olive Blvd', 'Creve Coeur, MO 63141']",MO,['Chesterfield MO']
1490,1490,Crazy Bowls & Wraps,38.67898687106,-90.472004388075,"['12704 Olive Blvd', 'Creve Coeur, MO 63141']",MO,['Chesterfield MO']
1495,1495,Burger King,38.59342,-90.49683,"['14124 Manchester Rd', 'Ballwin, MO 63011']",MO,['Chesterfield MO']
1497,1497,Chick-fil-A,38.8159757,-90.87593840000001,"['1918 Wentzville Pkwy', 'Wentzville, MO 63385']",MO,['Wentzville MO']
1498,1498,Culver's,38.817491,-90.876598,"['1898 Wentzville Pkwy', 'Wentzville, MO 63385']",MO,['Wentzville MO']
1499,1499,Pete's Drive In,38.81372,-90.84495,"['1009 E Pearce Blvd', 'Wentzville, MO 63385']",MO,['Wentzville MO']
1500,1500,Penn Station,38.8190155029297,-90.8763809204102,"['1780 Wentzville Pkwy', 'Wentzville, MO 63385']",MO,['Wentzville MO']
1501,1501,MOD Pizza,38.8135774,-90.8752196,"['1976 Wentzville Pkwy', 'Wentzville, MO 63385']",MO,['Wentzville MO']
1502,1502,Steak ’n Shake,38.8119306977785,-90.87343680000001,"['1134 W Pearce Blvd', 'Wentzville, MO 63385']",MO,['Wentzville MO']
1503,1503,Wendy's,38.812794200000006,-90.8735653,"['1233 West Pearce Blvd', 'Wentzville, MO 63385']",MO,['Wentzville MO']
1504,1504,Popeyes Louisiana Kitchen,38.81714,-90.94958199999999,"['3265 N Service Rd E', 'Foristell, MO 63348']",MO,['Wentzville MO']
1505,1505,White Castle,38.81597,-90.87712990000001,"['1983 Wentzville Pkwy', 'Wentzville, MO 63385']",MO,['Wentzville MO']
1506,1506,McDonald's,38.809909999999995,-90.86509000000001,"['766 W Pearce', 'Wentzville, MO 63385']",MO,['Wentzville MO']
1507,1507,KFC,38.8100325235659,-90.86388897974491,"['718 W Pearce Blvd', 'Wentzville, MO 63385']",MO,['Wentzville MO']
1508,1508,Jimmy John's,38.818870000000004,-90.878537,"['1867 Wentzville Pkwy', 'Wentzville, MO 63385']",MO,['Wentzville MO']
1509,1509,St. Louis Bread,38.812393,-90.876695,"['1212 W Pearce Rd', 'Wentzville, MO 63385']",MO,['Wentzville MO']
1510,1510,Hardee's,38.814903259277294,-90.87548065185551,"['1944 Wentzville Pkwy', 'Wentzville, MO 63385']",MO,['Wentzville MO']
1511,1511,Dairy Queen Grill & Chill,38.807764,-90.853565,"['702 S Church St', 'Wentzville, MO 63385']",MO,['Wentzville MO']
1512,1512,Burger King,38.8027438716843,-90.8558612757341,"['1971 Wentzville Pkwy', 'Wentzville, MO 63385']",MO,['Wentzville MO']
1513,1513,Taco Bell,38.811772,-90.87198000000001,"['1139 W. Pearce Blvd.', 'Wentzville, MO 63385']",MO,['Wentzville MO']
1514,1514,Jack in the Box,38.8132024497833,-90.87411448359491,"['1992 Wentzville Pkwy', 'Wentzville, MO 63385']",MO,['Wentzville MO']
1515,1515,El Agave,38.82566,-90.86399,"['1201 Wentzville Pkwy', 'Ste 109', 'Wentzville, MO 63385']",MO,['Wentzville MO']
1516,1516,Arbys,38.813354499999996,-90.8751168,"['1988 Wentzville Pkwy', 'Wentzville, MO 63385']",MO,['Wentzville MO']
1517,1517,Green China,38.8028513,-90.7676025,"['1317 Lake Saint Louis Blvd', 'Lake Saint Louis, MO 63367']",MO,['Wentzville MO']
1523,1523,Wendy's,38.81072,-90.86715,"['901 W Pearce Blvd', 'Wentzville, MO 63385']",MO,['Wentzville MO']
1524,1524,Taco Bell,38.817754,-90.95783399999999,"['Travel Centers of America', '3265 N Service Rd E', 'Foristell, MO 63348']",MO,['Wentzville MO']
1525,1525,Jimmy John's,38.7692,-90.7843915,"['6299 Ronald Reagan Dr', 'Lake St. Louis, MO 63367']",MO,['Wentzville MO']
1526,1526,Sonic Drive-In,38.7675724,-90.7845745,"['6325 Ronald Reagan Dr', 'Lake Saint Louis, MO 63367']",MO,['Wentzville MO']
1528,1528,St. Louis Bread,38.7703648342072,-90.78193634748459,"['861 Robert Raymond Dr', 'Lake Saint Louis, MO 63367']",MO,['Wentzville MO']
1529,1529,Steak ’n Shake,38.7730934,-90.7831181,"['835 Robert Raymond Dr', 'Lake St. Louis, MO 63367']",MO,['Wentzville MO']
1530,1530,McDonald's,38.768828000000006,-90.782545,"['885 Robert Raymond Dr', 'Lake St. Louis, MO 63367']",MO,['Wentzville MO']
1531,1531,McDonald's,38.814933,-90.95261479999999,"['3160 S Service Rd E', 'Foristell, MO 63348']",MO,['Wentzville MO']
1532,1532,McDonald's,38.8050722504874,-90.7698187977076,"['2144 W Terra Ln', ""O'Fallon, MO 63366""]",MO,['Wentzville MO']
1533,1533,Subway,38.7694067738899,-90.7830726628681,"['6249 Ronald Regan Dr', 'Lake St Louis, MO 63367']",MO,['Wentzville MO']
1534,1534,Subway,38.77263998497529,-90.7860928290576,"['6100 Ronald Reagan Blvd', 'Lake St Louis, MO 63367']",MO,['Wentzville MO']
1535,1535,Chick-fil-A,38.58097,-92.24368,"['3407 Missouri Blvd', 'Jefferson City, MO 65109']",MO,['Jefferson City MO']
1536,1536,Wendy's,38.58177,-92.20614,"['2108 Missouri Blvd.', 'Jefferson City, MO 65109']",MO,['Jefferson City MO']
1537,1537,Chipotle Mexican Grill,38.578885,-92.192763,"['1400 Missouri Blvd', 'Jefferson City, MO 65109']",MO,['Jefferson City MO']
1538,1538,Pita Pit,38.571614435073,-92.226702112988,"['2727 West Edgewood', 'Ste 102', 'Jefferson City, MO 65101']",MO,['Jefferson City MO']
1539,1539,Culver's,38.5525893,-92.200133,"['1920 Jefferson St', 'Jefferson City, MO 65109']",MO,['Jefferson City MO']
1540,1540,Freddy's Frozen Custard & Steakburgers,38.5807609558105,-92.2056198120117,"['2103 Missouri Blvd', 'Ste A', 'Jefferson City, MO 65109']",MO,['Jefferson City MO']
1541,1541,Taco Bell,38.5482094,-92.1498840075497,"['2005 Schotthilll Woods Rd.', 'Jefferson City, MO 65101']",MO,['Jefferson City MO']
1542,1542,Jack in the Box,38.581366668535,-92.21414990000001,"['2333 Missouri Blvd', 'Jefferson City, MO 65109']",MO,['Jefferson City MO']
1543,1543,Wendy's,38.5841026306152,-92.25341033935551,"['3536 Country Club Dr', 'Jefferson City, MO 65109']",MO,['Jefferson City MO']
1544,1544,Popeyes Louisiana Kitchen,38.581596999999995,-92.20549100000001,"['2102 Missouri Blvd', 'Jefferson City, MO 65109']",MO,['Jefferson City MO']
1545,1545,Steak ’n Shake,38.581588200000006,-92.21786209999999,"['2519 Missouri Blvd', 'Jefferson City, MO 65109']",MO,['Jefferson City MO']
1546,1546,Hardee's Restaurant,38.58354,-92.2527,"['3601 Country Club Dr', 'Jefferson City, MO 65109']",MO,['Jefferson City MO']
1547,1547,Sonic Drive-In,38.552268299999994,-92.1953465120623,"['314 Ellis Blvd', 'Jefferson City, MO 65101']",MO,['Jefferson City MO']
1548,1548,Arby's Roast Beef,38.5792625100512,-92.2291910735775,"['2915 S Ten Mile Rd', 'Jefferson City, MO 65109']",MO,['Jefferson City MO']
1549,1549,Firehouse Subs,38.5807609558105,-92.2056198120117,"['2103 Missouri Blvd', 'Ste D', 'Jefferson City, MO 65109']",MO,['Jefferson City MO']
1550,1550,Taco Bell,38.55491,-92.19937,"['1905 Southwest Blvd', 'Jefferson City, MO 65109']",MO,['Jefferson City MO']
1551,1551,Long John Silver's,38.581787,-92.20943199999999,"['2220 Missouri Blvd', 'Jefferson City, MO 65109']",MO,['Jefferson City MO']
1552,1552,Burger King,38.580859999999994,-92.2085199,"['2207 Missouri Blvd', 'Jefferson City, MO 65109']",MO,['Jefferson City MO']
1553,1553,McDonald's,38.5790834862316,-92.1952211111784,"['1425 Missouri Blvd', 'Jefferson City, MO 65109']",MO,['Jefferson City MO']
1554,1554,Jimmy John's,38.57611,-92.17169,"['128 E High St', 'Jefferson City, MO 65101']",MO,['Jefferson City MO']
1555,1555,Sonic Drive-In,38.59268033936,-92.2254475951194,"['201 Commerce Dr', 'Jefferson City, MO 65101']",MO,['Jefferson City MO']
1556,1556,Taco Bell,38.58191,-92.21966,"['2605 Missouri Blvd', 'Jefferson City, MO 65109']",MO,['Jefferson City MO']
1557,1557,Jimmy John's,38.58562020000001,-92.2571263,"['3750 W Truman Blvd', 'Ste A', 'Jefferson City, MO 65109']",MO,['Jefferson City MO']
1558,1558,Subway,38.576485369272596,-92.1721532720898,"['114 E High St', 'Jefferson City, MO 65101']",MO,['Jefferson City MO']
1559,1559,Burger King,38.552,-92.19823000000001,"['1923 Christy Dr', 'Jefferson City, MO 65101']",MO,['Jefferson City MO']
1560,1560,McDonald's,38.6582312,-92.11157469999999,"['123 Northstar Dr', 'Holts Summit, MO 65043']",MO,['Jefferson City MO']
1561,1561,McDonald's,38.580651674812,-92.2351384162903,"['3124 10 Mile Rd', 'Jefferson City, MO 65109']",MO,['Jefferson City MO']
1562,1562,McDonald's,38.5494838540677,-92.1495477855206,"['815 Eastland Dr', 'Jefferson City, MO 65101']",MO,['Jefferson City MO']
1563,1563,Dairy Queen Grill & Chill,38.581635051438205,-92.20675528049459,"['2114 Missouri Blvd', 'Jefferson City, MO 65109']",MO,['Jefferson City MO']
1564,1564,McDonald's,38.55317558805871,-92.1996027929708,"['1918 Jefferson St', 'Jefferson City, MO 65109']",MO,['Jefferson City MO']
1565,1565,Subway,38.5411236558778,-92.11873535721091,"['401 Supercenter Dr', 'Jefferson City, MO 65101']",MO,['Jefferson City MO']
1566,1566,Wendy's,38.865551316718104,-91.9444043835656,"['1841 North Bluff Street', 'Fulton, MO 65251']",MO,['Jefferson City MO']
1567,1567,McDonald's,38.493492907355105,-91.8584731221199,"['320 W Main', 'Linn, MO 65051']",MO,['Jefferson City MO']
1568,1568,Subway,38.5693848466057,-92.2395995251486,"['3218 W Edgewood Dr', 'Ste 800', 'Jefferson City, MO 65109']",MO,['Jefferson City MO']
1569,1569,Dos Primos Mexican Restaurant,38.657918,-92.114139,"['130 Weststar St', 'Holts Summit, MO 65043']",MO,['Jefferson City MO']
1570,1570,McDonald's,38.773542,-92.253855,"['602 E Broadway', 'Ashland, MO 65010']",MO,['Jefferson City MO']
1571,1571,McDonald's,38.841038,-91.95078459999999,"['303 S Business 54', 'Fulton, MO 65251']",MO,['Jefferson City MO']
1572,1572,Taco Bell,38.85641,-91.94436999999999,"['1009 N Bluff', 'Fulton, MO 65251']",MO,['Jefferson City MO']
1573,1573,Subway,38.6555049,-92.1149173,"['122 Northstar St', 'Holts Summit, MO 65043']",MO,['Jefferson City MO']
1574,1574,Subway,38.548813806119,-92.14917938083559,"['905 Eastland Dr', 'Ste A', 'Jefferson City, MO 65101']",MO,['Jefferson City MO']
1575,1575,Subway,38.3811338,-92.39771145731609,"['16318 Mt Carmel Rd', 'Eugene, MO 65032']",MO,['Jefferson City MO']
1576,1576,Dairy Queen Grill & Chill,38.8680208410087,-91.9434159994125,"['2000 N Bluff St', 'Fulton, MO 65251']",MO,['Jefferson City MO']
1577,1577,Subway,38.62722,-92.56621,"['101 E Buchanan', 'California, MO 65018']",MO,['Jefferson City MO']
1578,1578,Subway,38.8662888,-91.944440765453,"['1899 N Bluff St', 'Fulton, MO 65251']",MO,['Jefferson City MO']
1579,1579,Pizza Hut,38.656757,-92.113794,"['152 Northstar Dr', 'Holts Summit, MO 65043']",MO,['Jefferson City MO']
1581,1581,Culver's,37.3104209899902,-89.55270385742192,"['295 N Kingshighway', 'Cape Girardeau, MO 63701']",MO,['Cape Girrardeau MO']
1582,1582,Chick-fil-A,37.3019384,-89.57242240000001,"['3333 Gordonville Rd', 'Cape Girardeau, MO 63703']",MO,['Cape Girrardeau MO']
1583,1583,White Castle,37.302409999999995,-89.58215,"['102 Siemers Dr', 'Cape Girardeau, MO 63701']",MO,['Cape Girrardeau MO']
1584,1584,Burrito-Ville,37.3069155,-89.5299619,"['913 Broadway St', 'Cape Girardeau, MO 63701']",MO,['Cape Girrardeau MO']
1585,1585,Popeyes Louisiana Kitchen,37.301841700000004,-89.57611999999999,"['3237 William St', 'Cape Girardeau, MO 63703']",MO,['Cape Girrardeau MO']
1586,1586,QDOBA Mexican Eats,37.3003008847599,-89.56837624311449,"['3019 William St', 'Ste 101', 'Cape Girardeau, MO 63703']",MO,['Cape Girrardeau MO']
1587,1587,Zoi's Gyros Corner,37.31235,-89.54396,"['1865 Broadway St', 'Cape Girardeau, MO 63701']",MO,['Cape Girrardeau MO']
1588,1588,Taco John's,37.3085521981656,-89.5523191988468,"['111 N Kings Hwy', 'Cape Girardeau, MO 63701']",MO,['Cape Girrardeau MO']
1589,1589,Chick-fil-A,37.311479,-89.5322,"['1 University Plz', 'MS 1700', 'MS 1700', 'Cape Girardeau, MO 63701']",MO,['Cape Girrardeau MO']
1590,1590,Wendy's,37.30426,-89.55294,"['35 S. Kings Hgwy.', 'Cape Girardeau, MO 63703']",MO,['Cape Girrardeau MO']
1591,1591,Panda Express - Temporarily Closed,37.314868,-89.528014,"['One University Plaza Ms1700', 'Cape Girardeau, MO 63701']",MO,['Cape Girrardeau MO']
1592,1592,Jimmy John's,37.31309,-89.5421,"['1800 Broadway', 'Cape Girardeau, MO 63701']",MO,['Cape Girrardeau MO']
1593,1593,Panda Express,37.300976,-89.582348,"['130 Siemens Dr', 'Cape Girardeau, MO 63701']",MO,['Cape Girrardeau MO']
1594,1594,Burger King,37.3027479658313,-89.57499954316499,"['495 South Mt Auburn Rd', 'Cape Girardeau, MO 63701']",MO,['Cape Girrardeau MO']
1595,1595,Taco Bell,37.3002315226201,-89.56982821194309,"['3039 Williams', 'Cape Girardeau, MO 63703']",MO,['Cape Girrardeau MO']
1596,1596,Burger King,37.313481,-89.551723,"['2346 Broadway', 'Cape Girardeau, MO 63701']",MO,['Cape Girrardeau MO']
1597,1597,McDonald's,37.312513786963,-89.545815512538,"['1925 Broadway St', 'Cape Girardeau, MO 63701']",MO,['Cape Girrardeau MO']
1598,1598,Dairy Queen Grill & Chill,37.3046535,-89.5522784,"['31 S Kings Hwy', 'Cape Girardeau, MO 63703']",MO,['Cape Girrardeau MO']
1599,1599,KFC,37.3025096,-89.546589,"['2101 William St', 'Cape Girardeau, MO 63703']",MO,['Cape Girrardeau MO']
1600,1600,Muy Bueno Mexican Restaurant,37.3060325599992,-89.54406314262042,"['1751 Independence St', 'Cape Girardeau, MO 63703']",MO,['Cape Girrardeau MO']
1601,1601,Taco Bell,37.31192,-89.55256,"['335 N Kingshighway St', 'Cape Girardeau, MO 63701']",MO,['Cape Girrardeau MO']
1602,1602,Subway,37.2986132527695,-89.5655243,"['246 S Silver Springs Rd', 'Cape Girardeau, MO 63703']",MO,['Cape Girrardeau MO']
1603,1603,Arby's,37.3071,-89.55081,"['2134 Independence St', 'Cape Girardeau, MO 63703']",MO,['Cape Girrardeau MO']
1604,1604,Subway,37.3065193,-89.52684114737049,"['701 Broadway St', 'Cape Girardeau, MO 63701']",MO,['Cape Girrardeau MO']
1605,1605,McDonald's,37.30243,-89.58326,"['3419 Williams', 'Cape Girardeau, MO 63701']",MO,['Cape Girrardeau MO']
1606,1606,Dairy Queen Grill & Chill,37.366759282040704,-89.63743507862091,"['2806 E Jackson Blvd', 'Jackson, MO 63755']",MO,['Cape Girrardeau MO']
1607,1607,Sonic Drive-In,37.2981747835523,-89.5805965,"['262 Seimers Dr', 'Cape Girardeau, MO 63701']",MO,['Cape Girrardeau MO']
1608,1608,Taco Bell,37.36849,-89.642638,"['2271 East Jackson Blvd', 'Jackson, MO 63755']",MO,['Cape Girrardeau MO']
1609,1609,Subway,37.3349991820923,-89.57481041066879,"['1812 Carondalet', 'Ste 103', 'Cape Girardeau, MO 63701']",MO,['Cape Girrardeau MO']
1610,1610,McDonald's,37.369212760523205,-89.642777284771,"['2220 Hwy 61 E', 'Jackson, MO 63755']",MO,['Cape Girrardeau MO']
1611,1611,Subway,37.3620937,-89.6346282,"['3051 E Jackson Blvd', 'Jackson, MO 63755']",MO,['Cape Girrardeau MO']
1615,1615,Firehouse Subs,38.4797935,-90.3046188,"['4595 Chestnut Park Plz', 'Saint Louis, MO 63129']",MO,['Oakville MO']
1618,1618,Raising Cane's Chicken Fingers,38.44031,-90.37339,"['1163 Jeffco Blvd', 'Arnold, MO 63010']",MO,['Oakville MO']
1620,1620,The Gyro Company - South County,38.4640388,-90.3566895,"['5496 Baumgartner Rd', 'Saint Louis, MO 63129']",MO,['Oakville MO']
1621,1621,Jack in the Box,38.4684321,-90.30482420000001,"['5624 Telegraph Rd', 'Oakville, MO 63129']",MO,['Oakville MO']
1623,1623,Lion's Choice,38.446509999999996,-90.37331,"['943 Jeffco Blvd', 'Arnold, MO 63010']",MO,['Oakville MO']
1624,1624,Burger King,38.46991,-90.30566,"['5601 Telegraph Rd', 'Saint Louis, MO 63129']",MO,['Oakville MO']
1625,1625,Pretzel Pretzel,38.486,-90.30374,"['4338 Telegraph Rd', 'Affton, MO 63129']",MO,['Oakville MO']
1627,1627,Panda Express - Temporarily Closed,38.506421,-90.330463,"['18 S County Centerway', 'Saint Louis, MO 63129']",MO,['Oakville MO']
1628,1628,Steak ’n Shake,38.496316,-90.29860698067301,"['3226 Telegraph Rd', 'St. Louis, MO 63125']",MO,['Oakville MO']
1629,1629,Arby's,38.506805419921896,-90.32574462890621,"['3973 Lemay Ferry Rd', 'Saint Louis, MO 63125']",MO,['Oakville MO']
1630,1630,Jimmy John's,38.4979216,-90.3378124,"['4530 Lemay Ferry Rd', 'Ste. T', 'St. Louis, MO 63129']",MO,['Oakville MO']
1631,1631,Culver's,38.413154602050795,-90.38382741104509,"['123 Richardson Crossing', 'Arnold, MO 63010']",MO,['Oakville MO']
1632,1632,Rally's,38.446979999999996,-90.37106,"['1 Fox Valley Center', 'Arnold, MO 63010']",MO,['Oakville MO']
1634,1634,Taco Bell,38.509139000000005,-90.322373,"['3715 Lemay Ferry Road', 'Saint Louis, MO 63125']",MO,['Oakville MO']
1635,1635,Jack in the Box,38.4988973737758,-90.33498778939251,"['4500 Lemay Ferry Rd', 'Saint Louis, MO 63129']",MO,['Oakville MO']
1636,1636,Taco Bell,38.519008,-90.342182,"['6080 S. Lindbergh Blvd.', 'Green Park, MO 63123']",MO,['Oakville MO']
1637,1637,Steak ’n Shake,38.4490417784831,-90.36400122636721,"['120 Arnold Crossroads Ctr', 'Arnold, MO 63010']",MO,['Oakville MO']
1638,1638,Taco Bell,38.485712,-90.361623,"['4320 Butler Hill Road', 'Saint Louis, MO 63128']",MO,['Oakville MO']
1639,1639,QDOBA Mexican Eats,38.506855137540704,-90.3300529619713,"['90 S County Center Way', 'Ste 100', 'St. Louis, MO 63129']",MO,['Oakville MO']
1640,1640,Dairy Queen Grill & Chill,38.486566395196,-90.30362031896401,"['4312 Telegraph Rd', 'Oakville, MO 63129']",MO,['Oakville MO']
1641,1641,Burger King,38.4852490300949,-90.357650131593,"['4324 Butler Hill Rd', 'Saint Louis, MO 63128']",MO,['Oakville MO']
1642,1642,White Castle,38.52312,-90.35431,"['5615 S Lindbergh Blvd', 'St. Louis, MO 63123']",MO,['Oakville MO']
1643,1643,Taco Bell,38.473371,-90.304978,"['5453 Telegraph Road', 'Saint Louis, MO 63129']",MO,['Oakville MO']
1644,1644,Jimmy John's,38.473778,-90.305554,"['5445 Telegraph Rd', 'St. Louis, MO 63129']",MO,['Oakville MO']
1648,1648,Noodles & Company,38.507172995257704,-90.33045379419559,"['18 S County Center Way', 'Saint Louis, MO 63129']",MO,['Oakville MO']
1649,1649,McDonald's,38.500951363534604,-90.33342440000001,"['4407 Lemay Ferry Rd', 'St. Louis, MO 63129']",MO,['Oakville MO']
1650,1650,McDonald's,38.4715782555417,-90.3054399043322,"['5537 Telegraph Rd', 'St. Louis, MO 63129']",MO,['Oakville MO']
1651,1651,Firehouse Subs,38.506085294579,-90.3778870403767,"['9964-A Kennerly Rd', 'St. Louis, MO 63128']",MO,['Oakville MO']
1653,1653,Panda Express,38.51513,-90.34175,"['6304 S Lindbergh Blvd', 'Green Park, MO 63123']",MO,['Oakville MO']
1655,1655,Panda Express,38.44458,-90.37479599999999,"['3880 State Rte 141', 'Arnold, MO 63010']",MO,['Oakville MO']
1656,1656,White Castle,38.50186,-90.33251,"['4395 Lemay Ferry Rd', 'Saint Louis, MO 63129']",MO,['Oakville MO']
1658,1658,QDOBA Mexican Eats,38.557637,-90.262286,"['1042 Loughborough Ave', 'Unit H', 'St. Louis, MO 63111']",MO,['Oakville MO']
1660,1660,QDOBA Mexican Eats,38.4384762398755,-90.38527294063671,"['905 Arnold Commons Dr', 'Arnold, MO 63010']",MO,['Oakville MO']
1661,1661,Dairy Queen,38.552984199277205,-90.3230437,"['9529 Gravois Rd', 'Affton, MO 63123']",MO,['Oakville MO']
1662,1662,Church's Chicken,38.52300646922421,-90.35067444377859,"['5720 S Lindbergh Blvd', 'St. Louis, MO 63123']",MO,['Oakville MO']
1663,1663,Jack in the Box,38.510883,-90.2914027,"['2666 Telegraph Rd', 'Saint Louis, MO 63125']",MO,['Oakville MO']
1664,1664,McAlister's Deli,38.505403,-90.325852,"['4000 Lemay Ferry Rd', 'St. Louis, MO 63125']",MO,['Oakville MO']
1665,1665,Jimmy John's,38.52428133,-90.36081483,"['10566 Baptist Church Rd', 'St. Louis, MO 63128']",MO,['Oakville MO']
1668,1668,Dairy Queen Grill & Chill,38.519225,-90.342556,"['6070 S Lindbergh Blvd', 'Saint Louis, MO 63123']",MO,['Oakville MO']
1669,1669,Taco Bell,38.499482,-90.38075500000001,"['12850 Tesson Ferry Road', 'Saint Louis, MO 63128']",MO,['Oakville MO']
1670,1670,Burger King,38.4151324673624,-90.3914756131616,"['3600 West Outer Rd', 'Arnold, MO 63010']",MO,['Oakville MO']
1671,1671,Captain D's,38.447364746477106,-90.37043318152429,"['830 Jeffco Blvd', 'Arnold, MO 63010']",MO,['Oakville MO']
1672,1672,Taco Bell,38.4466,-90.3724,"['926 Jeffco Blvd', 'Arnold, MO 63010']",MO,['Oakville MO']
1673,1673,McDonald's,38.4939904416972,-90.380927324295,"['13050 Tesson Ferry Rd', 'St. Louis, MO 63128']",MO,['Oakville MO']
1674,1674,Jack in the Box,38.50741,-90.3772,"['9970 Kennerly Rd', 'Saint Louis, MO 63128']",MO,['Oakville MO']
1675,1675,Taco Bell,38.548221000000005,-90.29227900000001,"['4254 Bayless Ave', 'Saint Louis, MO 63123']",MO,['Oakville MO']
1677,1677,KFC,38.5085275890173,-90.3334487466097,"['4071 Union Rd', 'Saint Louis, MO 63129']",MO,['Oakville MO']
1678,1678,Taco Bell,38.4136,-90.3861,"['1932 Richardson Road', 'Arnold, MO 63010']",MO,['Oakville MO']
1679,1679,Steak ’n Shake,38.5568913,-90.40764300000001,"['1525 S Kirkwood Rd', 'Sunset Hills, MO 63127']",MO,['Oakville MO']
1680,1680,McDonald's,38.4184245704521,-90.3907495737076,"['2005 Richardson Rd', 'Arnold, MO 63010']",MO,['Oakville MO']
1682,1682,Jack in the Box,38.55724900088521,-90.38727074861531,"['9805 Watson Rd', 'Crestwood, MO 63126']",MO,['Oakville MO']
1683,1683,Crazy Bowls & Wraps,38.554097999999996,-90.407911,"['10758 Sunset Hills Plz', 'Sunset Hills, MO 63127']",MO,['Oakville MO']
1684,1684,Tequila Mexican Restaurant,38.4639131,-90.35662459999999,"['5496 Baumgartner Rd', 'Ste 119', 'Saint Louis, MO 63129']",MO,['Oakville MO']
1685,1685,Jimmy John's,38.438804,-90.37255400000001,"['1266 Jeffco Blvd', 'Arnold, MO 63010']",MO,['Oakville MO']
1686,1686,KFC,38.4337882764139,-90.375794,"['1436 Jeffco Blvd', 'Arnold, MO 63010']",MO,['Oakville MO']
1687,1687,Burger King,38.52422,-90.35968000000001,"['5447 South Lindbergh Blvd', 'St. Louis, MO 63123']",MO,['Oakville MO']
1688,1688,Subway,38.4511798013025,-90.3659874131575,"['657-659 Jeffco Blvd', 'Arnold, MO 63010']",MO,['Oakville MO']
1689,1689,McDonald's,38.5220025915035,-90.34638851881029,"['5904 S Lindbergh Blvd', 'St. Louis, MO 63123']",MO,['Oakville MO']
1690,1690,White Castle,38.41077,-90.38284,"['1905 Richardson Rd', 'Arnold, MO 63010']",MO,['Oakville MO']
1691,1691,Jack in the Box,38.438676978655295,-90.373866,"['1289 Jeffco Blvd', 'Arnold, MO 63010']",MO,['Oakville MO']
1692,1692,McDonald's,38.557044499292005,-90.3937831521035,"['9915 Watson Rd', 'Crestwood, MO 63126']",MO,['Oakville MO']
1693,1693,Arbys,38.44515,-90.37503199999999,"['224 Arnold Crossroads Ctr', 'Arnold, MO 63010']",MO,['Oakville MO']
1694,1694,Bob Evans,38.511323274462704,-90.3373716026545,"['6528 S Lindbergh Blvd', 'Saint Louis, MO 63123']",MO,['Oakville MO']
1695,1695,Jimmy John's,38.54810433,-90.4043475,"['3860 S Lindbergh Blvd', 'Ste 105', 'Sunset Hills, MO 63127']",MO,['Oakville MO']
1696,1696,Subway Restaurants,38.488444,-90.382323,"['13146 Tesson Ferry Rd', 'St Louis, MO 63128']",MO,['Oakville MO']
1697,1697,McDonald's,38.496247147157796,-90.29955312609671,"['3282 Telegraph Rd', 'St. Louis, MO 63125']",MO,['Oakville MO']
1698,1698,Subway,38.549356200000005,-90.3354295026393,"['10052 Gravois Rd', 'Affton, MO 63123']",MO,['Oakville MO']
1699,1699,Subway,38.548413857856296,-90.29158238378,"['4251 Bayless Ave', 'St Louis, MO 63123']",MO,['Oakville MO']
1700,1700,River Des Peres Yacht Club,38.54827237692079,-90.2647571678446,"['7832 Ivory Ave', 'Saint Louis, MO 63111']",MO,['Oakville MO']
1701,1701,Taco Bell,38.4976045476843,-90.2998089417815,"['3204 Telegraph Rd', 'Saint Louis, MO 63125']",MO,['Oakville MO']
1702,1702,Subway,38.4019394989134,-90.37623584383391,"['4 & 5 Village Plz', 'Arnold, MO 63010']",MO,['Oakville MO']
1703,1703,Dairy Queen,38.413700257932,-90.3851437568665,"['1959 Richardson Rd', 'Arnold, MO 63010']",MO,['Oakville MO']
1704,1704,Subway,38.504613301015894,-90.2959351561342,"['2864 Telegraph Rd', 'Saint Louis, MO 63125']",MO,['Oakville MO']
1705,1705,Jack in the Box,38.54858,-90.29329,"['4292 Bayless Ave', 'Saint Louis, MO 63123']",MO,['Oakville MO']
1706,1706,That'sa Nice'a Pizza,38.41729,-90.39152,"['2000 Richardson Rd', 'Ste 2', 'Arnold, MO 63010']",MO,['Oakville MO']
1707,1707,Subway,38.5288426047074,-90.3635417901374,"[""38 Ronnie's Plz"", 'St Louis, MO 63126']",MO,['Oakville MO']
1708,1708,McDonald's,38.444978799999994,-90.375794,"['130 Arnold Cross Rd', 'Arnold, MO 63010']",MO,['Oakville MO']
1709,1709,Burger King,38.55303008725121,-90.4074966757576,"['10734 Sunset Hills Plz', 'Saint Louis, MO 63127']",MO,['Oakville MO']
1710,1710,McDonald's,38.5459784898836,-90.287680485053,"['4011 Bayless Ave', 'St. Louis, MO 63125']",MO,['Oakville MO']
1711,1711,Waffle House,38.416579999999996,-90.39161999999999,"['3960 Vogel Rd', 'Arnold, MO 63010']",MO,['Oakville MO']
1712,1712,Happy Wok,38.416496,-90.393812,"['3916 Vogel Rd', 'Arnold, MO 63010']",MO,['Oakville MO']
1713,1713,Subway,38.5544929997311,-90.4078809636331,"['10754 Sunset Hills Plz', 'Sunset Hills, MO 63127']",MO,['Oakville MO']
1714,1714,Pizza Hut,38.411767782183794,-90.3847897052765,"['1926 Richardson Rd', 'Arnold, MO 63010']",MO,['Oakville MO']
1731,1731,Subway,38.484455,-90.7401721333249,"['123 E Osage St', 'Pacific, MO 63069']",MO,['Wildwood MO']
1738,1738,Taco Bell,38.44328,-91.00171800000001,"['301 Crestview', 'Union, MO 63084']",MO,['Wildwood MO']
1740,1740,Burger King,38.4748372761148,-90.85437991071541,"['109 Hwy AT', 'Villa Ridge, MO 63089']",MO,['Wildwood MO']
1763,1763,Taco Bell,38.5381,-90.494185,"['2115 Smizer Station Road', 'Valley Park, MO 63088']",MO,['Wildwood MO']
1768,1768,Taco Bell,38.36274,-90.98043,"['8299 Highway 47', 'Saint Clair, MO 63077']",MO,['Wildwood MO']
1774,1774,Taco Bell,38.484681,-90.758188,"['1630 West Osage Street', 'Pacific, MO 63069']",MO,['Wildwood MO']
1777,1777,Wimpy's Sandwich Shop,38.5563180595636,-91.0133171081543,"['521 Jefferson St', 'Washington, MO 63090']",MO,['Wildwood MO']
1778,1778,Burger King,38.363262451946795,-90.9813491898455,"['8297 Hwy 47', 'Saint Clair, MO 63077']",MO,['Wildwood MO']
1783,1783,White Castle,38.541083711691996,-90.474052372491,"['1789 Bowles Ave', 'Fenton, MO 63026']",MO,['Wildwood MO']
1784,1784,Tres Toritos,38.34132370655821,-90.98649673355841,"['10 E Gravois Ave', 'Saint Clair, MO 63077']",MO,['Wildwood MO']
1788,1788,Subway,38.35954,-90.979393,"['870 S Outer Rd', 'St Clair, MO 63077']",MO,['Wildwood MO']
1791,1791,McDonald's,38.48421067,-90.7599025,"['1620 West Union', 'Pacific, MO 63069']",MO,['Wildwood MO']
1797,1797,KFC,38.4842420911471,-90.7632427404928,"['1922 W Osage St', 'Pacific, MO 63069']",MO,['Wildwood MO']
1801,1801,Shenanigan's Pub & Grill,38.3788356184959,-90.61753571033479,"['5642 Gravois Rd', 'House Springs, MO 63051']",MO,['Wildwood MO']
1814,1814,Cedar Hill Dar-E Kreme,38.353383,-90.643947,"['7070 State Hwy BB', 'Cedar Hill, MO 63016']",MO,['Wildwood MO']
1823,1823,Subway,38.370529,-90.631049,"['8450 Local Hillsboro Rd', 'Cedar Hill, MO 63016']",MO,['Wildwood MO']
1826,1826,Domino's Pizza,38.603765100000004,-90.5855151,"['345 Clarkson Rd', 'Ellisville, MO 63011']",MO,['Wildwood MO']
1829,1829,Dairy Queen Grill & Chill,38.56812070000001,-90.49496278166771,"['1445 Big Bend Rd', 'Ballwin, MO 63021']",MO,['Wildwood MO']
1837,1837,Jack in the Box,38.2618101686239,-90.39099901914601,"['1197 Scenic Dr', 'Herculaneum, MO 63048']",MO,['Wildwood MO']
1839,1839,Burger King,38.507070529134204,-90.63173047094541,"['235 West 5th Street', 'Eureka, MO 63025']",MO,['Wildwood MO']
1843,1843,Bob's Drive-in,38.3940391540527,-90.3731002807617,"['5166 US Hwy 61/67', 'Imperial, MO 63052']",MO,['Wildwood MO']
1846,1846,Chipotle Mexican Grill,38.599659,-90.4469,"['80 W County Ctr', 'Ste 10', 'Des Peres, MO 63131']",MO,['Wildwood MO']
1850,1850,Subway,38.5812685,-90.6257813,"['2430 Taylor Rd', 'Wildwood, MO 63040']",MO,['Wildwood MO']
1862,1862,KFC,38.4133458311265,-90.580874,"[""43 Walter's Pl"", 'House Springs, MO 63051']",MO,['Wildwood MO']
1878,1878,McDonald's,38.673909680706295,-90.3469978726935,"['8127 Olive Street Rd', 'University City, MO 63130']",MO,['University City MO']
1896,1896,QDOBA Mexican Eats,38.6348137704354,-90.31645707786079,"['6701 Clayton Rd', 'St Louis, MO 63117']",MO,['University City MO']
1897,1897,Crazy Bowls & Wraps,38.648790000000005,-90.32719,"['7353 Forsyth Blvd', 'Saint Louis, MO 63105']",MO,['University City MO']
1913,1913,Snarf's Sandwiches - St. Louis,38.651663623775,-90.3000940213512,"['360 N Skinker Blvd', 'St. Louis, MO 63130']",MO,['University City MO']
1921,1921,Jimmy John's,38.6563255637884,-90.3080114722252,"['6681 Delmar Blvd', 'University City, MO 63130']",MO,['University City MO']
1925,1925,Jimmy John's,38.673484,-90.3680077,"['9200 Olive Blvd', 'Olivette, MO 63132']",MO,['University City MO']
1927,1927,Subway,38.647482000000004,-90.30958100000001,"['1 Brookings Dr', 'Saint Louis, MO 63105']",MO,['University City MO']
1928,1928,Steak ’n Shake,38.6920753067685,-90.3915850818157,"['10459 Page Ave', 'St. Louis, MO 63132']",MO,['University City MO']
1929,1929,Jimmy John's,38.62252,-90.33530999999999,"['1230 Strassner Dr', 'Brentwood, MO 63144']",MO,['University City MO']
1932,1932,Jack in the Box,38.683957263484004,-90.33622696995741,"['8307 Page Ave', 'Vinita Park, MO 63130']",MO,['University City MO']
1933,1933,Popeyes Louisiana Kitchen,38.692257,-90.39371899999999,"['10545 Page Ave', 'St Louis, MO 63132']",MO,['University City MO']
1936,1936,Taco Bell,38.6909551113347,-90.3898341991803,"['10426 Page Ave', 'Olivette, MO 63132']",MO,['University City MO']
1942,1942,Taco Bell,38.626532,-90.287483,"['1324 Hampton Avenue', 'Saint Louis, MO 63139']",MO,['University City MO']
1948,1948,Subway,38.6499546,-90.33636920000001,"['7744 Forsyth Blvd', 'Clayton, MO 63105']",MO,['University City MO']
1952,1952,Hon's Wok III,38.66361,-90.31439,"['6900 Olive Blvd', 'Saint Louis, MO 63130']",MO,['University City MO']
1956,1956,McDonald's,38.6862573621787,-90.35782924513109,"['8960 Page Ave', 'Overland, MO 63114']",MO,['University City MO']
1961,1961,Jack in the Box,38.6913530423768,-90.39165884256359,"['10460 Page Blvd', 'Saint Louis, MO 63132']",MO,['University City MO']
1965,1965,Jimmy John's,38.630106700000006,-90.2822315,"['5720 Oakland Ave', 'St. Louis, MO 63110']",MO,['University City MO']
1967,1967,Panda Express - Temporarily Closed,38.636278000000004,-90.348028,"['1155 St Louis Galleria', 'Saint Louis, MO 63117']",MO,['University City MO']
1970,1970,Subway,38.6718864762137,-90.3403330579183,"['7888 Olive Blvd', 'University City, MO 63130']",MO,['University City MO']
1974,1974,Subway,38.7323741306307,-90.35663259999998,"['4484 Woodson Rd', 'St Louis, MO 63134']",MO,['University City MO']
1976,1976,KFC,38.6513267814773,-90.2644047826372,"['5020 Delmar', 'Saint Louis, MO 63108']",MO,['University City MO']
1980,1980,McDonald's,38.624459,-90.287467,"['1420 Hampton Ave', 'St. Louis, MO 63139']",MO,['University City MO']
1985,1985,QDOBA Mexican Eats,38.6399488827244,-90.2447864413261,"['4049 Lindell Blvd', 'St. Louis, MO 63108']",MO,['University City MO']
1988,1988,Subway,38.650711,-90.3472626,"['50 Gay Ave', 'Clayton, MO 63105']",MO,['University City MO']
1990,1990,Taco Bell,38.650827,-90.263416,"['626 N Kings Highway Blvd', 'Saint Louis, MO 63108']",MO,['University City MO']
1991,1991,Shapiro's Market,38.640572600000006,-90.2548064,"['111 N Newstead Ave', 'Saint Louis, MO 63108']",MO,['University City MO']
1994,1994,Burger King,38.652,-90.26437,"['5025 Delmar Blvd', 'Saint Louis, MO 63108']",MO,['University City MO']
1997,1997,Noodles & Company,38.591715457864794,-90.2937792102458,"['64 Hampton Village Plz', 'Saint Louis, MO 63109']",MO,['University City MO']
1999,1999,KFC,38.5932494165844,-90.2441046938658,"['3517 S Grand', 'Saint Louis, MO 63118']",MO,['University City MO']
2001,2001,Jimmy John's,38.6409519,-90.2626427,"['13 N Euclid Ave', 'St. Louis, MO 63108']",MO,['University City MO']
2002,2002,Jimmy John's,38.6356545,-90.2407013,"['3822 Laclede Ave', 'St. Louis, MO 63108']",MO,['University City MO']
2006,2006,White Castle,38.729045,-90.404808,"['3520 N Lindbergh Blvd', 'Bridgeton, MO 63044']",MO,['University City MO']
2008,2008,Pizza World,38.590717100000006,-90.327362,"['7504 Murdoch Ave', 'Shrewsbury, MO 63119']",MO,['University City MO']
2009,2009,Dickey's Barbecue Pit,38.624224,-90.347204,"['1912 S Brentwood Blvd', 'Brentwood, MO 63144']",MO,['University City MO']
2010,2010,Subway,38.74146456088,-90.3044466757299,"['151 S Florissant', 'Ferguson, MO 63135']",MO,['University City MO']
2011,2011,Jack in the Box,38.626897727872404,-90.2872793376445,"['1242 Hampton Ave', 'Saint Louis, MO 63139']",MO,['University City MO']
2012,2012,Jimmy John's,38.59335,-90.30068,"['6459 Chippewa St', 'Ste. A', 'St. Louis, MO 63109']",MO,['University City MO']
2014,2014,QDOBA Mexican Eats,38.602514,-90.242018,"['3100 S Grand Blvd', 'Ste F', 'St. Louis, MO 63118']",MO,['University City MO']
2026,2026,Long John Silver's,39.242459999999994,-94.44083,"['1175 Elizabeth St', 'Liberty, MO 64068']",MO,['Liberty MO']
2027,2027,Burger King,39.245459999999994,-94.4601,"['9650 N E Barry Rd', 'Kansas City, MO 64157']",MO,['Liberty MO']
2028,2028,Chipotle Mexican Grill,39.2477272172724,-94.46593683804609,"['8700 NE Flintlock Rd', 'Kansas City, MO 64157']",MO,['Liberty MO']
2029,2029,McDonald's,39.236963700000004,-94.4334093,"['918 S 291st Hwy', 'Liberty, MO 64068']",MO,['Liberty MO']
2030,2030,Jimmy John's,39.2436689,-94.45108685085741,"['1910 Victory Dr', 'Liberty, MO 64068']",MO,['Liberty MO']
2031,2031,Dairy Queen Grill & Chill,39.267715185282896,-94.4504901766778,"['10350 NE Cookingham Dr', 'Kansas City, MO 64157']",MO,['Liberty MO']
2032,2032,McDonald's,39.243897170946205,-94.4625011086464,"['9851 NE Barry Rd', 'Kansas City, MO 64157']",MO,['Liberty MO']
2033,2033,Sonic Drive-In,39.24021320000001,-94.43812659999999,"['615 S 291st Hwy', 'Liberty, MO 64068']",MO,['Liberty MO']
2034,2034,McDonald's,39.267850161431,-94.45104271173479,"['9701 N Ash Ave', 'Kansas City, MO 64068']",MO,['Liberty MO']
2035,2035,Subway Restaurants,39.238716003316,-94.43624090856942,"['820 B South 291 Hwy', 'Liberty, MO 64068']",MO,['Liberty MO']
2036,2036,Taco Bell,39.243633,-94.467246,"['9301 NE Highway 152', 'Kansas City, MO 64158']",MO,['Liberty MO']
2037,2037,Waffle House,39.245266,-94.459773,"['9700 NE Barry Rd', 'Kansas City, MO 64157']",MO,['Liberty MO']
2038,2038,IHOP,39.24684,-94.45313,"['125 N Stewart Rd', 'Liberty, MO 64068']",MO,['Liberty MO']
2039,2039,Arby's,39.24326705932621,-94.46578979492192,"['8261 N Oxford St', 'Kansas City, MO 64158']",MO,['Liberty MO']
2040,2040,KFC,39.24325246765179,-94.46315445217779,"['9551 NE 83rd Ter', 'Kansas City, MO 64158']",MO,['Liberty MO']
2041,2041,SmallCakes Cupcakery,39.268968,-94.451909,"['9754 N Ash Ave', 'Kansas City, MO 64157']",MO,['Liberty MO']
2042,2042,Sonic Drive-In,39.268801216766796,-94.45355325937271,"['10101 NE Cookingham Rd', 'Kansas City, MO 64157']",MO,['Liberty MO']
2043,2043,Subway,39.2427741044688,-94.45925600000001,"['8301 N Church Rd', 'Kansas City, MO 64158']",MO,['Liberty MO']
2044,2044,Subway,39.2691668223328,-94.45252190000001,"['9776 N Ash', 'Kansas City, MO 64157']",MO,['Liberty MO']
